Station,Postcode,Latitude,Longitude,Owner
Abbey Wood,SE2 9RH,51.49106056,0.121394025,TfL Rail
Aber,CF83 1AQ,51.57496911,-3.229829051,TfW Rail
Abercynon,CF45 4SE,51.6447124,-3.326988552,TfW Rail
Aberdare,CF44 0PU,51.71506183,-3.443084095,TfW Rail
Aberdeen,AB11 6LX,57.14370583,-2.098685386,ScotRail
Aberdour,KY3 0SN,56.05459557,-3.300560615,ScotRail
Aberdovey,LL35 0NR,52.5439615,-4.057067962,TfW Rail
Abererch,LL53 6PJ,52.89858847,-4.374176474,TfW Rail
Abergavenny,NP7 5HS,51.81669304,-3.0096473,TfW Rail
Abergele and Pensarn,LL22 7PR,53.29457716,-3.582622688,TfW Rail
Aberystwyth,SY23 1LH,52.41404989,-4.081894427,TfW Rail
Accrington,BB5 1LJ,53.75297338,-2.369548102,Northern Trains
Achanalt,IV23 2QD,57.60960187,-4.913852563,ScotRail
Achnasheen,IV22 2EJ,57.57929592,-5.072333529,ScotRail
Achnashellach,IV54 8YH,57.4820809,-5.333056788,ScotRail
Acklington,NE65 4DE,55.30709932,-1.651834796,Northern Trains
Acle,NR13 3BZ,52.63467776,1.543914976,Greater Anglia
Acocks Green,B27 6EB,52.44932407,-1.818975622,West Midlands Trains (West Midlands Railway)
Acton Bridge (Cheshire),CW8 2RE,53.26650976,-2.603126907,West Midlands Trains (London Northwestern Railway)
Acton Central,W3 6BH,51.50871501,-0.262970693,London Overground
Acton Main Line,W3 9EH,51.51717888,-0.26675644,TfL Rail
Adderley Park,B9 4TG,52.48308729,-1.855944637,West Midlands Trains (West Midlands Railway)
Addiewell,EH55 8NQ,55.84341308,-3.606527122,ScotRail
Addlestone,KT15 2PB,51.37304475,-0.484456797,South Western Railway
Adisham,CT3 3JE,51.2411978,1.199089047,Southeastern
Adlington (Cheshire),SK10 4NA,53.31955579,-2.133562744,Northern Trains
Adlington (Lancashire),PR6 9RS,53.61324685,-2.603071196,Northern Trains
Adwick,DN6 7AJ,53.57232101,-1.18035633,Northern Trains
Aigburth,L17 6AG,53.36456801,-2.927155401,Merseyrail
Ainsdale,PR8 3HJ,53.60203553,-3.042652521,Merseyrail
Aintree,L9 5BE,53.47391276,-2.956280799,Merseyrail
Airbles,ML1 2SX,55.78283784,-3.994193307,ScotRail
Airdrie,ML6 9EX,55.86398351,-3.982912925,ScotRail
Albany Park,DA5 3HP,51.43545074,0.125737066,Southeastern
Albrighton,WV7 3DS,52.63794427,-2.268900245,West Midlands Trains (West Midlands Railway)
Alderley Edge,SK9 7QA,53.3037821,-2.236799363,Northern Trains
Aldermaston,RG7 4LB,51.40196186,-1.137423927,Great Western Railway
Aldershot,GU11 1HN,51.24641791,-0.759859888,South Western Railway
Aldrington,BN3 5AE,50.83638241,-0.183821513,Govia Thameslink Railway (Southern)
Alexandra Palace,N22 7ST,51.59792249,-0.12023522,Govia Thameslink Railway (Great Northern)
Alexandra Parade,G31 3JN,55.86317598,-4.210648969,ScotRail
Alexandria,G83 0UL,55.98508877,-4.57748537,ScotRail
Alfreton,DE55 7JQ,53.1004323,-1.369696216,East Midlands Railway
Allens West,TS16 0PF,54.52462337,-1.361116835,Northern Trains
Alloa,FK10 1BA,56.1177936,-3.790056403,ScotRail
Alness,IV17 0SE,57.69439917,-4.249717265,ScotRail
Alnmouth,NE66 3QF,55.39277864,-1.636637839,Northern Trains
Alresford (Essex),CO7 8AA,51.85399744,0.997436403,Greater Anglia
Alsager,ST7 2XW,53.09300541,-2.299057841,East Midlands Railway
Althorne (Essex),CM3 6DG,51.64786753,0.752483415,Greater Anglia
Althorpe,DN17 3HL,53.58550035,-0.733182291,Northern Trains
Altnabreac,KW12 6UR,58.3881525,-3.706280968,ScotRail
Alton,GU34 2PZ,51.15196866,-0.966913303,South Western Railway
Altrincham,WA14 1EN,53.38771872,-2.346889104,Northern Trains
Alvechurch,B48 7SE,52.34607212,-1.967660732,West Midlands Trains (West Midlands Railway)
Ambergate,DE56 2EN,53.06051708,-1.480697582,East Midlands Railway
Amberley,BN18 9LT,50.89667919,-0.541992408,Govia Thameslink Railway (Southern)
Amersham,HP6 5AZ,51.6742051,-0.607596139,London Underground
Ammanford,SA18 2DD,51.79597955,-3.996735756,TfW Rail
Ancaster,NG32 3RA,52.98768658,-0.535623734,East Midlands Railway
Anderston,G3 8RR,55.85990212,-4.270980032,ScotRail
Andover,SP10 3HW,51.21154761,-1.492233072,South Western Railway
Anerley,SE20 8PY,51.41215139,-0.065885922,London Overground
Angel Road,N18 3AY,51.61240331,-0.048791423,Greater Anglia
Angmering,BN16 3RE,50.81657439,-0.489394019,Govia Thameslink Railway (Southern)
Annan,DG12 6AS,54.98383888,-3.262581042,ScotRail
Anniesland,G12 0AY,55.88935551,-4.321957842,ScotRail
Ansdell and Fairhaven,FY8 1AG,53.74146547,-2.993034447,Northern Trains
Apperley Bridge,BD10 0FD,53.84175011,-1.705828671,Northern Trains
Appleby,CA16 6TT,54.58034882,-2.486692584,Northern Trains
Appledore (Kent),TN26 2DG,51.0332342,0.816341504,Govia Thameslink Railway (Southern)
Appleford,OX14 4PJ,51.63964155,-1.242141532,Great Western Railway
Appley Bridge,WN6 9AE,53.5786735,-2.719252513,Northern Trains
Apsley,HP3 9SX,51.73252082,-0.462934812,West Midlands Trains (London Northwestern Railway)
Arbroath,DD11 1RQ,56.5595763,-2.588931774,ScotRail
Ardgay,IV24 3AQ,57.88145761,-4.362090238,ScotRail
Ardlui,G83 7DT,56.30197237,-4.721658582,ScotRail
Ardrossan Harbour,KA22 8BH,55.63987823,-4.821111633,ScotRail
Ardrossan South Beach,KA22 8AU,55.64142214,-4.801212641,ScotRail
Ardrossan Town,KA22 8AU,55.63971246,-4.812676452,ScotRail
Ardwick,M12 6LY,53.47134582,-2.213884175,Northern Trains
Argyle Street,G2 8DL,55.85730906,-4.250694863,ScotRail
Arisaig,PH39 4NJ,56.91255374,-5.839079499,ScotRail
Arlesey,SG15 6XA,52.02603001,-0.266319838,Govia Thameslink Railway (Great Northern)
Armadale (West Lothian),EH48 3LP,55.88571403,-3.695413343,ScotRail
Armathwaite,CA4 9PL,54.80946798,-2.772071473,Northern Trains
Arnside,LA5 0HQ,54.2027315,-2.828241892,Northern Trains
Arram,HU17 7NR,53.88434277,-0.426570132,Northern Trains
Arrochar and Tarbet,G83 7DB,56.20397662,-4.722771247,ScotRail
Arundel,BN18 9PH,50.848214,-0.546174298,Govia Thameslink Railway (Southern)
Ascot (Berks),SL5 9EG,51.40624305,-0.675833255,South Western Railway
Ascott-Under-Wychwood,OX3 5LP,51.86734165,-1.564052809,Great Western Railway
Ash,GU12 6JW,51.24959677,-0.712805474,South Western Railway
Ash Vale,GU12 5LP,51.27224641,-0.721648596,South Western Railway
Ashburys,M12 5BY,53.47163972,-2.194436615,Northern Trains
Ashchurch for Tewkesbury,GL20 8TU,51.99890579,-2.108760209,Great Western Railway
Ashfield,G22 6LR,55.88892693,-4.249215094,ScotRail
Ashford (Surrey),TW15 2QN,51.43650626,-0.468070995,South Western Railway
Ashford International,TN23 1EZ,51.14370267,0.876197214,Southeastern
Ashley,WA14 3QE,53.35572581,-2.341460743,Northern Trains
Ashtead,KT21 2DR,51.31787259,-0.307571764,Govia Thameslink Railway (Southern)
Ashton-Under-Lyne,OL6 6JP,53.49127464,-2.094312534,Northern Trains
Ashurst (Kent),TN3 9TL,51.12866083,0.152652112,Govia Thameslink Railway (Southern)
Ashurst New Forest,SO40 7AA,50.88985116,-1.526630857,South Western Railway
Ashwell and Morden,SG7 5RT,52.03077064,-0.109788918,Govia Thameslink Railway (Great Northern)
Askam,LA16 7EN,54.18893316,-3.204511755,Northern Trains
Aslockton,NG13 9AA,52.95154957,-0.898097622,East Midlands Railway
Aspatria,CA7 2AW,54.75895991,-3.331874211,Northern Trains
Aspley Guise,MK17 8XF,52.0212362,-0.632334507,West Midlands Trains (London Northwestern Railway)
Aston,B6 7PR,52.50423203,-1.871933758,West Midlands Trains (West Midlands Railway)
Atherstone,CV9 1BH,52.57897206,-1.552811476,West Midlands Trains (London Northwestern Railway)
Atherton,M46 9RH,53.52914625,-2.478972344,Northern Trains
Attadale,IV54 8YX,57.39504337,-5.455578653,ScotRail
Attenborough,NG9 6AL,52.9062133,-1.231415608,East Midlands Railway
Attleborough,NR17 2AS,52.51454459,1.022347555,Greater Anglia
Auchinleck,KA18 2BH,55.47027847,-4.295350187,ScotRail
Audley End,CB11 4LB,52.00444054,0.207160028,Greater Anglia
Aughton Park,L39 5BT,53.55425045,-2.89522128,Merseyrail
Aviemore,PH22 1PD,57.18851625,-3.828867976,ScotRail
Avoncliff,BA15 2HD,51.33965287,-2.281325582,Great Western Railway
Avonmouth,BS11 9JB,51.50036487,-2.699466518,Great Western Railway
Axminster,EX13 5PF,50.77927441,-3.004723598,South Western Railway
Aylesbury,HP20 1RU,51.81389022,-0.815095998,Chiltern Railways
Aylesbury Vale Parkway,HP18 0PS,51.83115873,-0.860182438,Chiltern Railways
Aylesford,ME20 7LL,51.30131536,0.466170568,Southeastern
Aylesham,CT3 3AS,51.22725054,1.209452683,Southeastern
Ayr,KA7 1TH,55.45814774,-4.625876772,ScotRail
Bache,CH2 1BS,53.20878869,-2.891670511,Merseyrail
Baglan,SA12 8ES,51.61554527,-3.811136545,TfW Rail
Bagshot,GU19 5AS,51.36436694,-0.688661997,South Western Railway
Baildon,BD17 6HS,53.8502255,-1.753636388,Northern Trains
Baillieston,G69 7RN,55.84450591,-4.113699318,ScotRail
Balcombe,RH17 6JQ,51.05552016,-0.136933758,Govia Thameslink Railway (Southern)
Baldock,SG7 5BU,51.99286983,-0.187563754,Govia Thameslink Railway (Great Northern)
Balham,SW12 9SG,51.44322342,-0.152424496,Govia Thameslink Railway (Southern)
Balloch,G83 8SS,56.0029393,-4.583486543,ScotRail
Balmossie,DD5 4QH,56.47456856,-2.838956225,ScotRail
Bamber Bridge,PR5 6EA,53.72686917,-2.660775376,Northern Trains
Bamford,S32 1EG,53.33900084,-1.689081915,Northern Trains
Banavie,PH33 7JF,56.84331461,-5.095426987,ScotRail
Banbury,OX16 5AB,52.06030867,-1.328132895,Chiltern Railways
Bangor (Gwynedd),LL57 1LZ,53.22228759,-4.13588086,TfW Rail
Bank Hall,L20 8BX,53.43749655,-2.987511896,Merseyrail
Banstead,SM7 1PZ,51.32934748,-0.213158931,Govia Thameslink Railway (Southern)
Barassie,KA10 6SA,55.56106445,-4.651139668,ScotRail
Bardon Mill,NE47 7HY,54.97449579,-2.346504755,Northern Trains
Bare Lane,LA4 6LL,54.07454434,-2.835330867,Northern Trains
Bargeddie,G69 7TS,55.85129615,-4.073808253,ScotRail
Bargoed,CF81 9AL,51.69231276,-3.229680131,TfW Rail
Barking,IG11 8TU,51.53949288,0.080902426,c2c
Barming,ME16 9NS,51.28489269,0.478958087,Southeastern
Barmouth,LL42 1LS,52.72289547,-4.056596643,TfW Rail
Barnehurst,DA7 6HQ,51.46495716,0.159646216,Southeastern
Barnes,SW13 0HT,51.46708478,-0.24216429,South Western Railway
Barnes Bridge,SW13 0NP,51.47200723,-0.252630234,South Western Railway
Barnetby,DN38 6DG,53.57512005,-0.409679706,TransPennine Express
Barnham,PO22 0ER,50.83090585,-0.639679954,Govia Thameslink Railway (Southern)
Barnhill,G21 4NB,55.87749489,-4.223005844,ScotRail
Barnsley,S71 1BP,53.55430155,-1.47716484,Northern Trains
Barnstaple,EX31 2AU,51.07397447,-4.063117751,Great Western Railway
Barnt Green,B45 8PA,52.36108984,-1.992466738,West Midlands Trains (West Midlands Railway)
Barrhead,G78 1AA,55.80375834,-4.397284314,ScotRail
Barrhill,KA26 0QF,55.09701061,-4.781782291,ScotRail
Barrow Haven,DN19 7ET,53.69741995,-0.392955239,Northern Trains
Barrow-In-Furness,LA14 5QZ,54.1190037,-3.226120907,Northern Trains
Barrow-Upon-Soar,LE12 8US,52.74933586,-1.144843059,East Midlands Railway
Barry,CF62 8AF,51.39678627,-3.284984959,TfW Rail
Barry Docks,CF63 4LE,51.40244528,-3.260703932,TfW Rail
Barry Island,CF62 5TH,51.39241707,-3.273364009,TfW Rail
Barry Links,DD11 1PR,56.49315168,-2.745442147,ScotRail
Barton-On-Humber,DN18 5SJ,53.68891774,-0.443436736,Northern Trains
Basildon,SS16 5XY,51.56810403,0.456788851,c2c
Basingstoke,RG21 5NB,51.26835699,-1.087263832,South Western Railway
Bat and Ball,TN14 5AP,51.28975875,0.19422748,Southeastern
Bath Spa,BA1 1SU,51.37768839,-2.357018471,Great Western Railway
Bathgate,EH48 1BA,55.89715638,-3.636096792,ScotRail
Batley,WF17 5TA,53.70994234,-1.622952632,Northern Trains
Battersby,TS9 6LT,54.45768017,-1.092971863,Northern Trains
Battersea Park,SW8 4BH,51.47695829,-0.14753352,Govia Thameslink Railway (Southern)
Battle,TN33 0DE,50.91291302,0.494702777,Southeastern
Battlesbridge,SS11 7RG,51.62482277,0.565285509,Greater Anglia
Bayford,SG13 8PH,51.75771489,-0.095610021,Govia Thameslink Railway (Great Northern)
Beaconsfield,HP9 2PJ,51.61129059,-0.643822282,Chiltern Railways
Bearley,CV37 0EU,52.24441159,-1.75025548,West Midlands Trains (West Midlands Railway)
Bearsden,G61 4AN,55.91713458,-4.332021145,ScotRail
Bearsted,ME14 4PH,51.27581879,0.577580356,Southeastern
Beasdale,PH39 4NR,56.89956107,-5.76380325,ScotRail
Beaulieu Road,SO42 7YQ,50.85504934,-1.504749627,South Western Railway
Beauly,IV4 7EF,57.47828794,-4.46986686,ScotRail
Bebington,CH63 7LA,53.35765707,-3.003635172,Merseyrail
Beccles,NR34 9QJ,52.45851819,1.569493262,Greater Anglia
Beckenham Hill,SE6 3RE,51.42458087,-0.015951114,Govia Thameslink Railway (Thameslink)
Beckenham Junction,BR3 1HY,51.41117187,-0.026022564,Southeastern
Bedford,MK40 1DS,52.13618647,-0.47944238,Govia Thameslink Railway (Thameslink)
Bedford St Johns,MK42 9AN,52.12947724,-0.467501028,West Midlands Trains (London Northwestern Railway)
Bedhampton,PO9 1LL,50.85395664,-0.995828435,South Western Railway
Bedminster,BS3 4LU,51.44009042,-2.594149326,Great Western Railway
Bedworth,CV12 8JG,52.47929742,-1.467392233,West Midlands Trains (West Midlands Railway)
Bedwyn,SN8 5RD,51.37964094,-1.59878627,Great Western Railway
Beeston,NG9 2AB,52.92075512,-1.207658014,East Midlands Railway
Bekesbourne,CT4 5EP,51.26135393,1.136707632,Southeastern
Belle Vue,M18 1AA,53.46237649,-2.180507241,Northern Trains
Bellgrove,G31 1SG,55.85670931,-4.2243749,ScotRail
Bellingham,SE6 3BT,51.43291138,-0.019330808,Govia Thameslink Railway (Thameslink)
Bellshill,ML4 1RJ,55.81706824,-4.024499963,ScotRail
Belmont,SM2 6BH,51.34381342,-0.198855124,Govia Thameslink Railway (Southern)
Belper,DE56 1DA,53.02375915,-1.4825105,East Midlands Railway
Beltring,TN12 6QH,51.20470634,0.403495487,Southeastern
Belvedere,DA17 6JJ,51.49211624,0.152286099,Southeastern
Bempton,YO15 1HN,54.12765806,-0.180456844,Northern Trains
Ben Rhydding,LS29 8ET,53.92571533,-1.797430263,Northern Trains
Benfleet,SS7 1NF,51.54394243,0.561713346,c2c
Bentham,LA2 7LF,54.1155197,-2.51067651,Northern Trains
Bentley (Hampshire),GU10 5JZ,51.18123279,-0.8681269,South Western Railway
Bentley (South Yorkshire),DN5 0BE,53.54393664,-1.150948595,Northern Trains
Bere Alston,PL20 7EP,50.4855988,-4.200355437,Great Western Railway
Bere Ferrers,PL20 7JS,50.45128208,-4.18143518,Great Western Railway
Berkhamsted,HP4 2AR,51.76313308,-0.562012982,West Midlands Trains (London Northwestern Railway)
Berkswell,CV7 7EF,52.39588193,-1.642840475,West Midlands Trains (West Midlands Railway)
Bermuda Park,CV10 7JS,52.50143436,-1.472177755,West Midlands Trains (West Midlands Railway)
Berney Arms,NR30 1SB,52.58978275,1.630375333,Greater Anglia
Berry Brow,HD4 7LP,53.62104197,-1.793432283,Northern Trains
Berrylands,KT5 8LS,51.39904394,-0.280713668,South Western Railway
Berwick (Sussex),BN26 6TB,50.84037629,0.166017609,Govia Thameslink Railway (Southern)
Berwick-Upon-Tweed,TD15 1NF,55.7743389,-2.010973574,London North Eastern Railway
Bescar Lane,L40 9QP,53.62385533,-2.914611002,Northern Trains
Bescot Stadium,WS1 4NH,52.56309471,-1.991105719,West Midlands Trains (West Midlands Railway)
Betchworth,RH3 7BZ,51.24818793,-0.266973015,Great Western Railway
Bethnal Green Rail,E2 6JL,51.52391566,-0.059568046,London Overground
Betws-y-Coed,LL24 0AE,53.09207094,-3.800862122,TfW Rail
Beverley,HU17 0AS,53.84227259,-0.422980127,Northern Trains
Bexhill,TN40 1EB,50.8410399,0.477016592,Govia Thameslink Railway (Southern)
Bexley,DA5 1AQ,51.44021753,0.147902495,Southeastern
Bexleyheath,DA7 4AA,51.46349822,0.133734871,Southeastern
Bicester North,OX26 6EF,51.90348295,-1.150383522,Chiltern Railways
Bicester Village,OX26 6HU,51.89302361,-1.148764252,Chiltern Railways
Bickley,BR1 2EB,51.40010243,0.045240541,Southeastern
Bidston,CH43 7RF,53.40913986,-3.078561102,Merseyrail
Biggleswade,SG18 8AL,52.0846786,-0.261187193,Govia Thameslink Railway (Great Northern)
Bilbrook,WV8 1LE,52.62371972,-2.186088018,West Midlands Trains (West Midlands Railway)
Billericay,CM12 0BP,51.62888127,0.41862961,Greater Anglia
Billingham,TS23 3TG,54.60560658,-1.279719686,Northern Trains
Billingshurst,RH14 9SE,51.0152035,-0.450302233,Govia Thameslink Railway (Southern)
Bingham,NG13 8TF,52.95419056,-0.951543354,East Midlands Railway
Bingley,BD16 2NA,53.84861544,-1.837322499,Northern Trains
Birchgrove,CF14 4SY,51.52155972,-3.201853798,TfW Rail
Birchington-On-Sea,CT7 9RD,51.37748869,1.301408355,Southeastern
Birchwood,WA3 7PU,53.41272059,-2.525308247,Northern Trains
Birkbeck,BR3 4TA,51.40388998,-0.055738741,Govia Thameslink Railway (Southern)
Birkdale,PR8 4AF,53.63405281,-3.014450111,Merseyrail
Birkenhead Central,CH41 9DB,53.38831663,-3.020821158,Merseyrail
Birkenhead Hamilton Square,CH41 1AL,53.39469673,-3.013680166,Merseyrail
Birkenhead North,CH41 7AZ,53.40443794,-3.057533659,Merseyrail
Birkenhead Park,CH41 8BT,53.39740859,-3.039101289,Merseyrail
Birmingham International,B40 1PA,52.45080811,-1.72585686,Avanti West Coast
Birmingham Moor Street,B4 7UL,52.47908062,-1.892472731,Chiltern Railways
Birmingham New Street,B2 4QA,52.47781981,-1.900205571,Network Rail
Birmingham Snow Hill,B3 2BJ,52.48335668,-1.899088683,West Midlands Trains (West Midlands Railway)
Bishop Auckland,DL14 7EJ,54.65719638,-1.677715097,Northern Trains
Bishopbriggs,G64 1PE,55.90388318,-4.224915717,ScotRail
Bishops Stortford,CM23 3BL,51.86668942,0.164894103,Greater Anglia
Bishopstone (Sussex),BN25 2RB,50.78014166,0.082756921,Govia Thameslink Railway (Southern)
Bishopton (Renfrewshire),PA7 5AD,55.90226949,-4.500487563,ScotRail
Bitterne,SO18 1GG,50.91822136,-1.376999614,South Western Railway
Blackburn,BB1 1EX,53.74651845,-2.479122403,Northern Trains
Blackfriars,EC4V 4DY,51.51180819,-0.103332073,Govia Thameslink Railway (Thameslink)
Blackheath,SE3 9LE,51.46579452,0.008871871,Southeastern
Blackhorse Road,E17 6NH,51.58660385,-0.041235743,London Underground
Blackpool North,FY1 2AB,53.82191809,-3.049275167,Northern Trains
Blackpool Pleasure Beach,FY4 1NY,53.78795552,-3.05387647,Northern Trains
Blackpool South,FY4 2FA,53.79870403,-3.048938326,Northern Trains
Blackridge,EH48 3BW,55.88425575,-3.750797434,ScotRail
Blackrod,BL6 5JH,53.59152449,-2.569524317,Northern Trains
Blackwater,GU17 9AB,51.33158115,-0.776741026,Great Western Railway
Blaenau Ffestiniog,LL41 3HE,52.99455308,-3.938595772,TfW Rail
Blair Atholl,PH18 5SL,56.76555047,-3.850228766,ScotRail
Blairhill,ML5 1NP,55.86645562,-4.0432912,ScotRail
Blake Street,B74 4EB,52.60488607,-1.844914597,West Midlands Trains (West Midlands Railway)
Blakedown,DY10 3LF,52.40640266,-2.176865661,West Midlands Trains (West Midlands Railway)
Blantyre,G72 9BB,55.79733048,-4.08697165,ScotRail
Blaydon,NE21 4JB,54.96578969,-1.712580889,Northern Trains
Bleasby,NG14 7GD,53.04136495,-0.943687538,East Midlands Railway
Bletchley,MK3 6DZ,51.99533397,-0.736320507,West Midlands Trains (London Northwestern Railway)
Bloxwich,WS3 2NY,52.61820188,-2.011478072,West Midlands Trains (West Midlands Railway)
Bloxwich North,WS3 2NR,52.62543785,-2.017684611,West Midlands Trains (West Midlands Railway)
Blundellsands and Crosby,L23 8SE,53.4876867,-3.039860286,Merseyrail
Blythe Bridge,ST11 9JF,52.96814397,-2.066961365,East Midlands Railway
Bodmin Parkway,PL30 4BB,50.44586866,-4.662929531,Great Western Railway
Bodorgan,LL62 5BL,53.2043074,-4.418004246,TfW Rail
Bognor Regis,PO21 1BA,50.78655844,-0.676178286,Govia Thameslink Railway (Southern)
Bogston,PA15 2TF,55.93704739,-4.711402177,ScotRail
Bolton,BL2 1BE,53.57414554,-2.425824976,Northern Trains
Bolton-Upon-Dearne,S63 8NY,53.51894703,-1.31154616,Northern Trains
Bookham,KT23 3JG,51.28873758,-0.384020685,South Western Railway
Bootle (Cumbria),LA19 5TA,54.29130583,-3.393862272,Northern Trains
Bootle New Strand,L20 5BW,53.45339177,-2.99474774,Merseyrail
Bootle Oriel Road,L20 7AD,53.44662392,-2.995733892,Merseyrail
Bordesley,B9 4HF,52.47187438,-1.877768855,West Midlands Trains (West Midlands Railway)
Borough Green and Wrotham,TN15 8BG,51.29321702,0.30624496,Southeastern
Borth,SY24 5HT,52.49103189,-4.050177082,TfW Rail
Bosham,PO18 8NG,50.84274729,-0.847431236,Govia Thameslink Railway (Southern)
Boston,PE21 3RN,52.97808835,-0.031003237,East Midlands Railway
Botley,SO30 2DY,50.91645462,-1.259236505,South Western Railway
Bottesford,NG13 0GT,52.94461417,-0.794842712,East Midlands Railway
Bourne End,SL8 5QH,51.57711736,-0.710473547,Great Western Railway
Bournemouth,BH8 8HX,50.72727466,-1.864503165,South Western Railway
Bournville,B30 1LG,52.42696458,-1.926424059,West Midlands Trains (West Midlands Railway)
Bow Brickhill,MK17 9JN,52.00430018,-0.696077834,West Midlands Trains (London Northwestern Railway)
Bowes Park,N22 4NT,51.60701038,-0.120581955,Govia Thameslink Railway (Great Northern)
Bowling,G60 5AH,55.9310849,-4.493842619,ScotRail
Box Hill and Westhumble,RH5 6BT,51.25401068,-0.328489953,Govia Thameslink Railway (Southern)
Bracknell,RG12 1HX,51.41309141,-0.75170365,South Western Railway
Bradford Forster Square,BD1 4HY,53.79692562,-1.752961738,Northern Trains
Bradford Interchange,BD1 1TU,53.79107645,-1.7495959,Northern Trains
Bradford-On-Avon,BA15 1DF,51.34491616,-2.252326939,Great Western Railway
Brading,PO36 0EB,50.67837207,-1.13872245,South Western Railway (Island Line)
Braintree,CM7 3QL,51.87538907,0.556686983,Greater Anglia
Braintree Freeport,CM77 8YH,51.86941351,0.568434688,Greater Anglia
Bramhall,SK7 2DU,53.36061452,-2.163592881,Northern Trains
Bramley (Hampshire),RG26 5AG,51.33029327,-1.061002784,Great Western Railway
Bramley (West Yorkshire),LS13 4DU,53.80534976,-1.637206354,Northern Trains
Brampton (Cumbria),CA8 1HW,54.93239301,-2.702947603,Northern Trains
Brampton (Suffolk),NR34 8EF,52.39543077,1.543810467,Greater Anglia
Branchton,PA16 9HA,55.9406016,-4.803549359,ScotRail
Brandon,IP27 0BA,52.45400473,0.624731735,Greater Anglia
Branksome,BH12 1DF,50.72696603,-1.919758428,South Western Railway
Braystones,CA21 2YW,54.43936405,-3.541826439,Northern Trains
Bredbury,SK6 2AA,53.4231551,-2.110488303,Northern Trains
Breich,EH55 8JH,55.82731648,-3.668125869,ScotRail
Brentford,TW8 8DT,51.48754571,-0.309650996,South Western Railway
Brentwood,CM14 4EW,51.61360305,0.299585779,TfL Rail
Bricket Wood,AL2 3LN,51.70542678,-0.35911504,West Midlands Trains (London Northwestern Railway)
Bridge Of Allan,FK9 4PH,56.1566398,-3.957229362,ScotRail
Bridge Of Orchy,PA36 4AD,56.51587286,-4.762994007,ScotRail
Bridgend,CF31 1BN,51.50697765,-3.575276381,TfW Rail
Bridgeton,G40 1BN,55.84896768,-4.226057247,ScotRail
Bridgwater,TA6 5HB,51.12785953,-2.990405973,Great Western Railway
Bridlington,YO15 3EP,54.08413,-0.198720391,Northern Trains
Brierfield,BB9 5PU,53.82398238,-2.236490206,Northern Trains
Brigg,DN20 8HX,53.54914427,-0.486124758,Northern Trains
Brighouse,HD6 1LE,53.69819854,-1.77943904,Northern Trains
Brighton,BN1 3XP,50.82900327,-0.141280363,Govia Thameslink Railway (Southern)
Brimsdown,EN3 7SH,51.65558172,-0.030817433,Greater Anglia
Brinnington,SK5 8JE,53.43211828,-2.13512015,Northern Trains
Bristol Parkway,BS34 8PU,51.51380367,-2.542163431,Great Western Railway
Bristol Temple Meads,BS1 6QF,51.44914642,-2.581315627,Network Rail
Brithdir,NP24 6XY,51.71030606,-3.228720779,TfW Rail
Briton Ferry,SA11 2NE,51.6379005,-3.81925304,TfW Rail
Brixton,SW9 8JB,51.46329741,-0.114183479,Southeastern
Broad Green,L14 3NG,53.40650632,-2.893484378,Northern Trains
Broadbottom,SK14 6AX,53.44097539,-2.016521017,Northern Trains
Broadstairs,CT10 1HZ,51.36067061,1.433560428,Southeastern
Brockenhurst,SO42 7TW,50.81684181,-1.573531173,South Western Railway
Brockholes,HD9 7EB,53.59697304,-1.76969142,Northern Trains
Brockley,SE4 2RW,51.4646472,-0.037536693,London Overground
Bromborough,CH63 0JG,53.32184954,-2.986895855,Merseyrail
Bromborough Rake,CH62 7AL,53.32990938,-2.989469421,Merseyrail
Bromley Cross (Lancs),BL7 9AG,53.61404301,-2.410899114,Northern Trains
Bromley North,BR1 3NN,51.40832599,0.016992636,Southeastern
Bromley South,BR1 1LX,51.39997458,0.017344028,Southeastern
Bromsgrove,B60 2LX,52.32228798,-2.047345242,West Midlands Trains (West Midlands Railway)
Brondesbury,NW6 7QB,51.54516432,-0.202308734,London Overground
Brondesbury Park,NW6 6RP,51.54069776,-0.210127665,London Overground
Brookmans Park,AL9 7SS,51.7210604,-0.204548729,Govia Thameslink Railway (Great Northern)
Brookwood,GU24 0ER,51.30375726,-0.6357479,South Western Railway
Broome,SY7 0NT,52.4227746,-2.885207962,TfW Rail
Broomfleet,HU15 1RQ,53.7402077,-0.6718284,Northern Trains
Brora,KW9 6PY,58.01295468,-3.852283674,ScotRail
Brough,HU15 1DZ,53.72695974,-0.578724237,TransPennine Express
Broughty Ferry,DD5 2DX,56.46716324,-2.873152757,ScotRail
Broxbourne,EN10 7AW,51.74690872,-0.011086724,Greater Anglia
Bruce Grove,N17 6QA,51.59395754,-0.06986707,London Overground
Brundall,NR13 5LA,52.61947944,1.439298687,Greater Anglia
Brundall Gardens,NR13 5RG,52.62343928,1.418416123,Greater Anglia
Brunstane,EH15 2NG,55.94251409,-3.10098654,ScotRail
Brunswick,L8 6XP,53.38324354,-2.976077358,Merseyrail
Bruton,BA10 0EH,51.11164122,-2.447073814,Great Western Railway
Bryn,WN4 0AR,53.49986917,-2.647213995,Northern Trains
Buckenham,NR13 4HW,52.59773429,1.470325225,Greater Anglia
Buckley,CH7 3AY,53.16303909,-3.055926191,TfW Rail
Bucknell,SY7 0AD,52.35738204,-2.947378319,TfW Rail
Buckshaw Parkway,PR7 7EY,53.67334366,-2.660830271,Northern Trains
Bugle,PL26 8QP,50.40035482,-4.792101445,Great Western Railway
Builth Road,LD2 3PY,52.16932609,-3.42703323,TfW Rail
Bulwell,NG6 9AA,52.99969578,-1.196230564,East Midlands Railway
Bures,CO8 5HS,51.97115903,0.769143781,Greater Anglia
Burgess Hill,RH15 9DG,50.9536546,-0.127412853,Govia Thameslink Railway (Southern)
Burley Park,LS6 1NA,53.81203111,-1.577767689,Northern Trains
Burley-In-Wharfedale,LS29 4BE,53.9081517,-1.753372115,Northern Trains
Burnage,M20 6FJ,53.42116876,-2.215678403,Northern Trains
Burneside (Cumbria),LA9 6RD,54.35498261,-2.766677306,Northern Trains
Burnham,SL1 6JT,51.52350488,-0.646373823,TfL Rail
Burnham-On-Crouch,CM0 8BQ,51.63365477,0.814027783,Greater Anglia
Burnley Barracks,BB12 0HG,53.79088011,-2.258086008,Northern Trains
Burnley Central,BB11 1DA,53.79351414,-2.244971314,Northern Trains
Burnley Manchester Road,BB11 1JZ,53.78496752,-2.248867526,Northern Trains
Burnside (South Lanarkshire),G73 3SA,55.81693133,-4.202390334,ScotRail
Burntisland,KY3 9DR,56.05708421,-3.23319832,ScotRail
Burscough Bridge,L40 0RZ,53.60525951,-2.840880285,Northern Trains
Burscough Junction,L40 5SP,53.5975223,-2.840605696,Northern Trains
Bursledon,SO31 8AA,50.88368861,-1.30503236,South Western Railway
Burton Joyce,NG14 5AA,52.98344188,-1.040877616,East Midlands Railway
Burton-On-Trent,DE14 2DA,52.80581651,-1.642459972,East Midlands Railway
Bury St Edmunds,IP32 6AD,52.25376049,0.713306657,Greater Anglia
Busby,G76 8JB,55.78034454,-4.262201732,ScotRail
Bush Hill Park,EN1 1BA,51.64151695,-0.069221115,London Overground
Bushey,WD19 4EA,51.64575023,-0.38532127,London Overground
Butlers Lane,B74 4RT,52.59247094,-1.838020318,West Midlands Trains (West Midlands Railway)
Buxted,TN22 4LA,50.99001084,0.131438922,Govia Thameslink Railway (Southern)
Buxton,SK17 6AQ,53.2607227,-1.91286359,Northern Trains
Byfleet and New Haw,KT15 3LQ,51.34979573,-0.481389768,South Western Railway
Bynea,SA14 9TL,51.67203669,-4.098881647,TfW Rail
Cadoxton,CF63 2JP,51.41228317,-3.248895944,TfW Rail
Caergwrle,LL12 9DU,53.10786641,-3.032913274,TfW Rail
Caerphilly,CF83 1JR,51.57158067,-3.218482559,TfW Rail
Caersws,SY17 5HH,52.51612791,-3.432498792,TfW Rail
Caldercruix,ML6 7RJ,55.88794755,-3.887711908,ScotRail
Caldicot,NP6 4BU,51.58479306,-2.760573906,TfW Rail
Caledonian Road and Barnsbury,N1 1DF,51.54303928,-0.11672925,London Overground
Calstock,PL18 9QY,50.49780237,-4.2089885,Great Western Railway
Cam and Dursley,GL11 5DJ,51.71762107,-2.359082987,Great Western Railway
Camberley,GU15 3RR,51.33632713,-0.74427172,South Western Railway
Camborne,TR14 8SR,50.21044314,-5.297412316,Great Western Railway
Cambridge,CB1 2JW,52.19406537,0.137456461,Greater Anglia
Cambridge Heath,E2 9EG,51.5319711,-0.057279067,London Overground
Cambridge North,CB4 0WZ,52.22447999,0.158478722,Greater Anglia
Cambuslang,G72 7EL,55.81961108,-4.173009361,ScotRail
Camden Road,NW1 9LS,51.54178931,-0.138700901,London Overground
Camelon,FK1 4JW,56.00609602,-3.817605956,ScotRail
Canada Water,SE16 2YS,51.49798847,-0.049719837,London Underground
Canley,CV5 6BH,52.39924176,-1.547574872,West Midlands Trains (West Midlands Railway)
Cannock,WS11 8NQ,52.68616245,-2.0221475,West Midlands Trains (West Midlands Railway)
Cannon Street,EC4N 6AP,51.51138077,-0.09029298,Network Rail
Canonbury,N1 2PG,51.5487307,-0.09219093,London Overground
Canterbury East,CT1 2RB,51.2742643,1.075968368,Southeastern
Canterbury West,CT2 8AN,51.28426582,1.07530307,Southeastern
Cantley,NR13 3SQ,52.57874392,1.513412034,Greater Anglia
Capenhurst,CH1 6HE,53.26017669,-2.942285263,Merseyrail
Carbis Bay,TR26 2NN,50.1970567,-5.463264663,Great Western Railway
Cardenden,KY5 0BP,56.14125901,-3.26164246,ScotRail
Cardiff Bay,CF10 5LE,51.46711203,-3.166403446,TfW Rail
Cardiff Central,CF10 1EP,51.47602889,-3.179302297,TfW Rail
Cardiff Queen Street,CF10 4EY,51.48196501,-3.170181108,TfW Rail
Cardonald,G52 2DE,55.85257367,-4.340693481,ScotRail
Cardross,G82 5NL,55.96038438,-4.653074374,ScotRail
Carfin,ML1 5AL,55.80734375,-3.956254523,ScotRail
Cark and Cartmel,LA11 7PT,54.17795794,-2.9740641,Northern Trains
Carlisle,CA1 1QZ,54.89065493,-2.93319211,Avanti West Coast
Carlton,NG4 2FD,52.96508737,-1.078655028,East Midlands Railway
Carluke,ML8 5AA,55.7312694,-3.848925645,ScotRail
Carmarthen,SA31 2BE,51.85335788,-4.305961903,TfW Rail
Carmyle,G32 8YS,55.83434177,-4.15818113,ScotRail
Carnforth,LA5 9ET,54.1296808,-2.771232834,Northern Trains
Carnoustie,DD7 6AY,56.5005661,-2.706600778,ScotRail
Carntyne,G32 6AW,55.8548777,-4.178573148,ScotRail
Carpenders Park,WD19 7DT,51.62835008,-0.38593911,London Overground
Carrbridge,PH23 3AJ,57.27950577,-3.828203612,ScotRail
Carshalton,SM5 2HW,51.36845288,-0.166368536,Govia Thameslink Railway (Southern)
Carshalton Beeches,SM5 3RF,51.35740953,-0.169797045,Govia Thameslink Railway (Southern)
Carstairs,ML11 8PR,55.69105058,-3.668473984,ScotRail
Cartsdyke,PA15 2TG,55.94221898,-4.731591927,ScotRail
Castle Bar Park,W7 1BA,51.52292934,-0.331548941,Great Western Railway
Castle Cary,BA7 7PE,51.09981721,-2.522794696,Great Western Railway
Castleford,WF10 5DN,53.72407779,-1.354652737,Northern Trains
Castleton (Manchester),OL11 3EB,53.59184849,-2.178234195,Northern Trains
Castleton Moor,YO21 2EU,54.46714353,-0.946648402,Northern Trains
Caterham,CR3 6LB,51.28213991,-0.078307122,Govia Thameslink Railway (Southern)
Catford,SE6 4RW,51.44440506,-0.026316598,Govia Thameslink Railway (Thameslink)
Catford Bridge,SE6 4RH,51.44473907,-0.024791177,Southeastern
Cathays,CF10 3LU,51.48890253,-3.178683884,TfW Rail
Cathcart,G44 4ED,55.81767348,-4.260537053,ScotRail
Cattal,YO5 8EB,53.99744057,-1.320535136,Northern Trains
Causeland,PL14 4ST,50.40569591,-4.466448927,Great Western Railway
Cefn-Y-Bedd,LL12 9UU,53.09880323,-3.031053237,TfW Rail
Chadwell Heath,RM6 4BU,51.56803685,0.128958363,TfL Rail
Chafford Hundred,RM16 6QQ,51.48555506,0.28744692,c2c
Chalfont and Latimer,HP7 9PR,51.66810766,-0.560526398,London Underground
Chalkwell,SS0 8PX,51.53871631,0.670592557,c2c
Chandlers Ford,SO53 4DD,50.98368451,-1.38517039,South Western Railway
Chapel-En-Le-Frith,SK23 0XT,53.3122323,-1.918762608,Northern Trains
Chapelton (Devon),EX37 9DZ,51.01654009,-4.024722764,Great Western Railway
Chapeltown (South Yorkshire),S35 2UU,53.462337,-1.466275385,Northern Trains
Chappel and Wakes Colne,CO6 2DS,51.92590303,0.758501136,Greater Anglia
Charing (Kent),TN27 0JA,51.20809628,0.790331125,Southeastern
Charing Cross,WC2N 5HF,51.50802589,-0.124802189,Network Rail
Charing Cross (Glasgow),G2 3HW,55.86468688,-4.269820942,ScotRail
Charlbury,OX7 3HH,51.87242828,-1.48969393,Great Western Railway
Charlton,SE7 7QG,51.48681153,0.031257491,Southeastern
Chartham,CT4 7HT,51.25726245,1.018039213,Southeastern
Chassen Road,M41 9DY,53.44616149,-2.368233196,Northern Trains
Chatelherault,ML3 7UD,55.76522349,-4.004675248,ScotRail
Chatham,ME4 6PN,51.38037602,0.521150707,Southeastern
Chathill,NE67 5DE,55.53673402,-1.706375323,Northern Trains
Cheadle Hulme,SK8 5AF,53.37593064,-2.188302983,Northern Trains
Cheam,SM2 7AJ,51.35547756,-0.214167523,Govia Thameslink Railway (Southern)
Cheddington,LU7 0SQ,51.85791764,-0.662151872,West Midlands Trains (London Northwestern Railway)
Chelford (Cheshire),SK11 9AX,53.27031188,-2.28057731,Northern Trains
Chelmsford,CM1 1HT,51.73637018,0.468572081,Greater Anglia
Chelsfield,BR6 6EU,51.35625405,0.109069815,Southeastern
Cheltenham Spa,GL51 8NP,51.89739903,-2.099620219,Great Western Railway
Chepstow,NP16 5PD,51.6401819,-2.67190561,TfW Rail
Cherry Tree,BB2 2TZ,53.73287284,-2.51837919,Northern Trains
Chertsey,KT16 9BG,51.38706799,-0.509316626,South Western Railway
Cheshunt,EN8 9AQ,51.70287453,-0.023959725,Greater Anglia
Chessington North,KT9 2RT,51.36403985,-0.300699138,South Western Railway
Chessington South,KT9 2JR,51.35654911,-0.308157574,South Western Railway
Chester,CH1 3NS,53.19669815,-2.879593999,TfW Rail
Chester Road,B73 5JS,52.53564746,-1.8324795,West Midlands Trains (West Midlands Railway)
Chester-Le-Street,DH3 3EE,54.85459536,-1.578015422,Northern Trains
Chesterfield,S41 7UB,53.23822081,-1.420115971,East Midlands Railway
Chestfield and Swalecliffe,CT5 3JB,51.36023775,1.066930522,Southeastern
Chetnole,DT9 6EP,50.86636553,-2.572925952,Great Western Railway
Chichester,PO19 8DL,50.83205299,-0.781748953,Govia Thameslink Railway (Southern)
Chilham,CT4 8EG,51.2446077,0.975895539,Southeastern
Chilworth,GU4 6TT,51.21521232,-0.524824137,Great Western Railway
Chingford,E4 6AL,51.63308496,0.00989704,London Overground
Chinley,SK23 6AR,53.34029142,-1.943940951,Northern Trains
Chippenham,SN15 3QE,51.46248972,-2.115394155,Great Western Railway
Chipstead,CR3 3TD,51.30927588,-0.169503226,Govia Thameslink Railway (Southern)
Chirk,LL14 5LU,52.93309049,-3.065643626,TfW Rail
Chislehurst,BR7 5NN,51.40555474,0.057417969,Southeastern
Chiswick,W4 3HB,51.48113535,-0.267835206,South Western Railway
Cholsey,OX10 9QD,51.57020251,-1.158023005,Great Western Railway
Chorley,PR7 1BS,53.65253867,-2.626841036,Northern Trains
Chorleywood,WD3 5ND,51.65424777,-0.518320063,London Underground
Christchurch,BH23 1PL,50.73821536,-1.784546147,South Western Railway
Christs Hospital,RH13 0ND,51.05068489,-0.36355634,Govia Thameslink Railway (Southern)
Church and Oswaldtwistle,BB5 0DP,53.75052277,-2.391212189,Northern Trains
Church Fenton,LS24 9RA,53.82660101,-1.2275889,Northern Trains
Church Stretton,SY6 6PG,52.53742424,-2.803694772,TfW Rail
Cilmeri,LD2 3NU,52.15053349,-3.456541711,TfW Rail
City Thameslink,EC4M 7JH,51.5139346,-0.103589644,Govia Thameslink Railway (Thameslink)
Clacton-on-Sea,CO15 6PU,51.79399919,1.154091608,Greater Anglia
Clandon,GU4 7TE,51.26400437,-0.502766109,South Western Railway
Clapham (North Yorkshire),LA2 8ES,54.10538807,-2.410376273,Northern Trains
Clapham High Street,SW4 6EU,51.46547942,-0.132521686,London Overground
Clapham Junction,SW11 2QP,51.4641866,-0.170293416,Network Rail
Clapton,E5 9JP,51.56164232,-0.057024657,London Overground
Clarbeston Road,SA63 4UH,51.8516714,-4.883549025,TfW Rail
Clarkston,G44 3BP,55.78935355,-4.275644755,ScotRail
Claverdon,CV35 8PE,52.27709152,-1.696560014,West Midlands Trains (West Midlands Railway)
Claygate,KT10 0PB,51.36121287,-0.348247795,South Western Railway
Cleethorpes,DN35 8AX,53.56190457,-0.02922093,TransPennine Express
Cleland,ML1 5RR,55.80465223,-3.910244827,ScotRail
Clifton (Manchester),M27 8LL,53.52249167,-2.314746646,Northern Trains
Clifton Down,BS8 2PN,51.46454715,-2.611741225,Great Western Railway
Clitheroe,BB7 2ED,53.87346835,-2.394336645,Northern Trains
Clock House,BR3 4HJ,51.40858477,-0.040657065,Southeastern
Clunderwen,SA66 7NG,51.84054579,-4.731843019,TfW Rail
Clydebank,G81 1RT,55.90069649,-4.404414922,ScotRail
Coatbridge Central,ML5 1RL,55.8625103,-4.03189765,ScotRail
Coatbridge Sunnyside,ML5 3HR,55.86683866,-4.028287981,ScotRail
Coatdyke,ML5 3PZ,55.86434477,-4.004985252,ScotRail
Cobham and Stoke D'abernon,KT11 3BW,51.31809967,-0.389346373,South Western Railway
Codsall,WV8 1BY,52.62728996,-2.201763101,West Midlands Trains (West Midlands Railway)
Cogan,CF64 2NS,51.44599581,-3.18909039,TfW Rail
Colchester,CO1 1XD,51.90071062,0.892598058,Greater Anglia
Colchester Town,CO2 7EF,51.88645271,0.904762466,Greater Anglia
Coleshill Parkway,B46 1JZ,52.51652754,-1.708177407,West Midlands Trains (West Midlands Railway)
Collingham,NG23 7RB,53.14408576,-0.750393935,East Midlands Railway
Collington,TN39 3EW,50.83928654,0.457861388,Govia Thameslink Railway (Southern)
Colne,BB8 9NX,53.8547444,-2.181859341,Northern Trains
Colwall,WR13 6RN,52.07987055,-2.356950375,West Midlands Trains (West Midlands Railway)
Colwyn Bay,LL29 8DF,53.2963632,-3.725417328,TfW Rail
Combe (Oxon),OX8 7YG,51.83259403,-1.394073336,Great Western Railway
Commondale,YO21 2HN,54.48127409,-0.97514802,Northern Trains
Congleton,CW12 3DE,53.15785619,-2.19258027,Northern Trains
Conisbrough,DN12 3DX,53.48930941,-1.234331508,Northern Trains
Connel Ferry,PA37 1PA,56.45235947,-5.385442478,ScotRail
Conon Bridge,IV7 8AA,57.5617568,-4.440406386,ScotRail
Cononley,BD20 8HY,53.91757174,-2.012067892,Northern Trains
Conway Park,CH41 4PP,53.39336159,-3.022671291,Merseyrail
Conwy,LL32 8LD,53.28010624,-3.830525,TfW Rail
Cooden Beach,TN39 4TT,50.83337004,0.426858738,Govia Thameslink Railway (Southern)
Cookham,SL6 9BP,51.5574622,-0.722079073,Great Western Railway
Cooksbridge,BN7 3QG,50.90375477,-0.009202751,Govia Thameslink Railway (Southern)
Coombe Junction Halt,PL14 7LL,50.44592529,-4.481852322,Great Western Railway
Copplestone,EX17 5NE,50.81447097,-3.751572475,Great Western Railway
Corbridge,NE45 5AY,54.96626253,-2.018400322,Northern Trains
Corby,NN17 1UJ,52.48885085,-0.688335404,East Midlands Railway
Corfe Castle,BH20 5EJ,50.6383752,-2.055041542,Swanage Railway
Corkerhill,G52 1QR,55.83750615,-4.334293519,ScotRail
Corkickle,CA28 8AP,54.54168345,-3.582164748,Northern Trains
Corpach,PH33 7LS,56.84283328,-5.121957909,ScotRail
Corrour,PH30 4AA,56.76021935,-4.690601386,ScotRail
Coryton,CF14 7BW,51.5204396,-3.231818456,TfW Rail
Coseley,WV14 8XP,52.54508422,-2.085777744,West Midlands Trains (West Midlands Railway)
Cosford,WV7 3EY,52.64483595,-2.300274975,West Midlands Trains (West Midlands Railway)
Cosham,PO6 3BD,50.84192414,-1.067328794,South Western Railway
Cottingham,HU16 4LL,53.78164798,-0.406433983,Northern Trains
Cottingley,LS11 0JT,53.76781758,-1.587708215,Northern Trains
Coulsdon South,CR5 3EA,51.31583666,-0.137887294,Govia Thameslink Railway (Southern)
Coulsdon Town,CR5 2BQ,51.32204115,-0.134464231,Govia Thameslink Railway (Southern)
Coventry,CV1 2GT,52.40081444,-1.513459776,Avanti West Coast
Coventry Arena,CV6 6AS,52.44773371,-1.494124705,West Midlands Trains (West Midlands Railway)
Cowden (Kent),TN8 7DS,51.15563534,0.110032723,Govia Thameslink Railway (Southern)
Cowdenbeath,KY4 9SQ,56.11209533,-3.343186352,ScotRail
Cradley Heath,B64 5AL,52.46965529,-2.090488395,West Midlands Trains (West Midlands Railway)
Craigendoran,G84 7BQ,55.99480186,-4.711244927,ScotRail
Cramlington,NE23 9EX,55.087769,-1.59859512,Northern Trains
Cranbrook (Devon),EX5 2DY,50.75009525,-3.420415992,South Western Railway
Craven Arms,SY7 9PY,52.4425417,-2.83742232,TfW Rail
Crawley,RH10 1JA,51.11221239,-0.186672935,Govia Thameslink Railway (Southern)
Crayford,DA1 3PY,51.4482779,0.178936076,Southeastern
Crediton,EX17 3BY,50.78330695,-3.646778295,Great Western Railway
Cressing (Essex),CM77 8NT,51.85233406,0.57796104,Greater Anglia
Cressington,L19 0PE,53.35875205,-2.912003336,Merseyrail
Creswell,S80 4AZ,53.26411278,-1.216394865,East Midlands Railway
Crewe,CW2 6HR,53.08962716,-2.432969173,Avanti West Coast
Crewkerne,TA18 8AU,50.87353843,-2.778496447,South Western Railway
Crews Hill,EN2 9EA,51.6844843,-0.106887096,Govia Thameslink Railway (Great Northern)
Crianlarich,FK20 8QN,56.3904818,-4.618434686,ScotRail
Criccieth,LL52 0RW,52.91841568,-4.237512895,TfW Rail
Cricklewood,NW2 1HL,51.55845161,-0.212676635,Govia Thameslink Railway (Thameslink)
Croftfoot,G42 1AA,55.8182615,-4.228325612,ScotRail
Crofton Park,SE4 2PH,51.45518756,-0.036503045,Govia Thameslink Railway (Thameslink)
Cromer,NR27 9EB,52.93008069,1.292824303,Greater Anglia
Cromford,DE4 5JJ,53.11293297,-1.549162014,East Midlands Railway
Crookston,G52 3TX,55.84231832,-4.364676001,ScotRail
Cross Gates,LS15 8BX,53.80491439,-1.451580486,Northern Trains
Crossflatts,BD16 2RZ,53.85846718,-1.844886192,Northern Trains
Crosshill,G42 8ES,55.83329029,-4.256812263,ScotRail
Crosskeys,NP11 7BU,51.62090527,-3.126170462,TfW Rail
Crossmyloof,G41 3TW,55.8339508,-4.28431839,ScotRail
Croston,PR26 9SE,53.66756292,-2.777750137,Northern Trains
Crouch Hill,N4 4AU,51.57130037,-0.11714882,London Overground
Crowborough,TN6 1DX,51.04637953,0.188012411,Govia Thameslink Railway (Southern)
Crowhurst,TN33 9DD,50.88857679,0.50133651,Southeastern
Crowle,DN17 4JS,53.58973284,-0.817358652,Northern Trains
Crowthorne,RG45 0QW,51.36672717,-0.819273412,Great Western Railway
Croy,G65 9HT,55.95568213,-4.035976843,ScotRail
Crystal Palace,SE19 2AZ,51.41810745,-0.072609879,London Overground
Cuddington,CW8 2LE,53.23992183,-2.599306625,Northern Trains
Cuffley,EN6 4HY,51.70872021,-0.109783413,Govia Thameslink Railway (Great Northern)
Culham,OX14 3BT,51.65379356,-1.236513835,Great Western Railway
Culrain,IV27 4ET,57.91951831,-4.404271676,ScotRail
Cumbernauld,G67 2UH,55.94203055,-3.980335192,ScotRail
Cupar,KY15 5HX,56.31699041,-3.008756668,ScotRail
Curriehill,EH14 4AA,55.90056905,-3.31875197,ScotRail
Cuxton,ME2 1AB,51.37392413,0.461708582,Southeastern
Cwmbach,CF44 0AG,51.70193115,-3.41372372,TfW Rail
Cwmbran,NP44 1QX,51.65658916,-3.01620384,TfW Rail
Cynghordy,SA20 0LY,52.05150224,-3.748211328,TfW Rail
Dagenham Dock,RM9 6EG,51.52608773,0.146102888,c2c
Daisy Hill,BL5 2JQ,53.53945534,-2.515861383,Northern Trains
Dalgety Bay,KY11 9HZ,56.04209835,-3.367721205,ScotRail
Dalmally,PA33 1AY,56.4011954,-4.983553412,ScotRail
Dalmarnock,G40 4HG,55.84209034,-4.217709562,ScotRail
Dalmeny,EH30 9JU,55.98632241,-3.381620231,ScotRail
Dalmuir,G81 3QT,55.91193465,-4.426681954,ScotRail
Dalreoch,G82 4AD,55.94742061,-4.577864075,ScotRail
Dalry,KA24 4DE,55.70622596,-4.711080827,ScotRail
Dalston (Cumbria),CA5 7LT,54.8461793,-2.988852433,Northern Trains
Dalston Junction,E8 3DE,51.54611405,-0.075137572,London Overground
Dalston Kingsland,E8 2JS,51.54814661,-0.075700827,London Overground
Dalton (Cumbria),LA15 8QA,54.15424025,-3.17900333,Northern Trains
Dalwhinnie,PH19 1AD,56.93517476,-4.246199412,ScotRail
Danby,YO21 2JL,54.46615314,-0.910955849,Northern Trains
Danescourt,CF5 2RX,51.50050943,-3.233917394,TfW Rail
Danzey,B94 5BE,52.32481392,-1.820877361,West Midlands Trains (West Midlands Railway)
Darlington,DL1 4AA,54.52044876,-1.547323991,London North Eastern Railway
Darnall,S9 4JU,53.38458485,-1.412567217,Northern Trains
Darsham,IP17 3PN,52.27299493,1.523469822,Greater Anglia
Dartford,DA1 1BP,51.44736861,0.219247795,Southeastern
Darton,S75 5HX,53.58836857,-1.531657575,Northern Trains
Darwen,BB3 0DE,53.69803826,-2.464940017,Northern Trains
Datchet,SL3 9ED,51.48307611,-0.579421911,South Western Railway
Davenport,SK3 8SA,53.39090224,-2.152958028,Northern Trains
Dawlish,EX7 9PJ,50.5808244,-3.464625867,Great Western Railway
Dawlish Warren,EX7 0NF,50.59871452,-3.443562132,Great Western Railway
Deal,CT14 6HD,51.22304044,1.398846752,Southeastern
Dean (Wilts),SP5 1JF,51.0424619,-1.634867209,Great Western Railway
Deansgate,M3 4LG,53.47418576,-2.251051243,Northern Trains
Deganwy,LL31 9EJ,53.29475198,-3.833387103,TfW Rail
Deighton,HD2 1LX,53.66848378,-1.751896593,Northern Trains
Delamere,CW8 2HZ,53.22877793,-2.666560707,Northern Trains
Denby Dale,HD8 8RX,53.57263209,-1.663210525,Northern Trains
Denham,UB9 5ES,51.57883636,-0.497436854,Chiltern Railways
Denham Golf Club,UB9 5EJ,51.58059682,-0.517786682,Chiltern Railways
Denmark Hill,SE5 8BB,51.46820111,-0.089360885,Govia Thameslink Railway (Thameslink)
Dent,LA10 5RF,54.28241085,-2.363598892,Northern Trains
Denton,M34 3NS,53.45686747,-2.13165979,Northern Trains
Deptford,SE8 3NU,51.47884636,-0.026270214,Southeastern
Derby,DE1 2RU,52.91654858,-1.46335478,East Midlands Railway
Derby Road (Ipswich),IP3 8DN,52.05055118,1.182643264,Greater Anglia
Devonport,PL1 4QN,50.3785385,-4.17071081,Great Western Railway
Dewsbury,WF13 1HF,53.69213237,-1.633106556,TransPennine Express
Didcot Parkway,OX11 7NR,51.61095469,-1.242893561,Great Western Railway
Digby and Sowton,EX2 7AW,50.71399333,-3.473561097,Great Western Railway
Dilton Marsh,BA13 4DF,51.24898909,-2.207915578,Great Western Railway
Dinas (Rhondda),CF40 2PJ,51.61783789,-3.437541739,TfW Rail
Dinas Powys,CF64 4DH,51.4316678,-3.218352121,TfW Rail
Dingle Road,CF64 1JL,51.44005709,-3.180591093,TfW Rail
Dingwall,IV15 9PZ,57.59424067,-4.422199866,ScotRail
Dinsdale,DL2 1AA,54.51472959,-1.467065136,Northern Trains
Dinting,SK13 9EB,53.44933216,-1.970298786,Northern Trains
Disley,SK12 2AE,53.35818435,-2.042481771,Northern Trains
Diss,IP22 4HN,52.37365437,1.123697346,Greater Anglia
Dockyard (Devonport),PL2 1RX,50.3821742,-4.175898657,Great Western Railway
Dodworth,S75 3JX,53.54432558,-1.53169088,Northern Trains
Dolau,LD1 5TG,52.295354,-3.263620916,TfW Rail
Doleham,TN35 4LY,50.91858548,0.609974731,Govia Thameslink Railway (Southern)
Dolgarrog,LL26 0YR,53.18635251,-3.822636918,TfW Rail
Dolwyddelan,LL25 0TJ,53.05201699,-3.885132986,TfW Rail
Doncaster,DN1 1PE,53.5221497,-1.139845326,London North Eastern Railway
Dorchester South,DT1 1QX,50.70929418,-2.437243022,South Western Railway
Dorchester West,DT1 2LB,50.71095583,-2.442541302,Great Western Railway
Dore and Totley,S17 3LB,53.32763513,-1.515297757,Northern Trains
Dorking,RH4 1TF,51.24092866,-0.324250782,Govia Thameslink Railway (Southern)
Dorking (Deepdene),RH4 7TY,51.23880301,-0.324643186,Great Western Railway
Dorking West,RH4 5EE,51.23622482,-0.339978561,Great Western Railway
Dormans,RH7 6NL,51.15579008,-0.004308266,Govia Thameslink Railway (Southern)
Dorridge,B93 8JA,52.3720696,-1.752900449,Chiltern Railways
Dove Holes,SK17 8DJ,53.30002934,-1.889751761,Northern Trains
Dover Priory,CT17 9SB,51.1256966,1.30529347,Southeastern
Dovercourt,CO12 3AG,51.93873456,1.280610893,Greater Anglia
Dovey Junction,SY20 8PZ,52.56436354,-3.923902975,TfW Rail
Downham Market,PE38 9EN,52.60410659,0.365681058,Govia Thameslink Railway (Great Northern)
Drayton Green,W13 4SW,51.51661546,-0.330194252,Great Western Railway
Drayton Park,N5 1NT,51.55276834,-0.105509009,Govia Thameslink Railway (Great Northern)
Drem,EH39 5LW,56.00512547,-2.786048259,ScotRail
Driffield,YO25 7PX,54.00152726,-0.43466501,Northern Trains
Drigg,CA19 1XW,54.37696332,-3.443413623,Northern Trains
Droitwich Spa,WR9 9BD,52.26820481,-2.158363416,West Midlands Trains (West Midlands Railway)
Dronfield,S18 8UH,53.30136961,-1.468778682,Northern Trains
Drumchapel,G13 4PT,55.90481731,-4.362879862,ScotRail
Drumfrochar,PA15 4BY,55.94125359,-4.774767271,ScotRail
Drumgelloch,ML6 7BL,55.86735807,-3.948882946,ScotRail
Drumry,G31 2LY,55.90459723,-4.385473288,ScotRail
Duddeston,B7 4ST,52.4883642,-1.871390679,West Midlands Trains (West Midlands Railway)
Dudley Port,DY4 8UB,52.52465301,-2.049479804,West Midlands Trains (West Midlands Railway)
Duffield,DE56 4EP,52.98840144,-1.485971869,East Midlands Railway
Duirinish,IV40 8BD,57.31998329,-5.691317816,ScotRail
Duke Street,G31 1LL,55.85844144,-4.213048556,ScotRail
Dullingham,CB8 8UP,52.20164858,0.366663821,Greater Anglia
Dumbarton Central,G82 1PZ,55.94666048,-4.566921701,ScotRail
Dumbarton East,G82 2EP,55.94225247,-4.554137822,ScotRail
Dumbreck,G41 4HE,55.84465409,-4.301240036,ScotRail
Dumfries,DG1 1NF,55.07256028,-3.604303981,ScotRail
Dumpton Park,CT11 7EW,51.34569557,1.425818508,Southeastern
Dunbar,EH42 1JX,55.99829611,-2.5133465,ScotRail
Dunblane,FK15 9ET,56.18589436,-3.965486843,ScotRail
Duncraig,IV52 8TZ,57.3370088,-5.637132333,ScotRail
Dundee,DD1 4BY,56.45648908,-2.971205037,ScotRail
Dunfermline Queen Margaret,KY12 0GB,56.08057829,-3.421468409,ScotRail
Dunfermline Town,KY12 7HT,56.06819389,-3.452529317,ScotRail
Dunkeld and Birnam,PH8 0DP,56.55706058,-3.578399627,ScotRail
Dunlop,KA3 4BZ,55.71188545,-4.532389912,ScotRail
Dunrobin Castle,KW10 6SF,57.98553812,-3.948921707,ScotRail
Dunston,NE11 9SS,54.95005632,-1.642044589,Northern Trains
Dunton Green,TN13 2XD,51.29648826,0.170937116,Southeastern
Durham,DH1 4RB,54.77939123,-1.581752101,London North Eastern Railway
Durrington-On-Sea,BN12 6BT,50.81752681,-0.411468707,Govia Thameslink Railway (Southern)
Dyce,AB21 7EQ,57.20565169,-2.192322589,ScotRail
Dyffryn Ardudwy,LL42 2EU,52.78885638,-4.104644556,TfW Rail
Eaglescliffe,TS16 0BT,54.52943209,-1.349437154,Northern Trains
Ealing Broadway,W5 2NU,51.51484025,-0.301751769,TfL Rail
Earlestown,WA12 9AU,53.45113934,-2.63766365,Northern Trains
Earley,RG6 7DY,51.44109976,-0.917988243,South Western Railway
Earlsfield,SW18 4SR,51.44233557,-0.187714935,South Western Railway
Earlswood (Surrey),RH1 6HP,51.22732702,-0.170823069,Govia Thameslink Railway (Southern)
Earlswood (West Midlands),B94 5JS,52.36658251,-1.8611697,West Midlands Trains (West Midlands Railway)
East Croydon,CR0 1LF,51.37545225,-0.092779701,Govia Thameslink Railway (Southern)
East Didsbury,M20 5WP,53.40931027,-2.221996604,Northern Trains
East Dulwich,SE22 8EF,51.46149291,-0.080571701,Govia Thameslink Railway (Southern)
East Farleigh,ME15 0JH,51.25523516,0.484728931,Southeastern
East Garforth,LS25 2JW,53.79197807,-1.370536962,Northern Trains
East Grinstead,RH19 1EB,51.12627189,-0.017900096,Govia Thameslink Railway (Southern)
East Kilbride,G74 1AR,55.76600842,-4.180227957,ScotRail
East Malling,ME19 6AJ,51.28580738,0.439280267,Southeastern
East Midlands Parkway,NG11 0EE,52.86250095,-1.263231985,East Midlands Railway
East Tilbury,RM18 8SB,51.48482897,0.412927782,c2c
East Worthing,BN14 8JX,50.82164403,-0.354893752,Govia Thameslink Railway (Southern)
Eastbourne,BN21 3QJ,50.7693758,0.281246926,Govia Thameslink Railway (Southern)
Eastbrook,CF64 4LD,51.43763893,-3.206137992,TfW Rail
Easterhouse,G69 6BL,55.85976114,-4.107177293,ScotRail
Eastham Rake,CH62 9AL,53.30754154,-2.981132921,Merseyrail
Eastleigh,SO50 9FL,50.96925066,-1.350084594,South Western Railway
Eastrington,DN14 7PX,53.75516076,-0.787630411,Northern Trains
Ebbsfleet International,DA10 1EB,51.44297097,0.320920832,HS1 Ltd
Ebbw Vale Parkway,NP23 8AP,51.75714701,-3.196103274,TfW Rail
Ebbw Vale Town,NP23 6DN,51.77669144,-3.202577486,TfW Rail
Eccles (Manchester),M30 0DN,53.48536065,-2.334514596,Northern Trains
Eccles Road,NR16 2JG,52.47088076,0.969917161,Greater Anglia
Eccleston Park,L35 7JS,53.43078895,-2.780041946,Northern Trains
Edale,S33 7ZN,53.36497243,-1.816626413,Northern Trains
Eden Park,BR3 3DE,51.39008937,-0.02635516,Southeastern
Edenbridge Town,TN8 5LP,51.2000809,0.067173016,Govia Thameslink Railway (Southern)
Edenbridge(Kent),TN8 6HR,51.2084338,0.060646261,Govia Thameslink Railway (Southern)
Edge Hill,L7 1AD,53.40261926,-2.946483441,Northern Trains
Edinburgh,EH1 1BB,55.95239631,-3.188228243,Network Rail
Edinburgh Gateway,EH12 9GF,55.94094361,-3.320251998,ScotRail
Edinburgh Park,EH11 4DF,55.92755446,-3.307664746,ScotRail
Edmonton Green,N9 7AA,51.62492716,-0.061112495,London Overground
Effingham Junction,KT24 5HX,51.29149431,-0.419965418,South Western Railway
Eggesford,EX18 7JZ,50.88774135,-3.874745932,Great Western Railway
Egham,TW20 9LB,51.42964596,-0.546512234,South Western Railway
Egton,YO21 1UX,54.43748107,-0.761464967,Northern Trains
Elephant and Castle,SE17 1LB,51.49402723,-0.098725576,Govia Thameslink Railway (Thameslink)
Elgin,IV30 1QP,57.64291303,-3.311246507,ScotRail
Ellesmere Port,CH65 4AR,53.282194,-2.896423039,Merseyrail
Elmers End,BR3 4EJ,51.39849072,-0.049570349,Southeastern
Elmstead Woods,BR7 5EB,51.41711582,0.044274059,Southeastern
Elmswell,IP30 9HA,52.23803708,0.912589403,Greater Anglia
Elsecar,S74 8BD,53.49865973,-1.427423915,Northern Trains
Elsenham (Essex),CM22 6HA,51.92054346,0.22807027,Greater Anglia
Elstree and Borehamwood,WD6 3LS,51.65306812,-0.28008154,Govia Thameslink Railway (Thameslink)
Eltham,SE9 6SL,51.45564173,0.052472331,Southeastern
Elton and Orston,NG19 9LH,52.952136,-0.855512438,East Midlands Railway
Ely,CB7 4BS,52.3912277,0.266827583,Greater Anglia
Emerson Park,RM11 2JP,51.56864036,0.220113229,London Overground
Emsworth,PO10 7PN,50.85161413,-0.938429764,Govia Thameslink Railway (Southern)
Energlyn and Churchill Park,CF83 2QR,51.58321643,-3.228796066,TfW Rail
Enfield Chase,EN2 7AA,51.65325253,-0.090696371,Govia Thameslink Railway (Great Northern)
Enfield Lock,EN3 6HA,51.67092044,-0.028532466,Greater Anglia
Enfield Town,EN1 1YX,51.65202399,-0.079327643,London Overground
Entwistle,BL7 0NG,53.65597869,-2.414545055,Northern Trains
Epsom,KT19 8EW,51.33439146,-0.26877768,Govia Thameslink Railway (Southern)
Epsom Downs,KT17 4JX,51.32368619,-0.23895485,Govia Thameslink Railway (Southern)
Erdington,B23 6UB,52.52828549,-1.83950909,West Midlands Trains (West Midlands Railway)
Eridge,TN3 9LE,51.08896359,0.201431713,Govia Thameslink Railway (Southern)
Erith,DA8 1TY,51.48166893,0.175054449,Southeastern
Esher,KT10 8DY,51.37988998,-0.353337838,South Western Railway
Eskbank,EH22 3NX,55.88180574,-3.083073537,ScotRail
Essex Road,N1 2SU,51.5407038,-0.09627606,Govia Thameslink Railway (Great Northern)
Etchingham,TN19 7PA,51.01054371,0.442356267,Southeastern
Euston,NW1 2RT,51.52813476,-0.133923636,Network Rail
Euxton Balshaw Lane,PR7 6DX,53.66048197,-2.672023858,Northern Trains
Evesham,WR11 4EQ,52.09839855,-1.947313706,Great Western Railway
Ewell East,KT17 1QR,51.34529823,-0.241529639,Govia Thameslink Railway (Southern)
Ewell West,KT17 1TU,51.35004357,-0.25698662,South Western Railway
Exeter Central,EX4 3SB,50.72648824,-3.533277091,Great Western Railway
Exeter St David's,EX4 4NT,50.72927898,-3.543286863,Great Western Railway
Exeter St Thomas,EX4 1AJ,50.71715187,-3.538836983,Great Western Railway
Exhibition Centre (Glasgow),G3 8LD,55.86155608,-4.283589731,ScotRail
Exmouth,EX8 1BZ,50.62163873,-3.414972275,Great Western Railway
Exton,EX3 0PR,50.66830751,-3.444096849,Great Western Railway
Eynsford,DA4 0HP,51.3627183,0.204393121,Southeastern
Fairbourne,LL38 2AQ,52.69604646,-4.049414266,TfW Rail
Fairfield,M43 6TT,53.47129555,-2.145775199,Northern Trains
Fairlie,KA29 0DJ,55.75194843,-4.853268686,ScotRail
Fairwater,CF5 3QE,51.49391017,-3.23383999,TfW Rail
Falconwood,SE9 2RN,51.45915264,0.079304477,Southeastern
Falkirk Grahamston,FK2 7EZ,56.00261773,-3.785046885,ScotRail
Falkirk High,FK1 5QX,55.99181958,-3.792244892,ScotRail
Falls Of Cruachan,PA33 1AN,56.3938894,-5.112479119,ScotRail
Falmer,BN1 9PU,50.86212747,-0.087385507,Govia Thameslink Railway (Southern)
Falmouth Docks,TR11 4LT,50.15071428,-5.056029481,Great Western Railway
Falmouth Town,TR11 4AZ,50.14834734,-5.064936286,Great Western Railway
Fareham,PO16 0UT,50.85303383,-1.192037242,South Western Railway
Farnborough (Main),GU14 7NL,51.29660488,-0.755725725,South Western Railway
Farnborough North,GU14 8AQ,51.30204445,-0.743026929,Great Western Railway
Farncombe,GU7 3NF,51.19715312,-0.604548878,South Western Railway
Farnham,GU9 8AD,51.21190423,-0.792427196,South Western Railway
Farningham Road,DA4 9JB,51.40166348,0.235452056,Southeastern
Farnworth,BL4 7QZ,53.55000609,-2.387849972,Northern Trains
Farringdon,EC1M 6BY,51.52016556,-0.10520467,London Underground
Fauldhouse,EH47 9DJ,55.82247773,-3.719319365,ScotRail
Faversham,ME13 8EB,51.31171054,0.891044849,Southeastern
Faygate,RH12 4SJ,51.09588935,-0.263018671,Govia Thameslink Railway (Southern)
Fazakerley,L9 9EW,53.46908788,-2.936723701,Merseyrail
Fearn,IV20 1RS,57.77814701,-3.993936549,ScotRail
Featherstone,WF7 7HJ,53.67906692,-1.358444244,Northern Trains
Felixstowe,IP11 9UD,51.96706843,1.350434991,Greater Anglia
Feltham,TW13 4BY,51.44789734,-0.409838241,South Western Railway
Fenchurch Street,EC3M 4AJ,51.51164426,-0.078896769,c2c
Feniton,EX14 3BT,50.78668058,-3.285418297,South Western Railway
Fenny Stratford,MK1 1BP,52.00006835,-0.715997362,West Midlands Trains (London Northwestern Railway)
Fernhill,CF45 3DP,51.68649881,-3.395883281,TfW Rail
Ferriby,HU14 3DJ,53.7171538,-0.507830473,Northern Trains
Ferryside,SA17 5TD,51.76837253,-4.369459177,TfW Rail
Ffairfach,SA19 6UL,51.87247927,-3.992860276,TfW Rail
Filey,YO14 9PE,54.20985721,-0.293849398,Northern Trains
Filton Abbey Wood,BS34 7JW,51.50494148,-2.562430924,Great Western Railway
Finchley Road and Frognal,NW3 6EP,51.55026446,-0.183140601,London Overground
Finsbury Park,N4 2DH,51.56430024,-0.106284979,Govia Thameslink Railway (Great Northern)
Finstock,OX7 3AW,51.85278286,-1.469343103,Great Western Railway
Fishbourne (Sussex),PO19 3QH,50.83905099,-0.815084252,Govia Thameslink Railway (Southern)
Fishersgate,BN4 1PL,50.8342332,-0.219423239,Govia Thameslink Railway (Southern)
Fishguard and Goodwick,SA64 0DG,52.00412051,-4.994839115,TfW Rail
Fishguard Harbour,SA64 0BU,52.01154906,-4.985643364,TfW Rail
Fiskerton,NG25 0TR,53.06027374,-0.91218761,East Midlands Railway
Fitzwilliam,WF9 5DA,53.63250123,-1.374273166,Northern Trains
Five Ways,B15 1SF,52.47109638,-1.91295452,West Midlands Trains (West Midlands Railway)
Fleet,GU51 3QY,51.29063446,-0.830805697,South Western Railway
Flimby,CA15 8QN,54.689691,-3.520740704,Northern Trains
Flint,CH6 5PG,53.24952752,-3.132993657,TfW Rail
Flitwick,MK45 1AJ,52.00364119,-0.495257874,Govia Thameslink Railway (Thameslink)
Flixton,M41 6JL,53.44380998,-2.384246759,Northern Trains
Flowery Field,SK14 4BZ,53.46185621,-2.081053174,Northern Trains
Folkestone Central,CT19 5HB,51.08288389,1.169482265,Southeastern
Folkestone West,CT20 3PA,51.0845829,1.153903308,Southeastern
Ford,BN18 0BH,50.82939303,-0.57841003,Govia Thameslink Railway (Southern)
Forest Gate,E7 0NF,51.5494302,0.024352817,TfL Rail
Forest Hill,SE23 3HB,51.43927849,-0.053157106,London Overground
Formby,L37 2JF,53.55348043,-3.070908214,Merseyrail
Forres,IV36 3AD,57.60980001,-3.625950388,ScotRail
Forsinard,KW13 6YT,58.35690378,-3.896881086,ScotRail
Fort Matilda,PA16 7TS,55.95903701,-4.79526871,ScotRail
Fort William,PH33 6TQ,56.82045046,-5.10614472,ScotRail
Four Oaks,B74 2TD,52.57978124,-1.8280319,West Midlands Trains (West Midlands Railway)
Foxfield,LA20 6BX,54.25867147,-3.21606208,Northern Trains
Foxton,CB22 6SE,52.11921183,0.056308092,Govia Thameslink Railway (Great Northern)
Frant,TN3 9BJ,51.1040265,0.294543048,Southeastern
Fratton,PO1 5AW,50.79633891,-1.073982774,South Western Railway
Freshfield,L37 7DD,53.56605646,-3.07182995,Merseyrail
Freshford,BA2 7WQ,51.34203171,-2.30100873,Great Western Railway
Frimley,GU16 7QH,51.31186149,-0.746991364,South Western Railway
Frinton-on-Sea,CO13 9JT,51.83767873,1.243170541,Greater Anglia
Frizinghall,BD9 4LD,53.82037122,-1.769001258,Northern Trains
Frodsham,WA6 7DN,53.29581779,-2.723567237,TfW Rail
Frome,BA11 1RE,51.22727258,-2.309997059,Great Western Railway
Fulwell,TW2 5NY,51.43393398,-0.349467607,South Western Railway
Furness Vale,SK12 7QA,53.34875336,-1.988844824,Northern Trains
Furze Platt,SL6 7NY,51.53301976,-0.728472828,Great Western Railway
Gainsborough Central,DN21 1XR,53.39958395,-0.769694112,Northern Trains
Gainsborough Lea Road,DN21 1AH,53.38608872,-0.768579598,East Midlands Railway
Galashiels,TD1 1BP,55.61835413,-2.806900939,ScotRail
Garelochhead,G84 0EG,56.07987005,-4.825717717,ScotRail
Garforth,LS25 1PY,53.79657828,-1.382309709,Northern Trains
Gargrave,BD23 3NE,53.97841814,-2.105170642,Northern Trains
Garrowhill,G69 1AA,55.85524334,-4.129461398,ScotRail
Garscadden,G14 0EY,55.88769991,-4.365005541,ScotRail
Garsdale,LA10 5PP,54.32143217,-2.326353837,Northern Trains
Garston (Hertfordshire),WD25 9RT,51.68661469,-0.381741214,West Midlands Trains (London Northwestern Railway)
Garswood,WN4 0SA,53.48852285,-2.672134965,Northern Trains
Gartcosh,G69 8DF,55.88566552,-4.079495033,ScotRail
Garth (Bridgend County),CF34 9HS,51.59645984,-3.641450685,TfW Rail
Garth (Powys),LD4 4AF,52.13324038,-3.529907783,TfW Rail
Garve,IV23 2QF,57.61304661,-4.688396325,ScotRail
Gathurst,WN5 0LW,53.55940523,-2.694393598,Northern Trains
Gatley,SK8 4AE,53.39290656,-2.231234258,Northern Trains
Gatwick Airport,RH6 0RD,51.15648928,-0.161041535,Govia Thameslink Railway (Gatwick Express)
Georgemas Junction,KW12 6HH,58.51362717,-3.452120858,ScotRail
Gerrards Cross,SL9 8PP,51.58902221,-0.555275422,Chiltern Railways
Gidea Park,RM2 6BX,51.58190196,0.2059643,TfL Rail
Giffnock,G46 6JF,55.80399507,-4.2930152,ScotRail
Giggleswick,BD24 0EA,54.0618025,-2.302848016,Northern Trains
Gilberdyke,HU15 2SU,53.74796309,-0.732243448,Northern Trains
Gilfach Fargoed,CF81 8LT,51.68425281,-3.22656863,TfW Rail
Gillingham (Dorset),SP8 4PZ,51.03403642,-2.272624006,South Western Railway
Gillingham (Kent),ME7 1XE,51.38656284,0.549849976,Southeastern
Gilshochill,G23 5LF,55.89734309,-4.282685448,ScotRail
Gipsy Hill,SE19 1QL,51.42445155,-0.083835919,Govia Thameslink Railway (Southern)
Girvan,KA26 9HF,55.24631857,-4.848382582,ScotRail
Glaisdale,YO21 2QL,54.43938093,-0.793787833,Northern Trains
Glan Conwy,LL28 5ED,53.26742595,-3.797728184,TfW Rail
Glasgow Central,G1 3SL,55.85976112,-4.257644271,Network Rail
Glasgow Queen Street,G1 2AF,55.86219328,-4.251456846,ScotRail
Glasshoughton,WF10 4TA,53.70904357,-1.342005203,Northern Trains
Glazebrook,WA3 5BA,53.42836187,-2.459657743,Northern Trains
Gleneagles,PH3 1JL,56.27485387,-3.731168694,ScotRail
Glenfinnan,PH37 4LS,56.87240916,-5.449621445,ScotRail
Glengarnock,KA14 3AT,55.73889331,-4.674502854,ScotRail
Glenrothes with Thornton,KY1 4AE,56.16236036,-3.14301586,ScotRail
Glossop,SK13 8BS,53.44447123,-1.949073953,Northern Trains
Gloucester,GL1 1DE,51.86556051,-2.238487905,Great Western Railway
Glynde,BN8 6RU,50.85917021,0.070077288,Govia Thameslink Railway (Southern)
Gobowen,SY11 3JS,52.89351807,-3.037173085,TfW Rail
Godalming,GU7 1EU,51.18658592,-0.618862332,South Western Railway
Godley,SK14 4DP,53.4517052,-2.054772603,Northern Trains
Godstone,RH9 8EU,51.21815582,-0.050085001,Govia Thameslink Railway (Southern)
Goldthorpe,S63 9BS,53.53418989,-1.312807786,Northern Trains
Golf Street,DD7 7JG,56.49779653,-2.719543923,ScotRail
Golspie,KW10 6SZ,57.9714692,-3.987215768,ScotRail
Gomshall,GU5 9NX,51.21939754,-0.441852195,Great Western Railway
Goodmayes,IG3 9UH,51.56557709,0.110807067,TfL Rail
Goole,DN14 5DD,53.70491414,-0.874213507,Northern Trains
Goostrey,CW4 8PJ,53.22255424,-2.326470622,Northern Trains
Gordon Hill,EN2 0QU,51.66333361,-0.094610512,Govia Thameslink Railway (Great Northern)
Gorebridge,EH23 4JX,55.84027678,-3.046515878,ScotRail
Goring and Streatley,RG8 0EP,51.5214929,-1.133049456,Great Western Railway
Goring-By-Sea,BN12 6NT,50.81772021,-0.433083116,Govia Thameslink Railway (Southern)
Gorton,M18 8QU,53.46907568,-2.166209667,Northern Trains
Gospel Oak,NW5 1LT,51.55533398,-0.150770187,London Overground
Gourock,PA19 1QR,55.96232496,-4.816658939,ScotRail
Gowerton,SA4 3AJ,51.64873035,-4.035935436,TfW Rail
Goxhill,DN19 7HS,53.67670164,-0.337120493,Northern Trains
Grange Park,N21 1RE,51.64260581,-0.097358506,Govia Thameslink Railway (Great Northern)
Grange-Over-Sands,LA11 6EH,54.1957251,-2.902747771,Northern Trains
Grangetown (Cardiff),CF11 8UY,51.46761505,-3.189724429,TfW Rail
Grantham,NG31 6BT,52.90647177,-0.642450315,London North Eastern Railway
Grateley,SP11 7EB,51.17006008,-1.620773828,South Western Railway
Gravelly Hill,B23 7NH,52.51499745,-1.852598619,West Midlands Trains (West Midlands Railway)
Gravesend,DA11 0HP,51.44134601,0.366642983,Southeastern
Grays,RM17 6NQ,51.47624563,0.32183215,c2c
Great Ayton,TS9 6HR,54.48957113,-1.115345299,Northern Trains
Great Bentley,CO7 8LH,51.85175641,1.065153373,Greater Anglia
Great Chesterford,CB10 1NY,52.05980885,0.193521007,Greater Anglia
Great Coates,DN37 9NH,53.57575258,-0.130230465,Northern Trains
Great Malvern,WR14 3AL,52.10920075,-2.318271126,West Midlands Trains (West Midlands Railway)
Great Missenden,HP16 9AZ,51.703518,-0.709141096,Chiltern Railways
Great Yarmouth,NR30 1SD,52.61215532,1.720885994,Greater Anglia
Green Lane,CH41 9AN,53.38325747,-3.016415262,Merseyrail
Green Road,LA18 5HR,54.24452874,-3.245571411,Northern Trains
Greenbank,CW9 7NJ,53.25146721,-2.534271004,Northern Trains
Greenfaulds,G67 2XJ,55.93523733,-3.99310088,ScotRail
Greenfield,OL3 7JZ,53.53885963,-2.013843699,Northern Trains
Greenford,UB6 8PX,51.54233018,-0.345837204,London Underground
Greenhithe for Bluewater,DA9 9NQ,51.45036958,0.280290119,Southeastern
Greenock Central,PA15 1DH,55.9453458,-4.752635197,ScotRail
Greenock West,PA15 1TE,55.94734215,-4.767834418,ScotRail
Greenwich,SE10 8JQ,51.47813337,-0.013339927,Southeastern
Gretna Green,DG16 5HF,55.00104999,-3.06519853,ScotRail
Grimsby Docks,DN31 3PB,53.57431997,-0.075617288,Northern Trains
Grimsby Town,DN31 1LY,53.56342692,-0.086983952,TransPennine Express
Grindleford,S32 2HY,53.30556249,-1.626296843,Northern Trains
Grosmont,YO22 5QE,54.43611274,-0.724965652,Northern Trains
Grove Park,SE12 0DZ,51.43086138,0.021725482,Southeastern
Guide Bridge,M34 5HF,53.47462914,-2.113710834,Northern Trains
Guildford,GU1 4UT,51.23696943,-0.580425041,Network Rail
Guiseley,LS20 8BX,53.87593542,-1.715080093,Northern Trains
Gunnersbury,W4 4AN,51.49167637,-0.275286435,London Underground
Gunnislake,PL18 9DZ,50.51608738,-4.219406517,Great Western Railway
Gunton,NR11 8UD,52.86634274,1.34911623,Greater Anglia
Gwersyllt,LL11 4LD,53.07257752,-3.017888574,TfW Rail
Gypsy Lane,TS7 0DY,54.53289165,-1.179392156,Northern Trains
Habrough,DN40 3AB,53.60607503,-0.269461323,Northern Trains
Hackbridge,SM6 7BJ,51.37787034,-0.153907557,Govia Thameslink Railway (Southern)
Hackney Central,E8 1LL,51.54710334,-0.056057615,London Overground
Hackney Downs,E8 1LA,51.54875584,-0.060819019,London Overground
Hackney Wick,E9 5TS,51.54340881,-0.024919857,London Overground
Haddenham and Thame Parkway,HP17 8EP,51.77085508,-0.942137164,Chiltern Railways
Haddiscoe,NR31 9JA,52.52878292,1.623006951,Greater Anglia
Hadfield,SK14 7AA,53.46074619,-1.965320691,Northern Trains
Hadley Wood,EN4 0EL,51.66849544,-0.176172558,Govia Thameslink Railway (Great Northern)
Hag Fold,M46 9WX,53.53385457,-2.494821908,Northern Trains
Haggerston,E8 4DY,51.53870388,-0.075666551,London Overground
Hagley,DY9 0NX,52.42249157,-2.146417359,West Midlands Trains (West Midlands Railway)
Hairmyres,G75 8SW,55.76197063,-4.22001179,ScotRail
Hale (Manchester),WA14 2UZ,53.37871974,-2.347357079,Northern Trains
Halesworth,IP19 8BZ,52.34681234,1.505667244,Greater Anglia
Halewood,L26 0TH,53.36448225,-2.830134371,Northern Trains
Halifax,HX1 1QE,53.72096205,-1.853574933,Northern Trains
Hall Green,B28 8AA,52.43691069,-1.845651069,West Midlands Trains (West Midlands Railway)
Hall Road,L23 8TU,53.49748905,-3.04962756,Merseyrail
Hall-I'-Th'-Wood,BL1 8UF,53.59742499,-2.413109996,Northern Trains
Halling,ME1 1BN,51.35247539,0.444931769,Southeastern
Haltwhistle,NE49 0AH,54.96785145,-2.463565319,Northern Trains
Ham Street,TN26 2DU,51.06837545,0.854506282,Govia Thameslink Railway (Southern)
Hamble,SO31 4NL,50.87137507,-1.329162164,South Western Railway
Hamilton Central,ML3 6PB,55.77319832,-4.038885714,ScotRail
Hamilton West,ML3 0DA,55.77886458,-4.054809037,ScotRail
Hammerton,Y26 8DG,53.9963303,-1.284095688,Northern Trains
Hampden Park (Sussex),BN22 9ND,50.79640376,0.279355782,Govia Thameslink Railway (Southern)
Hampstead Heath,NW3 2QD,51.55520875,-0.165705424,London Overground
Hampton,TW12 2HU,51.41593328,-0.372118964,South Western Railway
Hampton Court,KT8 9AE,51.40255453,-0.342747731,South Western Railway
Hampton Wick,KT1 4DQ,51.41452329,-0.312489539,South Western Railway
Hampton-In-Arden,B92 0BJ,52.42903423,-1.699930749,West Midlands Trains (West Midlands Railway)
Hamstead (Birmingham),B42 1NJ,52.53106989,-1.92897794,West Midlands Trains (West Midlands Railway)
Hamworthy,BH16 5AA,50.72519344,-2.01935721,South Western Railway
Hanborough,OX29 8LA,51.82515867,-1.373525558,Great Western Railway
Handforth,SK9 3AB,53.34649516,-2.213633583,Northern Trains
Hanwell,W7 3EB,51.5118338,-0.338583505,TfL Rail
Hapton,BB12 7LG,53.78161621,-2.316911701,Northern Trains
Harlech,LL46 2UL,52.86133356,-4.109191396,TfW Rail
Harlesden,NW10 7AA,51.53628786,-0.257667576,London Underground
Harling Road,NR16 2QP,52.45368673,0.909142232,Greater Anglia
Harlington (Bedfordshire),LU5 6LD,51.96206118,-0.495689942,Govia Thameslink Railway (Thameslink)
Harlow Mill,CM20 2EL,51.79036355,0.13230755,Greater Anglia
Harlow Town,CM20 2JD,51.78106849,0.095131793,Greater Anglia
Harold Wood,RM3 0BL,51.59276405,0.233128598,TfL Rail
Harpenden,AL5 4SP,51.81464378,-0.35148053,Govia Thameslink Railway (Thameslink)
Harrietsham,ME17 1JA,51.24483003,0.672399309,Southeastern
Harringay,N4 1RE,51.57735674,-0.105136139,Govia Thameslink Railway (Great Northern)
Harringay Green Lanes,N4 1DR,51.57718067,-0.098143778,London Overground
Harrington,CA14 5QQ,54.61348859,-3.565515351,Northern Trains
Harrogate,HG1 1TE,53.9931777,-1.53760792,Northern Trains
Harrow and Wealdstone,HA3 5BP,51.59216753,-0.334571478,London Underground
Harrow-On-The-Hill,HA1 1BB,51.57918447,-0.337225439,London Underground
Hartford (Cheshire),CW8 1QX,53.24176074,-2.553629792,West Midlands Trains (London Northwestern Railway)
Hartlebury,DY10 4HB,52.33449692,-2.221119193,West Midlands Trains (West Midlands Railway)
Hartlepool,TS24 7ED,54.68675585,-1.207316314,Northern Trains
Hartwood,ML7 7DU,55.81148519,-3.839322676,ScotRail
Harwich International,CO12 4SR,51.94728571,1.255124259,Greater Anglia
Harwich Town,CO12 3NA,51.94414155,1.286681684,Greater Anglia
Haslemere,GU27 2PE,51.08864765,-0.719162656,South Western Railway
Hassocks,BN6 8JD,50.92461434,-0.14595306,Govia Thameslink Railway (Southern)
Hastings,TN34 1BA,50.85789324,0.576741777,Southeastern
Hatch End,HA5 4HU,51.60941584,-0.368601443,London Overground
Hatfield (Herts),AL9 5AB,51.76387815,-0.215588611,Govia Thameslink Railway (Great Northern)
Hatfield and Stainforth,DN7 4EQ,53.58871537,-1.02337734,Northern Trains
Hatfield Peverel,CM3 2DX,51.7798617,0.592123687,Greater Anglia
Hathersage,S32 1DT,53.32577416,-1.651718788,Northern Trains
Hattersley,SK14 3HG,53.44528419,-2.04031079,Northern Trains
Hatton,CV35 7LE,52.29527887,-1.672975327,Chiltern Railways
Havant,PO9 1PP,50.85442697,-0.981611528,South Western Railway
Havenhouse,PE24 4AR,53.11446634,0.273167404,East Midlands Railway
Haverfordwest,SA61 1TY,51.80263841,-4.960204539,TfW Rail
Hawarden,CH5 1PY,53.18536181,-3.032081241,TfW Rail
Hawarden Bridge,CH5 1PY,53.21807723,-3.032717952,TfW Rail
Hawkhead,PA2 7BB,55.84219572,-4.398851909,ScotRail
Haydon Bridge,NE47 6LL,54.97517773,-2.247587987,Northern Trains
Haydons Road,SW19 8SL,51.42544655,-0.188814711,Govia Thameslink Railway (Thameslink)
Hayes,BR2 7EN,51.37633212,0.010556706,Southeastern
Hayes and Harlington,UB3 4BX,51.5030946,-0.420683555,TfL Rail
Hayle,TR27 4NG,50.1855698,-5.419837798,Great Western Railway
Haymarket,EH12 5EY,55.94581132,-3.218450017,ScotRail
Haywards Heath,RH16 1DJ,51.00568014,-0.105077782,Govia Thameslink Railway (Southern)
Hazel Grove,SK7 4EX,53.37754489,-2.122019621,Northern Trains
Headcorn,TN27 9SD,51.16571149,0.627481713,Southeastern
Headingley,LS5 3LD,53.81797491,-1.594188178,Northern Trains
Headstone Lane,HA2 6NB,51.60264787,-0.357219843,London Overground
Heald Green,SK8 3DY,53.36941767,-2.236667634,Northern Trains
Healing,DN37 7RY,53.58179754,-0.16062993,Northern Trains
Heath High Level,CF23 5QT,51.51643391,-3.181541987,TfW Rail
Heath Low Level,CF23 5QT,51.5156653,-3.181968859,TfW Rail
Heathrow Terminal 4,TW6 3AA,51.45826668,-0.445463475,Heathrow Express
Heathrow Terminal 5,TW6 2GA,51.47005165,-0.490589046,Heathrow Express
Heathrow Terminals 2 and 3 (Rail Station Only),TW6 1WD,51.47140472,-0.454332698,Heathrow Express
Heaton Chapel,SK4 4NX,53.42556179,-2.179041787,Northern Trains
Hebden Bridge,HX7 6JE,53.73758911,-2.009058953,Northern Trains
Heckington,NG34 9UJ,52.97731656,-0.293944437,East Midlands Railway
Hedge End,SO30 2RZ,50.93231995,-1.294503452,South Western Railway
Hednesford,WS12 1AZ,52.71011287,-2.001778182,West Midlands Trains (West Midlands Railway)
Heighington,DL5 6PX,54.59696131,-1.581765236,Northern Trains
Helensburgh Central,G84 7QF,56.00421398,-4.732759028,ScotRail
Helensburgh Upper,G84 9LG,56.01236908,-4.729805223,ScotRail
Hellifield,BD23 4HN,54.01086439,-2.227844904,Northern Trains
Helmsdale,KW8 6HH,58.11744294,-3.658688305,ScotRail
Helsby,WA6 0AE,53.27520419,-2.771207041,TfW Rail
Hemel Hempstead,HP3 9BQ,51.74233209,-0.490773824,West Midlands Trains (London Northwestern Railway)
Hendon,NW4 4PT,51.58006665,-0.238674142,Govia Thameslink Railway (Thameslink)
Hengoed,CF82 7LT,51.64741238,-3.224128492,TfW Rail
Henley-In-Arden,B95 5JF,52.29148839,-1.783991224,West Midlands Trains (West Midlands Railway)
Henley-On-Thames,RG9 1AY,51.53417987,-0.900212251,Great Western Railway
Hensall,DN14 0QN,53.698545,-1.114518749,Northern Trains
Hereford,HR1 1BB,52.06116493,-2.708210593,TfW Rail
Herne Bay,CT6 8PJ,51.36458945,1.11772577,Southeastern
Herne Hill,SE24 0JW,51.4533035,-0.102289173,Southeastern
Hersham,KT12 4SQ,51.37681098,-0.389959264,South Western Railway
Hertford East,SG14 1SB,51.79903329,-0.072941429,Greater Anglia
Hertford North,SG14 1NB,51.79885516,-0.09178855,Govia Thameslink Railway (Great Northern)
Hessle,HU13 0EL,53.71743712,-0.441823202,Northern Trains
Heswall,CH60 1XQ,53.32972038,-3.07370325,TfW Rail
Hever,TN8 7ER,51.18140927,0.095069323,Govia Thameslink Railway (Southern)
Heworth,NE10 0NE,54.95156904,-1.555766273,Northern Trains
Hexham,NE46 1EU,54.97346083,-2.094794838,Northern Trains
Heyford,OX6 8UL,51.91919073,-1.299270105,Great Western Railway
Heysham Port,LA3 2XE,54.03314691,-2.913114793,Northern Trains
High Brooms,TN2 3XE,51.14940278,0.277332197,Southeastern
High Street (Glasgow),G1 1PZ,55.85956921,-4.240118935,ScotRail
High Wycombe,HP13 6NN,51.62958549,-0.745409901,Chiltern Railways
Higham,ME3 7JQ,51.42655664,0.466277692,Southeastern
Highams Park,E4 9LA,51.60834848,-0.000222271,London Overground
Highbridge and Burnham,TA9 3BT,51.21815994,-2.972153911,Great Western Railway
Highbury and Islington,N5 1RA,51.54617562,-0.103763719,London Underground
Hightown,L38 3RX,53.52510909,-3.057068462,Merseyrail
Hildenborough,TN11 8LX,51.21448406,0.227589893,Southeastern
Hillfoot,G61 3PG,55.92009771,-4.320275166,ScotRail
Hillington East,G52 2LL,55.85418779,-4.355011262,ScotRail
Hillington West,G52 4NQ,55.85602649,-4.371581045,ScotRail
Hillside,PR8 4QR,53.62210934,-3.024716883,Merseyrail
Hilsea,PO3 5FT,50.82827662,-1.05879744,South Western Railway
Hinchley Wood,KT10 0SR,51.37499712,-0.340524541,South Western Railway
Hinckley (Leics),LE10 1UE,52.53499905,-1.371923359,East Midlands Railway
Hindley,WN2 2QJ,53.54223925,-2.575502023,Northern Trains
Hinton Admiral,BH23 7DW,50.75264113,-1.714126714,South Western Railway
Hitchin,SG4 9UL,51.95328128,-0.263480843,Govia Thameslink Railway (Great Northern)
Hither Green,SE13 5NF,51.45202357,-0.000944253,Southeastern
Hockley,SS5 4BG,51.60355343,0.659001062,Greater Anglia
Hollingbourne,ME17 1TX,51.26517616,0.627848162,Southeastern
Holmes Chapel,CW4 8AA,53.19893321,-2.351140108,Northern Trains
Holmwood,RH5 4RB,51.18119453,-0.320808989,Govia Thameslink Railway (Southern)
Holton Heath,BH16 6JT,50.71141023,-2.077845039,South Western Railway
Holyhead,LL65 2BT,53.30768964,-4.631003588,TfW Rail
Holytown,ML1 4HD,55.81290273,-3.97392977,ScotRail
Homerton,E9 5SB,51.54701043,-0.042359836,London Overground
Honeybourne,WR11 6RD,52.1016017,-1.833742916,Great Western Railway
Honiton,EX14 2DA,50.79658465,-3.186718407,South Western Railway
Honley,HD9 6LD,53.60822953,-1.780965503,Northern Trains
Honor Oak Park,SE23 1EB,51.44998735,-0.045505455,London Overground
Hook,RG27 9HS,51.2799981,-0.961635809,South Western Railway
Hooton,CH66 7NL,53.29720199,-2.977009778,Merseyrail
Hope (Derbyshire),S33 6RD,53.34611132,-1.729886912,Northern Trains
Hope (Flintshire),LL12 9NJ,53.11736072,-3.036876302,TfW Rail
Hopton Heath,SY7 0QD,52.39141891,-2.912060083,TfW Rail
Horley,RH6 7NL,51.16877387,-0.161053584,Govia Thameslink Railway (Southern)
Hornbeam Park,HG2 8QT,53.97986979,-1.526822414,Northern Trains
Hornsey,N8 9DJ,51.58645943,-0.111975065,Govia Thameslink Railway (Great Northern)
Horsforth,LS18 5NL,53.84770672,-1.630228545,Northern Trains
Horsham,RH12 1RD,51.06606378,-0.319269498,Govia Thameslink Railway (Southern)
Horsley,KT24 6QX,51.27934598,-0.435408675,South Western Railway
Horton-In-Ribblesdale,BD24 0HH,54.14938803,-2.302032979,Northern Trains
Horwich Parkway,BL6 6LB,53.5781084,-2.539666312,Transport for Greater Manchester
Hoscar,L40 4BL,53.59777105,-2.804421314,Northern Trains
Hough Green,WA8 7XU,53.3723942,-2.775066368,Northern Trains
Hounslow,TW3 2DQ,51.46194502,-0.362276956,South Western Railway
Hove,BN3 3RU,50.83521491,-0.170687399,Govia Thameslink Railway (Southern)
Hoveton and Wroxham,NR12 8UR,52.71556726,1.407996985,Greater Anglia
How Wood (Hertfordshire),AL2 2NG,51.717741,-0.344670453,West Midlands Trains (London Northwestern Railway)
Howden,DN14 7SE,53.76471101,-0.860463099,Northern Trains
Howwood (Renfrewshire),PA9 1AZ,55.8105699,-4.563059126,ScotRail
Hoxton,E2 8FF,51.53151009,-0.075681576,London Overground
Hoylake,CH47 4AA,53.39021381,-3.178831344,Merseyrail
Hubberts Bridge,PE20 3SG,52.97535145,-0.110528766,East Midlands Railway
Hucknall,NG15 7TD,53.03828435,-1.19581159,East Midlands Railway
Huddersfield,HD1 1JB,53.64850356,-1.784690399,TransPennine Express
Hull,HU1 3QX,53.74414935,-0.345680032,TransPennine Express
Humphrey Park,M32 9PP,53.45223041,-2.32753802,Northern Trains
Huncoat,BB5 6LT,53.77177925,-2.34756165,Northern Trains
Hungerford,RG17 0DY,51.41491103,-1.512287133,Great Western Railway
Hunmanby,YO14 0LR,54.1739247,-0.314556822,Northern Trains
Huntingdon,PE29 3BP,52.3286476,-0.192068059,Govia Thameslink Railway (Great Northern)
Huntly,AB54 5HS,57.44449115,-2.775740438,ScotRail
Hunts Cross,L25 0NN,53.36071396,-2.855861411,Merseyrail
Hurst Green,RH8 0LL,51.24442896,0.003939324,Govia Thameslink Railway (Southern)
Hutton Cranswick,YO25 5HP,53.95585412,-0.433861592,Northern Trains
Huyton,L36 5XE,53.40968699,-2.842989278,Northern Trains
Hyde Central,SK14 1AA,53.45188507,-2.08525039,Northern Trains
Hyde North,SK16 5RH,53.46480135,-2.085457096,Northern Trains
Hykeham,LN6 9AT,53.19500438,-0.600196479,East Midlands Railway
Hyndland,G12 9PP,55.87975927,-4.314669434,ScotRail
Hythe (Essex),CO2 8JR,51.88563629,0.927527517,Greater Anglia
Ifield,RH11 0JP,51.11562153,-0.214772156,Govia Thameslink Railway (Southern)
Ilford,IG1 4DU,51.55911571,0.069679447,TfL Rail
Ilkeston,DE7 5TE,52.97959244,-1.294931917,East Midlands Railway
Ilkley,LS29 8HF,53.92476563,-1.8220277,Northern Trains
Imperial Wharf,SW6 2ZH,51.47494769,-0.182822757,London Overground
Ince (Manchester),WN2 2DA,53.53891451,-2.611520048,Northern Trains
Ince and Elton (Cheshire),CH2 4NG,53.2766104,-2.816522749,Northern Trains
Ingatestone,CM4 0BW,51.66704075,0.384246718,Greater Anglia
Insch,AB52 6PU,57.33750113,-2.617112583,ScotRail
Invergordon,IV18 0RY,57.68902346,-4.174841319,ScotRail
Invergowrie,DD2 5DS,56.45647658,-3.057398231,ScotRail
Inverkeithing,KY11 1NJ,56.03468085,-3.396187511,ScotRail
Inverkip,PA16 0AS,55.9061105,-4.872587427,ScotRail
Inverness,IV2 3PY,57.47987489,-4.223361989,ScotRail
Invershin,IV27 4ET,57.92487436,-4.399478885,ScotRail
Inverurie,AB51 4TN,57.28626945,-2.373559857,ScotRail
Ipswich,IP2 8AL,52.05058875,1.144425499,Greater Anglia
Irlam,M44 5AB,53.43431222,-2.433230467,Northern Trains
Irvine,KA12 8NU,55.61087991,-4.675146616,ScotRail
Isleworth,TW7 4BX,51.47476167,-0.336906804,South Western Railway
Islip,OX5 2TQ,51.82575359,-1.238181764,Chiltern Railways
Iver,SL0 9AU,51.50850195,-0.50672603,TfL Rail
Ivybridge,PL21 0DQ,50.39341686,-3.904204959,Great Western Railway
James Cook University Hospital,TS4 3BW,54.5520309,-1.208569475,Northern Trains
Jewellery Quarter,B18 6LE,52.48943609,-1.913212973,West Midlands Trains (West Midlands Railway)
Johnston (Pembs),SA62 3PL,51.7567531,-4.996329626,TfW Rail
Johnstone (Renfrewshire),PA5 8HE,55.8347142,-4.503638356,ScotRail
Jordanhill,G13 1QL,55.8827117,-4.324918875,ScotRail
Kearsley (Manchester),BL4 8DU,53.54414133,-2.375119969,Northern Trains
Kearsney (Kent),CT17 0RN,51.14937179,1.272061214,Southeastern
Keighley,BD21 4HP,53.86796434,-1.9016497,Northern Trains
Keith,AB55 3DR,57.55090227,-2.954069283,ScotRail
Kelvedon,CO5 9NP,51.84069946,0.702385545,Greater Anglia
Kelvindale,G20 0TB,55.89356104,-4.309573586,ScotRail
Kemble,GL7 6AW,51.67699717,-2.022817332,Great Western Railway
Kempston Hardwick,MK43 9NT,52.09221748,-0.503913836,West Midlands Trains (London Northwestern Railway)
Kempton Park Racecourse,TW16 5AE,51.42098211,-0.409751334,South Western Railway
Kemsing,TN15 6NT,51.29718503,0.247428327,Southeastern
Kemsley,ME10 2ST,51.36243733,0.735357659,Southeastern
Kendal,LA9 6BT,54.33209867,-2.739647005,Northern Trains
Kenilworth,CV8 1JJ,52.34270617,-1.572738399,West Midlands Trains (West Midlands Railway)
Kenley,CR8 5DF,51.3247754,-0.100925423,Govia Thameslink Railway (Southern)
Kennett,CB8 7QD,52.27726176,0.490464403,Greater Anglia
Kennishead,G46 8HP,55.81332096,-4.325247171,ScotRail
Kensal Green,NW10 5JT,51.53053887,-0.225087665,London Underground
Kensal Rise,NW10 3JN,51.53455266,-0.219957116,London Overground
Kensington (Olympia),W14 0NE,51.49789745,-0.21036414,London Overground
Kent House,BR3 1JF,51.41221358,-0.045247452,Southeastern
Kentish Town,NW5 2AA,51.55049343,-0.140364989,London Underground
Kentish Town West,NW5 3LR,51.54654638,-0.146655517,London Overground
Kenton,HA3 0AZ,51.58180036,-0.316980931,London Underground
Kents Bank,LA11 7BG,54.17290541,-2.925229661,Northern Trains
Kettering,NN15 7HJ,52.39355452,-0.731562286,East Midlands Railway
Kew Bridge,TW8 9QS,51.48951162,-0.287107629,South Western Railway
Kew Gardens,TW9 3BZ,51.4770721,-0.285053593,London Underground
Keyham,PL2 2BP,50.38988503,-4.179600144,Great Western Railway
Keynsham,BS31 2BN,51.41797934,-2.495629265,Great Western Railway
Kidbrooke,SE3 9PL,51.46211954,0.02749754,Southeastern
Kidderminster,DY10 1QZ,52.38448442,-2.238471021,West Midlands Trains (West Midlands Railway)
Kidsgrove,ST7 1BX,53.08656736,-2.24481613,East Midlands Railway
Kidwelly,SA17 4UH,51.73434714,-4.316986486,TfW Rail
Kilburn High Road,NW6 5UA,51.53727608,-0.192237499,London Overground
Kildale,YO21 2RT,54.47775772,-1.068143535,Northern Trains
Kildonan,KW8 6HY,58.17081394,-3.8691069,ScotRail
Kilgetty,SA68 0UF,51.73211242,-4.71515691,TfW Rail
Kilmarnock,KA1 2AF,55.61212313,-4.498685853,ScotRail
Kilmaurs,KA3 2QX,55.63721348,-4.530491491,ScotRail
Kilpatrick,G60 5LX,55.92470683,-4.453413032,ScotRail
Kilwinning,KA13 6NT,55.65595702,-4.710019813,ScotRail
Kinbrace,KW11 6UB,58.25831726,-3.941208772,ScotRail
King's Cross,N1 9AL,51.53088184,-0.122925992,Network Rail
Kingham,OX7 6UP,51.90225059,-1.628786365,Great Western Railway
Kinghorn,KY3 9RA,56.06934099,-3.174154635,ScotRail
Kings Langley,WD4 8LF,51.7063549,-0.43842195,West Midlands Trains (London Northwestern Railway)
Kings Lynn,PE30 1NX,52.75392169,0.403446572,Govia Thameslink Railway (Great Northern)
Kings Norton,B30 3EG,52.41429213,-1.932325959,West Midlands Trains (West Midlands Railway)
Kings Nympton,EX37 9EU,50.93607877,-3.905411529,Great Western Railway
Kings Park,G44 5UT,55.81954819,-4.246517923,ScotRail
Kings Sutton,OX17 3RR,52.02135172,-1.280930679,Chiltern Railways
Kingsknowe,EH14 2JX,55.91881706,-3.264966758,ScotRail
Kingston,KT1 1UJ,51.41275003,-0.301165787,South Western Railway
Kingswood,KT20 6EN,51.29472336,-0.211247561,Govia Thameslink Railway (Southern)
Kingussie,PH21 1EN,57.07778651,-4.05219309,ScotRail
Kintbury,RG17 9UT,51.40252264,-1.445988998,Great Western Railway
Kirby Cross,CO13 0LU,51.84139416,1.21499248,Greater Anglia
Kirk Sandall,DN3 1LL,53.56387823,-1.074061139,Northern Trains
Kirkby (Merseyside),L32 2AE,53.48619373,-2.902829669,Merseyrail
Kirkby Stephen,CA17 4LE,54.4548592,-2.36859692,Northern Trains
Kirkby-in-Ashfield,NG17 8EJ,53.1000992,-1.253056761,East Midlands Railway
Kirkby-In-Furness,LA17 7UB,54.2327128,-3.187376262,Northern Trains
Kirkcaldy,KY1 1YL,56.11206153,-3.16702889,ScotRail
Kirkconnel,DG4 6NL,55.38830808,-3.998501145,ScotRail
Kirkdale,L20 2BN,53.4409021,-2.981117305,Merseyrail
Kirkham and Wesham,PR4 3AA,53.78691826,-2.882941254,Northern Trains
Kirkhill,G72 8NL,55.81391846,-4.167105609,ScotRail
Kirknewton,EH27 8BP,55.88869474,-3.432512233,ScotRail
Kirkstall Forge,LS5 3NF,53.82372071,-1.622479447,Northern Trains
Kirkwood,ML5 5RS,55.8541933,-4.048399145,ScotRail
Kirton Lindsey,DN21 4BD,53.48483927,-0.59391344,Northern Trains
Kiveton Bridge,S26 8QP,53.3409583,-1.26717949,Northern Trains
Kiveton Park,S26 6PB,53.33671537,-1.23984463,Northern Trains
Knaresborough,HG5 9AA,54.00902453,-1.470416315,Northern Trains
Knebworth,SG3 6AT,51.86685345,-0.187288792,Govia Thameslink Railway (Great Northern)
Knighton,LD7 1DT,52.34507589,-3.042196213,TfW Rail
Knockholt,TN14 7HR,51.34578762,0.130847054,Southeastern
Knottingley,WF11 8ED,53.70653773,-1.259178277,Northern Trains
Knucklas,LD7 1PN,52.35986484,-3.096877948,TfW Rail
Knutsford,WA16 0PA,53.30179274,-2.371790932,Northern Trains
Kyle Of Lochalsh,IV40 8AH,57.27977944,-5.713814398,ScotRail
Ladybank,KY15 7JS,56.2737849,-3.122275693,ScotRail
Ladywell,SE13 7XB,51.45624265,-0.019040694,Southeastern
Laindon,SS15 6AB,51.56752118,0.424288908,c2c
Lairg,IV27 4EX,58.00183455,-4.399889864,ScotRail
Lake,PO36 8PJ,50.64647709,-1.16634859,South Western Railway (Island Line)
Lakenheath,IP27 9AD,52.44739817,0.535197605,Greater Anglia
Lamphey,SA17 5NR,51.66719276,-4.873257596,TfW Rail
Lanark,ML11 7JP,55.67361179,-3.773290995,ScotRail
Lancaster,LA1 5NW,54.04873286,-2.80745804,Avanti West Coast
Lancing,BN15 8AG,50.82708208,-0.323109265,Govia Thameslink Railway (Southern)
Landywood,WS6 6JE,52.65654176,-2.020727932,West Midlands Trains (West Midlands Railway)
Langbank,PA14 6PD,55.92452516,-4.585275657,ScotRail
Langho,BB6 8EZ,53.80483412,-2.448659349,Northern Trains
Langley,SL3 6DB,51.50806148,-0.541756169,TfL Rail
Langley Green,B69 4LZ,52.49387283,-2.004964287,West Midlands Trains (West Midlands Railway)
Langley Mill,NG16 4AT,53.01806082,-1.331244509,East Midlands Railway
Langside,G43 2JH,55.82113815,-4.277341047,ScotRail
Langwathby,CA10 1NZ,54.6943601,-2.663684091,Northern Trains
Langwith-Whaley Thorns,NG20 9HS,53.23184057,-1.20934369,East Midlands Railway
Lapford,EX17 6QU,50.85700709,-3.810639614,Great Western Railway
Lapworth,B94 6JJ,52.34225213,-1.725691417,Chiltern Railways
Larbert,FK5 4AN,56.02270858,-3.830581475,ScotRail
Largs,KA30 8AN,55.7927493,-4.867198782,ScotRail
Larkhall,ML9 1DP,55.73860003,-3.975512501,ScotRail
Laurencekirk,AB30 1BE,56.83634924,-2.465925912,ScotRail
Lawrence Hill,BS5 9JJ,51.45801376,-2.564430067,Great Western Railway
Layton (Lancs),FY2 0SX,53.83527115,-3.029990967,Northern Trains
Lazonby and Kirkoswald,CA10 1DL,54.75043945,-2.703209024,Northern Trains
Lea Bridge,E10 7PG,51.56654616,-0.03667261,Greater Anglia
Lea Green,WA9 3BZ,53.42681231,-2.724977912,Northern Trains
Lea Hall,B33 8JU,52.48064413,-1.786012013,West Midlands Trains (West Midlands Railway)
Leagrave,LU4 9BA,51.90515805,-0.458502653,Govia Thameslink Railway (Thameslink)
Lealholm,YO21 2AG,54.4605916,-0.825715346,Northern Trains
Leamington Spa,CV31 3NS,52.28449122,-1.536210159,Chiltern Railways
Leasowe,CH46 1QN,53.40804912,-3.099594232,Merseyrail
Leatherhead,KT22 7SQ,51.29881665,-0.333231977,Govia Thameslink Railway (Southern)
Ledbury,HR8 1AR,52.04525244,-2.425860636,West Midlands Trains (West Midlands Railway)
Lee,SE12 9JG,51.44975308,0.01349279,Southeastern
Leeds,LS1 4DY,53.79562745,-1.548025674,Network Rail
Leicester,LE2 0QB,52.63142532,-1.125275566,East Midlands Railway
Leigh (Kent),TN11 8RU,51.1938988,0.210494917,Govia Thameslink Railway (Southern)
Leigh-On-Sea,SS9 2ET,51.54127048,0.640411252,c2c
Leighton Buzzard,LU7 2LY,51.91630519,-0.677007376,West Midlands Trains (London Northwestern Railway)
Lelant,TR26 3DS,50.18413146,-5.436548269,Great Western Railway
Lelant Saltings,TR26 3DL,50.17878376,-5.440927384,Great Western Railway
Lenham,ME17 2HR,51.23448321,0.707758977,Southeastern
Lenzie,G66 4UA,55.92132327,-4.15389137,ScotRail
Leominster,HR6 8AR,52.22568467,-2.730341481,TfW Rail
Letchworth Garden City,SG6 3AN,51.97996269,-0.229264161,Govia Thameslink Railway (Great Northern)
Leuchars (For St. Andrews),KY16 0AA,56.37510566,-2.893713515,ScotRail
Levenshulme,M19 3PJ,53.44416479,-2.19266994,Northern Trains
Lewes,BN7 2UP,50.87063028,0.011330516,Govia Thameslink Railway (Southern)
Lewisham,SE13 7RY,51.46569006,-0.014024424,Southeastern
Leyland,PR25 3NN,53.69885719,-2.687145497,Northern Trains
Leyton Midland Road,E10 6JT,51.56972368,-0.008050635,London Overground
Leytonstone High Road,E11 4RE,51.56355278,0.008416391,London Overground
Lichfield City,WS13 6HX,52.68014786,-1.825419898,West Midlands Trains (West Midlands Railway)
Lichfield Trent Valley,WS13 6HE,52.6868953,-1.800229096,West Midlands Trains (West Midlands Railway)
Lidlington,MK43 0SA,52.04153569,-0.558928401,West Midlands Trains (London Northwestern Railway)
Limehouse,E14 7JD,51.51253505,-0.039802867,c2c
Lincoln,LN5 7EW,53.22608639,-0.539921947,East Midlands Railway
Lingfield,RH7 6EF,51.17645107,-0.00716463,Govia Thameslink Railway (Southern)
Lingwood,NR13 4AU,52.62209791,1.489944322,Greater Anglia
Linlithgow,EH49 7DH,55.97645647,-3.595852831,ScotRail
Liphook,GU30 7DR,51.07131582,-0.800228494,South Western Railway
Liskeard,PL14 4DX,50.44687021,-4.469576129,Great Western Railway
Liss,GU33 7AA,51.04357083,-0.892867192,South Western Railway
Lisvane and Thornhill,CF14 0UE,51.54458239,-3.185602358,TfW Rail
Little Kimble,HP17 0XP,51.75223145,-0.808452429,Chiltern Railways
Little Sutton,CH66 1PA,53.28551797,-2.943292868,Merseyrail
Littleborough,OL15 8AR,53.64299699,-2.094651617,Northern Trains
Littlehampton,BN17 5BS,50.81010807,-0.545994825,Govia Thameslink Railway (Southern)
Littlehaven,RH12 4PB,51.07975002,-0.307980537,Govia Thameslink Railway (Southern)
Littleport,CB6 1JL,52.46237834,0.31655922,Govia Thameslink Railway (Great Northern)
Liverpool Central,L1 1JT,53.40460292,-2.979168601,Merseyrail
Liverpool James Street,L2 7PQ,53.40476702,-2.991958136,Merseyrail
Liverpool Lime Street,L1 1JD,53.40731142,-2.977726519,Network Rail
Liverpool South Parkway,L19 5NE,53.357747,-2.889143252,Merseyrail
Liverpool Street,EC2M 7PY,51.51798946,-0.081426026,Network Rail
Livingston North,EH54 7EE,55.90138767,-3.544351537,ScotRail
Livingston South,EH54 9AP,55.87169698,-3.501569816,ScotRail
Llanaber,LL42 1AZ,52.74150794,-4.07717664,TfW Rail
Llanbedr,LL45 2LR,52.82085593,-4.110198329,TfW Rail
Llanbister Road,LD1 5UW,52.33642863,-3.213421327,TfW Rail
Llanbradach,CF83 3NE,51.6032595,-3.233048153,TfW Rail
Llandaf,CF14 2FG,51.50844205,-3.228612872,TfW Rail
Llandanwg,LL46 2SB,52.83616679,-4.123857621,TfW Rail
Llandecwyn,LL47 6YL,52.92068974,-4.05703557,TfW Rail
Llandeilo,SA19 6ND,51.88534914,-3.986890668,TfW Rail
Llandovery,SA20 0BG,51.99531697,-3.802829643,TfW Rail
Llandrindod,LD1 5BB,52.24236348,-3.379138574,TfW Rail
Llandudno,LL30 2AF,53.32092099,-3.827001967,TfW Rail
Llandudno Junction,LL31 9NB,53.28394834,-3.809102638,TfW Rail
Llandybie,SA18 3UN,51.8210403,-4.003648139,TfW Rail
Llanelli,SA15 2RN,51.67387176,-4.161304429,TfW Rail
Llanfairfechan,LL33 0BP,53.2572921,-3.98320346,TfW Rail
Llanfairpwll,LL61 5UJ,53.22095018,-4.209216301,TfW Rail
Llangadog,SA19 9LU,51.9402177,-3.893147851,TfW Rail
Llangammarch,LD4 4EE,52.11430251,-3.554817264,TfW Rail
Llangennech,SA14 8UY,51.69114111,-4.07893029,TfW Rail
Llangynllo,LD7 1SY,52.3496286,-3.161369748,TfW Rail
Llanharan,CF72 9QA,51.53758966,-3.440778927,TfW Rail
Llanhilleth,NP13 2HT,51.70030435,-3.135188128,TfW Rail
Llanishen,CF14 5UW,51.53274973,-3.181978892,TfW Rail
Llanrwst,LL26 0AD,53.13885474,-3.794401827,TfW Rail
Llansamlet,SA7 9RY,51.66150724,-3.884686051,TfW Rail
Llantwit Major,CF61 1ST,51.40975175,-3.481617841,TfW Rail
Llanwrda,SA19 8EH,51.96259135,-3.871674679,TfW Rail
Llanwrtyd,LD5 4RW,52.10471512,-3.63216407,TfW Rail
Llwyngwril,LL37 2JS,52.66678642,-4.087679865,TfW Rail
Llwynypia,CF40 2JJ,51.63400651,-3.453514098,TfW Rail
Loch Awe,PA33 1AQ,56.40202239,-5.041976744,ScotRail
Loch Eil Outward Bound,PH33 7NN,56.85527425,-5.191577978,ScotRail
Lochailort,PH38 4LZ,56.88097054,-5.663396665,ScotRail
Locheilside,PH33 7PN,56.85541355,-5.290037961,ScotRail
Lochgelly,KY5 9EP,56.13533332,-3.312940336,ScotRail
Lochluichart,IV23 2PZ,57.62176279,-4.809050052,ScotRail
Lochwinnoch,PA12 4JF,55.78716164,-4.616076425,ScotRail
Lockerbie,DG11 2HA,55.12305688,-3.353533431,ScotRail
Lockwood,HD1 3UB,53.63473452,-1.800790949,Northern Trains
London Bridge,SE1 3QX,51.50501748,-0.086092086,Network Rail
London Fields,E8 3PH,51.54115137,-0.057753374,London Overground
London Road (Brighton),BN1 4QS,50.83666142,-0.136502345,Govia Thameslink Railway (Southern)
London Road (Guildford),GU1 4DQ,51.24064892,-0.565068976,South Western Railway
Long Buckby,NN6 7QA,52.2947163,-1.086466876,West Midlands Trains (London Northwestern Railway)
Long Eaton,NG10 3GS,52.88498817,-1.287520634,East Midlands Railway
Long Preston,BD23 4NH,54.0168393,-2.255592269,Northern Trains
Longbeck,TS11 6HD,54.58921815,-1.030472968,Northern Trains
Longbridge,B31 2TW,52.39641975,-1.981291771,West Midlands Trains (West Midlands Railway)
Longcross,GU25 4JR,51.38517211,-0.594570008,South Western Railway
Longfield,DA3 7QA,51.39615304,0.300364141,Southeastern
Longniddry,EH32 0LS,55.97648736,-2.888343513,ScotRail
Longport,ST6 4ND,53.04188367,-2.216448136,East Midlands Railway
Longton,ST3 1EZ,52.98995456,-2.137010832,East Midlands Railway
Looe,PL13 1HN,50.35923095,-4.456164804,Great Western Railway
Lostock,BL6 4JP,53.57292954,-2.494266448,Northern Trains
Lostock Gralam,CW9 7NU,53.26766702,-2.46520333,Northern Trains
Lostock Hall,PR5 5NF,53.72424714,-2.687483746,Northern Trains
Lostwithiel,PL22 0EW,50.40718373,-4.665966954,Great Western Railway
Loughborough,LE11 1EX,52.77895479,-1.195928609,East Midlands Railway
Loughborough Junction,SW9 8SA,51.46629611,-0.102182084,Govia Thameslink Railway (Thameslink)
Low Moor,BD12 7BD,53.74992819,-1.753404049,Northern Trains
Lowdham,NG14 7DU,53.00628483,-0.998419089,East Midlands Railway
Lower Sydenham,SE26 5BN,51.42482911,-0.033345487,Southeastern
Lowestoft,NR32 2EG,52.47443319,1.74970769,Greater Anglia
Ludlow,SY8 2PQ,52.37128105,-2.716217232,TfW Rail
Luton,LU1 2LT,51.88230384,-0.414040221,Govia Thameslink Railway (Thameslink)
Luton Airport Parkway,LU1 3JW,51.87243652,-0.395881015,Govia Thameslink Railway (Thameslink)
Luxulyan,PL31 2NW,50.39004144,-4.747385116,Great Western Railway
Lydney,GL15 5EW,51.71413824,-2.530864034,TfW Rail
Lye (West Midlands),DY9 8ES,52.4599239,-2.115929503,West Midlands Trains (West Midlands Railway)
Lymington Pier,SO41 5ZE,50.75830124,-1.529447055,South Western Railway
Lymington Town,SO41 9AZ,50.76091301,-1.537162133,South Western Railway
Lympstone Commando,EX8 5AA,50.66224136,-3.440840354,Great Western Railway
Lympstone Village,EX8 5JW,50.64829699,-3.43100725,Great Western Railway
Lytham,FY8 5NJ,53.73928434,-2.964040131,Northern Trains
Macclesfield,SK11 6JP,53.25934371,-2.121982036,Avanti West Coast
Machynlleth,SY20 8BL,52.59514123,-3.854528257,TfW Rail
Maesteg,CF34 9BL,51.60994262,-3.654646319,TfW Rail
Maesteg (Ewenny Road),CF34 9TS,51.60534628,-3.648991651,TfW Rail
Maghull,L31 3DE,53.5064731,-2.930853398,Merseyrail
Maghull North,L31 1BB,53.51665941,-2.921303835,Merseyrail
Maiden Newton,DT2 0AE,50.78000872,-2.569429958,Great Western Railway
Maidenhead,SL6 1EW,51.51866845,-0.722660533,Great Western Railway
Maidstone Barracks,ME16 0SQ,51.27716692,0.513960135,Southeastern
Maidstone East,ME14 1QN,51.27782754,0.521295045,Southeastern
Maidstone West,ME16 8RJ,51.27046362,0.515773417,Southeastern
Malden Manor,KT3 5PN,51.38472872,-0.261273984,South Western Railway
Mallaig,PH41 4QA,57.00599621,-5.829598362,ScotRail
Malton,YO17 9RD,54.13207564,-0.797222132,TransPennine Express
Malvern Link,WR14 1SW,52.12547028,-2.319511855,West Midlands Trains (West Midlands Railway)
Manchester Airport,M90 3RR,53.36504357,-2.272979823,TransPennine Express
Manchester Oxford Road,M1 6FU,53.47403367,-2.241995704,Northern Trains
Manchester Piccadilly,M60 7RA,53.47736336,-2.230910192,Network Rail
Manchester United Football Ground,M16 0QG,53.46219523,-2.290653141,Northern Trains
Manchester Victoria,M3 1WY,53.48747019,-2.242599733,Northern Trains
Manea,PE15 0HG,52.49783686,0.177693658,Greater Anglia
Manningtree,CO11 2LH,51.94904809,1.045239821,Greater Anglia
Manor Park,E12 5EP,51.55247488,0.046341535,TfL Rail
Manor Road,CH47 3DF,53.39478114,-3.171438177,Merseyrail
Manorbier,SA70 7SN,51.66016428,-4.791831317,TfW Rail
Manors,NE1 6UR,54.97276597,-1.604741112,Northern Trains
Mansfield,NG18 5RN,53.14210117,-1.198434162,East Midlands Railway
Mansfield Woodhouse,NG19 8DA,53.16356328,-1.2018486,East Midlands Railway
March,PE15 8SJ,52.55989202,0.091197744,Greater Anglia
Marden (Kent),TN12 9HS,51.17517329,0.493169233,Southeastern
Margate,CT9 5AD,51.38542488,1.372003176,Southeastern
Market Harborough,LE16 7DT,52.47972161,-0.909332272,East Midlands Railway
Market Rasen,LN8 3AQ,53.3839116,-0.336898819,East Midlands Railway
Markinch,KY7 6DH,56.20101882,-3.130787406,ScotRail
Marks Tey,CO6 1EE,51.88093596,0.783327356,Greater Anglia
Marlow,SL7 1NT,51.57099297,-0.76643079,Great Western Railway
Marple,SK6 7DA,53.40069419,-2.057263561,Northern Trains
Marsden (Yorks),HD7 6AX,53.60318767,-1.930750014,Northern Trains
Marske,TS11 6JF,54.58741742,-1.018909783,Northern Trains
Marston Green,B37 7AB,52.46719017,-1.755607079,West Midlands Trains (West Midlands Railway)
Martin Mill,CT15 5JZ,51.170674,1.348216941,Southeastern
Martins Heron,RG12 9TZ,51.40741114,-0.724396686,South Western Railway
Marton,TS7 9AP,54.54434344,-1.198484999,Northern Trains
Maryhill,G20 8HL,55.89763594,-4.30074608,ScotRail
Maryland,E15 1SA,51.54607965,0.005815127,TfL Rail
Marylebone,NW1 6JJ,51.52252245,-0.162910907,Chiltern Railways
Maryport,CA15 6DA,54.71132338,-3.494075052,Northern Trains
Matlock,DE4 3NA,53.13840849,-1.558910903,East Midlands Railway
Matlock Bath,DE4 5JA,53.12235506,-1.556759029,East Midlands Railway
Mauldeth Road,M14 6SQ,53.43306304,-2.209251512,Northern Trains
Maxwell Park,G41 4DT,55.83773412,-4.288692859,ScotRail
Maybole,KA19 8DS,55.35474215,-4.685289926,ScotRail
Maze Hill,SE10 9XG,51.48262294,0.002914124,Southeastern
Meadowhall,S9 1JQ,53.41746688,-1.412851617,Northern Trains
Meldreth,SG8 6JP,52.09071504,0.00894121,Govia Thameslink Railway (Great Northern)
Melksham,SN12 8BN,51.37982473,-2.144497251,Great Western Railway
Melton (Suffolk),IP12 1LT,52.10443513,1.338236518,Greater Anglia
Melton Mowbray,LE13 1AF,52.76103073,-0.885869328,East Midlands Railway
Menheniot,PL14 3PJ,50.42623419,-4.409224084,Great Western Railway
Menston,LS29 6JH,53.89234006,-1.735510238,Northern Trains
Meols,CH47 9RA,53.39944291,-3.154269728,Merseyrail
Meols Cop,PR8 6AY,53.64627498,-2.975804261,Northern Trains
Meopham,DA13 0LT,51.38642153,0.356951489,Southeastern
Meridian Water,N18 3HF,51.608313,-0.050956,Greater Anglia
Merryton,ML9 2UW,55.74871123,-3.978254369,ScotRail
Merstham,RH1 3ED,51.26415275,-0.150225683,Govia Thameslink Railway (Southern)
Merthyr Tydfil,CF47 0AG,51.74462553,-3.37725102,TfW Rail
Merthyr Vale,CF48 4TE,51.68664917,-3.3365762,TfW Rail
Metheringham,LN4 3HX,53.13887888,-0.391453147,East Midlands Railway
MetroCentre,NE11 9GA,54.95875026,-1.665626069,Northern Trains
Mexborough,S64 9AQ,53.49099277,-1.288561441,Northern Trains
Micheldever,SO21 3AP,51.18239352,-1.260677804,South Western Railway
Micklefield,LS25 4AQ,53.78883733,-1.326793209,Northern Trains
Middlesbrough,TS1 1EG,54.57910637,-1.234717332,TransPennine Express
Middlewood,SK6 8AU,53.3599605,-2.083353331,Northern Trains
Midgham,RG7 5SE,51.39597513,-1.177711268,Great Western Railway
Milford (Surrey),GU8 5AD,51.1633186,-0.636948382,South Western Railway
Milford Haven,SA73 3AB,51.71497955,-5.040969869,TfW Rail
Mill Hill (Lancs),BB2 2QY,53.73546037,-2.501735681,Northern Trains
Mill Hill Broadway,NW7 2JU,51.6130915,-0.249239722,Govia Thameslink Railway (Thameslink)
Millbrook (Bedfordshire),MK45 2JH,52.05383585,-0.532703119,West Midlands Trains (London Northwestern Railway)
Millbrook (Hants),SO15 0AB,50.91149666,-1.433842653,South Western Railway
Milliken Park,PA5 8PQ,55.82511729,-4.533359068,ScotRail
Millom,LA18 4AY,54.21082698,-3.271084607,Northern Trains
Mills Hill (Manchester),M24 2HJ,53.55131205,-2.171513048,Northern Trains
Milngavie,G62 8PG,55.94137046,-4.314581393,ScotRail
Milton Keynes Central,MK9 1LA,52.03428785,-0.774146107,West Midlands Trains (London Northwestern Railway)
Minffordd,LL48 6HG,52.9261367,-4.084966349,TfW Rail
Minster,CT12 4HX,51.32917037,1.317216495,Southeastern
Mirfield,WF14 8NL,53.67140214,-1.692545216,Northern Trains
Mistley,CO11 1HH,51.9436275,1.081399998,Greater Anglia
Mitcham Eastfields,CR4 2LS,51.4077376,-0.154646036,Govia Thameslink Railway (Southern)
Mitcham Junction,CR4 4HN,51.39294868,-0.157756647,Govia Thameslink Railway (Southern)
Mobberley,WA16 7QL,53.32914134,-2.333665748,Northern Trains
Monifieth,DD5 4NN,56.48011532,-2.818247915,ScotRail
Monks Risborough,HP27 9JQ,51.735762,-0.829333738,Chiltern Railways
Montpelier,BS6 5EE,51.46835174,-2.588685958,Great Western Railway
Montrose,DD10 8LW,56.71280069,-2.472074517,ScotRail
Moorfields,L2 2BS,53.40856535,-2.989188277,Merseyrail
Moorgate,EC2Y 9AE,51.51848988,-0.088943411,London Underground
Moorside,M27 9PU,53.51627624,-2.351799735,Northern Trains
Moorthorpe,WF9 3AT,53.59499662,-1.30494713,Northern Trains
Morar,PH40 4PB,56.96972623,-5.821919509,ScotRail
Morchard Road,EX17 5LR,50.83190289,-3.776366587,Great Western Railway
Morden South,SM4 4QL,51.39611493,-0.199460998,Govia Thameslink Railway (Thameslink)
Morecambe,LA4 4DW,54.07032197,-2.869308496,Northern Trains
Moreton (Dorset),DT2 8BB,50.70103281,-2.313449976,South Western Railway
Moreton (Merseyside),CH46 8SD,53.40721009,-3.113502506,Merseyrail
Moreton-In-Marsh,GL56 0AA,51.9922817,-1.700380549,Great Western Railway
Morfa Mawddach,LL39 1BQ,52.70713276,-4.032170391,TfW Rail
Morley,LS27 8JR,53.74992451,-1.590976885,Northern Trains
Morpeth,NE61 2SL,55.16237732,-1.683074675,Northern Trains
Mortimer,RG7 3NY,51.37207866,-1.035510077,Great Western Railway
Mortlake,SW14 8LN,51.46808556,-0.267105652,South Western Railway
Moses Gate,BL4 7LT,53.55598431,-2.401188383,Northern Trains
Moss Side,FY8 4NB,53.76497929,-2.942934997,Northern Trains
Mossley (Manchester),OL5 0AB,53.51498019,-2.041282162,Northern Trains
Mossley Hill,L18 8AG,53.3790407,-2.915443494,Northern Trains
Mosspark,G52 3ET,55.84083469,-4.348293571,ScotRail
Moston,M40 0JT,53.52342187,-2.171023112,Northern Trains
Motherwell,ML1 1BL,55.79167888,-3.994326183,ScotRail
Motspur Park,KT3 6JJ,51.3951951,-0.239530775,South Western Railway
Mottingham,SE9 4EW,51.4402164,0.050053945,Southeastern
Mottisfont and Dunbridge,SO51 0LH,51.03392685,-1.547084938,Great Western Railway
Mouldsworth,WA6 9EG,53.23180842,-2.732224853,Northern Trains
Moulsecoomb,BN2 4GP,50.84672046,-0.118841815,Govia Thameslink Railway (Southern)
Mount Florida,G41 1RR,55.82656018,-4.261132518,ScotRail
Mount Vernon,G69 7DB,55.84020673,-4.133670106,ScotRail
Mountain Ash,CF45 3HD,51.68133436,-3.376341849,TfW Rail
Muir Of Ord,IV6 7ST,57.51785296,-4.460234046,ScotRail
Muirend,G44 4QR,55.80946396,-4.27439272,ScotRail
Musselburgh,EH21 6TT,55.93359418,-3.073201319,ScotRail
Mytholmroyd,HX7 5DZ,53.72900444,-1.981425995,Northern Trains
Nafferton,YO25 0LS,54.01122165,-0.386076077,Northern Trains
Nailsea and Backwell,BS48 3LH,51.419411,-2.750634264,Great Western Railway
Nairn,IV12 4QS,57.58025008,-3.872000862,ScotRail
Nantwich,CW5 5SS,53.06357427,-2.518959554,TfW Rail
Narberth,SA67 8TY,51.7993746,-4.727176313,TfW Rail
Narborough,LE19 2HR,52.57129345,-1.203346175,East Midlands Railway
Navigation Road,WA14 1SR,53.39537807,-2.343417452,Northern Trains
Neath,SA11 1BY,51.66236547,-3.807219756,TfW Rail
Needham Market,IP6 8AS,52.15258614,1.05525971,Greater Anglia
Neilston,G78 3EE,55.78304311,-4.426953315,ScotRail
Nelson,BB9 9SF,53.83500829,-2.213759586,Northern Trains
Neston,CH64 9SR,53.29185444,-3.063076643,TfW Rail
Netherfield,NG4 2JB,52.96141091,-1.07984974,East Midlands Railway
Nethertown,CA22 2UG,54.45642012,-3.565838358,Northern Trains
Netley,SO31 5AN,50.87490973,-1.341902945,South Western Railway
New Barnet,EN5 1QT,51.64857317,-0.17299716,Govia Thameslink Railway (Great Northern)
New Beckenham,BR3 1QN,51.41676797,-0.035273509,Southeastern
New Brighton,CH45 2NY,53.43740391,-3.04796519,Merseyrail
New Clee,DN32 5GR,53.5743775,-0.06081267,Northern Trains
New Cross,SE14 6LD,51.49798847,-0.049719837,Southeastern
New Cross Gate,SE14 6AR,51.47512684,-0.040413385,London Overground
New Cumnock,KA18 4DG,55.40274462,-4.184341751,ScotRail
New Eltham,SE9 2AB,51.4380578,0.070533166,Southeastern
New Holland,DN19 7BE,53.70192022,-0.360213443,Northern Trains
New Hythe,ME20 6XJ,51.31300047,0.45492949,Southeastern
New Lane,L40 0RY,53.6116655,-2.867716443,Northern Trains
New Malden,KT3 4PX,51.40407333,-0.255939631,South Western Railway
New Mills Central,SK22 3JB,53.36484337,-2.005671376,Northern Trains
New Mills Newtown,SK22 3JP,53.3596298,-2.008525504,Northern Trains
New Milton,BH25 6JS,50.75575387,-1.657812831,South Western Railway
New Pudsey,LS28 6QG,53.80448497,-1.680792488,Northern Trains
New Southgate,N11 1QH,51.6141121,-0.143037912,Govia Thameslink Railway (Great Northern)
Newark Castle,NG24 1FW,53.08000323,-0.81316025,East Midlands Railway
Newark North Gate,NG24 1LS,53.08175761,-0.799854606,London North Eastern Railway
Newbridge,NP11 5FH,51.66581888,-3.142885691,TfW Rail
Newbury,RG14 5DG,51.3976499,-1.322861226,Great Western Railway
Newbury Racecourse,RG14 5ST,51.39846109,-1.30779919,Great Western Railway
Newcastle,NE1 5DL,54.96840279,-1.617279986,London North Eastern Railway
Newcourt,EX2 7AS,50.70504584,-3.472784856,Great Western Railway
Newcraighall,EH21 8QT,55.93312473,-3.090843918,ScotRail
Newhaven Harbour,BN9 0BH,50.78978988,0.054992968,Govia Thameslink Railway (Southern)
Newhaven Town,BN9 0DF,50.79485418,0.054945484,Govia Thameslink Railway (Southern)
Newington,ME9 7LQ,51.35333886,0.668570478,Southeastern
Newmarket,CB8 9BB,52.23794183,0.406208241,Greater Anglia
Newport (Essex),CB11 3PL,51.97986753,0.215140473,Greater Anglia
Newport (South Wales),NP20 4AX,51.58879219,-3.00054397,TfW Rail
Newquay,TR7 2NF,50.41510176,-5.075655658,Great Western Railway
Newstead,NG15 0BF,53.06998262,-1.221787759,East Midlands Railway
Newton (Lanark),G72 7TD,55.81878286,-4.133055687,ScotRail
Newton Abbot,TQ12 2JE,50.52958972,-3.599167512,Great Western Railway
Newton Aycliffe,DL5 7BG,54.61370375,-1.589645346,Northern Trains
Newton For Hyde,SK14 2PJ,53.45638188,-2.067142639,Northern Trains
Newton St Cyres,EX5 5AP,50.77893209,-3.589389685,Great Western Railway
Newton-Le-Willows,WA12 9SF,53.4530631,-2.61359847,Northern Trains
Newton-On-Ayr,KA8 9BP,55.47405903,-4.625827451,ScotRail
Newtongrange,EH22 4PE,55.86700076,-3.069366317,ScotRail
Newtonmore,PH20 1AL,57.05915048,-4.11910976,ScotRail
Newtown (Powys),SY16 1BP,52.51231756,-3.311392335,TfW Rail
Ninian Park,CF11 8AH,51.4766198,-3.201694341,TfW Rail
Nitshill,G53 7NX,55.81194047,-4.359959704,ScotRail
Norbiton,KT2 7AZ,51.41235641,-0.284025031,South Western Railway
Norbury,SW16 3RW,51.41144429,-0.121926124,Govia Thameslink Railway (Southern)
Normans Bay,BN24 6PR,50.8261015,0.389461561,Govia Thameslink Railway (Southern)
Normanton,WF6 2BG,53.7005196,-1.42340146,Northern Trains
North Berwick,EH39 4BY,56.05703894,-2.730742029,ScotRail
North Camp,GU12 5QA,51.27579435,-0.731198735,Great Western Railway
North Dulwich,SE24 7BX,51.45450877,-0.087917554,Govia Thameslink Railway (Southern)
North Fambridge,CM3 6NP,51.64858091,0.681658772,Greater Anglia
North Llanrwst,LL26 0EG,53.14382639,-3.802728157,TfW Rail
North Queensferry,KY11 1JE,56.01250445,-3.394585215,ScotRail
North Road (Darlington),DL3 6ST,54.53620053,-1.553949831,Northern Trains
North Sheen,TW9 4QA,51.46515345,-0.287875892,South Western Railway
North Walsham,NR28 0DZ,52.81688202,1.384454212,Greater Anglia
North Wembley,HA9 7NT,51.56259464,-0.303984122,London Underground
Northallerton,DL7 8AN,54.33307274,-1.44127314,TransPennine Express
Northampton,NN1 1SP,52.23750025,-0.906653121,West Midlands Trains (London Northwestern Railway)
Northfield,B31 2PY,52.40819331,-1.965851671,West Midlands Trains (West Midlands Railway)
Northfleet,DA11 9DY,51.4458441,0.324333466,Southeastern
Northolt Park,UB5 4NP,51.55753857,-0.359465944,Chiltern Railways
Northumberland Park,N17 0HY,51.60196745,-0.053931926,Greater Anglia
Northwich,CW9 5LY,53.2614536,-2.496917323,Northern Trains
Norwich,NR1 1EF,52.62714972,1.30681996,Greater Anglia
Norwood Junction,SE25 5AG,51.39701746,-0.075221582,London Overground
Nottingham,NG2 3AQ,52.9470746,-1.146381845,East Midlands Railway
Nuneaton,CV11 4BU,52.52637128,-1.463875332,West Midlands Trains (London Northwestern Railway)
Nunhead,SE15 3XE,51.46682639,-0.052272694,Govia Thameslink Railway (Thameslink)
Nunthorpe,TS7 0BL,54.52788085,-1.16944892,Northern Trains
Nutbourne,PO18 8SH,50.84606927,-0.882945587,Govia Thameslink Railway (Southern)
Nutfield,RH1 5RR,51.22681208,-0.132531324,Govia Thameslink Railway (Southern)
Oakengates,TF2 6DH,52.69340018,-2.450194662,West Midlands Trains (West Midlands Railway)
Oakham,LE15 6QT,52.67221435,-0.734171215,East Midlands Railway
Oakleigh Park,EN5 1BU,51.63767659,-0.166209409,Govia Thameslink Railway (Great Northern)
Oban,PA34 4LW,56.41249341,-5.473933162,ScotRail
Ockendon,RM15 6PD,51.52198993,0.290469073,c2c
Ockley,RH5 5HT,51.15151079,-0.33601371,Govia Thameslink Railway (Southern)
Okehampton,EX20 1EJ,50.73238528,-3.996215763,Dartmoor Railway
Old Hill,B64 6PL,52.47093517,-2.056190914,West Midlands Trains (West Midlands Railway)
Old Roan,L30 8RD,53.48689819,-2.951071992,Merseyrail
Old Street,EC1Y 1BE,51.52583015,-0.088535169,London Underground
Oldfield Park,BA2 3RS,51.37923296,-2.380508267,Great Western Railway
Olton,B92 7AR,52.43851269,-1.804309578,West Midlands Trains (West Midlands Railway)
Ore,TN34 3ND,50.86694584,0.591567859,Govia Thameslink Railway (Southern)
Ormskirk,L39 2YN,53.56927575,-2.881193416,Merseyrail
Orpington,BR6 0SX,51.37329413,0.089090459,Southeastern
Orrell,WN5 8TH,53.53031448,-2.708837715,Northern Trains
Orrell Park,L9 8BU,53.46190111,-2.963315955,Merseyrail
Otford,TN14 5QY,51.31315619,0.196778714,Southeastern
Oulton Broad North,NR32 3LJ,52.47775602,1.715710519,Greater Anglia
Oulton Broad South,NR33 8QX,52.46959881,1.707658331,Greater Anglia
Outwood,WF1 2NX,53.71528779,-1.51040041,Northern Trains
Overpool,CH66 3LW,53.28405052,-2.924061079,Merseyrail
Overton,RG25 3JG,51.2542941,-1.2592677,South Western Railway
Oxenholme Lake District,LA9 7HF,54.30492958,-2.721870528,Avanti West Coast
Oxford,OX1 1HS,51.75349634,-1.27015353,Great Western Railway
Oxford Parkway,OX2 8HA,51.8040717,-1.274485992,Chiltern Railways
Oxshott,KT22 0TA,51.3363947,-0.362419322,South Western Railway
Oxted,RH8 9EU,51.25790653,-0.004833581,Govia Thameslink Railway (Southern)
Paddington,W2 1HQ,51.51599409,-0.176173979,Network Rail
Paddock Wood,TN12 6ER,51.18226444,0.389148594,Southeastern
Padgate,WA2 0QS,53.4057914,-2.556811022,Northern Trains
Paignton,TQ4 5EF,50.43472279,-3.564876412,Great Western Railway
Paisley Canal,PA2 6SZ,55.84008245,-4.424118444,ScotRail
Paisley Gilmour Street,PA1 1BS,55.84735497,-4.424507439,ScotRail
Paisley St James,PA3 1RB,55.85212318,-4.442444013,ScotRail
Palmers Green,N13 4PN,51.61831279,-0.110436643,Govia Thameslink Railway (Great Northern)
Pangbourne,RG8 7DY,51.48540151,-1.090470434,Great Western Railway
Pannal,HG3 1JN,53.95832507,-1.533467123,Northern Trains
Pantyffynnon,SA18 3HW,51.77888238,-3.997430307,TfW Rail
Par,PL24 2LT,50.35533257,-4.704676549,Great Western Railway
Parbold,WN8 7NU,53.59075695,-2.77074868,Northern Trains
Park Street,AL2 2NG,51.72545709,-0.34027657,West Midlands Trains (London Northwestern Railway)
Parkstone (Dorset),BH14 8UD,50.72298027,-1.947956713,South Western Railway
Parson Street,BS3 5PU,51.43332195,-2.607741951,Great Western Railway
Partick,G11 6BU,55.86989321,-4.30880731,ScotRail
Parton,CA28 6PA,54.57037279,-3.580800955,Northern Trains
Patchway,BS34 6LP,51.52593547,-2.562689661,Great Western Railway
Patricroft,M30 0GX,53.48477953,-2.358244962,Northern Trains
Patterton,G77 6NR,55.7906162,-4.335299408,ScotRail
Peartree,DE24 8DT,52.89699579,-1.473214019,East Midlands Railway
Peckham Rye,SE15 4RX,51.47003256,-0.069414413,Govia Thameslink Railway (Southern)
Pegswood,NE61 6SJ,55.17813022,-1.64416596,Northern Trains
Pemberton,WN5 9HX,53.5304106,-2.670354328,Northern Trains
Pembrey and Burry Port,SA16 0LW,51.68353276,-4.247842113,TfW Rail
Pembroke,SA71 4AH,51.67295149,-4.906024337,TfW Rail
Pembroke Dock,SA72 6HN,51.69391943,-4.938048875,TfW Rail
Pen-Y-Bont (Mid Wales),LD1 6RE,52.27394675,-3.32193165,TfW Rail
Penally,SA70 7PS,51.65892541,-4.722056265,TfW Rail
Penarth,CF64 3DQ,51.43589264,-3.174441306,TfW Rail
Pencoed,CF35 5NP,51.52461193,-3.500479681,TfW Rail
Pengam,NP12 3XL,51.67045863,-3.230100356,TfW Rail
Penge East,SE20 7BQ,51.4193323,-0.054220536,Southeastern
Penge West,SE20 8NU,51.41755356,-0.060839909,London Overground
Penhelig,LL35 0LU,52.54569132,-4.035026097,TfW Rail
Penistone,S36 6HL,53.52554714,-1.622780881,Northern Trains
Penkridge,ST19 5AN,52.72350125,-2.11929386,West Midlands Trains (West Midlands Railway)
Penmaenmawr,LL34 6AT,53.27047011,-3.923511674,TfW Rail
Penmere,TR11 2QZ,50.1503375,-5.083194003,Great Western Railway
Penrhiwceiber,CF45 3ST,51.66992598,-3.359944309,TfW Rail
Penrhyndeudraeth,LL48 6LN,52.92883072,-4.064563394,TfW Rail
Penrith (North Lakes),CA11 7JQ,54.66180803,-2.758881115,Avanti West Coast
Penryn (Cornwall),TR10 8HF,50.17071938,-5.111608825,Great Western Railway
Pensarn (Gwynedd),LL45 2HP,52.8307112,-4.112160634,TfW Rail
Penshurst,TN11 8JE,51.19733561,0.173472176,Govia Thameslink Railway (Southern)
Pentre-Bach,CF48 4BD,51.72501784,-3.362321185,TfW Rail
Penychain,LL53 6HJ,52.90288868,-4.338722544,TfW Rail
Penyffordd,CH4 0JT,53.14309235,-3.054838742,TfW Rail
Penzance,TR18 2LT,50.12168123,-5.532566927,Great Western Railway
Perranwell,TR3 7JY,50.21658597,-5.112070643,Great Western Railway
Perry Barr,B20 3JE,52.51648698,-1.90196026,West Midlands Trains (West Midlands Railway)
Pershore,WR10 6FG,52.13055663,-2.071537042,Great Western Railway
Perth,PH2 8RT,56.39209798,-3.43969855,ScotRail
Peterborough,PE1 1QL,52.57497406,-0.249836977,London North Eastern Railway
Petersfield,GU32 3EE,51.00672615,-0.941136791,South Western Railway
Petts Wood,BR5 1NA,51.38861696,0.074480843,Southeastern
Pevensey and Westham,BN24 5ND,50.81579695,0.324807397,Govia Thameslink Railway (Southern)
Pevensey Bay,BN24 6AA,50.8174584,0.342906559,Govia Thameslink Railway (Southern)
Pewsey,SN9 5ER,51.3421943,-1.770675402,Great Western Railway
Pilning,BS35 4JT,51.55662952,-2.627112032,Great Western Railway
Pinhoe,EX1 3SE,50.73778887,-3.46933359,South Western Railway
Pitlochry,PH16 5AN,56.70250537,-3.735571019,ScotRail
Pitsea,SS16 4UD,51.56035668,0.506293019,c2c
Pleasington,BB2 5JQ,53.73096107,-2.544123947,Northern Trains
Plockton,IV52 8TX,57.33357184,-5.666000582,ScotRail
Pluckley,TN27 0RT,51.15647006,0.74739583,Southeastern
Plumley,WA16 9RU,53.27467651,-2.419662072,Northern Trains
Plumpton,BN7 3DB,50.92866157,-0.060181112,Govia Thameslink Railway (Southern)
Plumstead,SE18 7EA,51.48979319,0.084256436,Southeastern
Plymouth,PL4 6AB,50.37783241,-4.143321396,Great Western Railway
Pokesdown,BH7 6DL,50.73108909,-1.82510226,South Western Railway
Polegate,BN26 6EH,50.82124322,0.245140036,Govia Thameslink Railway (Southern)
Polesworth,B78 1BX,52.62583314,-1.610540267,West Midlands Trains (London Northwestern Railway)
Pollokshaws East,G43 1NE,55.82464588,-4.286886142,ScotRail
Pollokshaws West,G43 1NE,55.82383196,-4.301606575,ScotRail
Pollokshields East,G41 2NE,55.84107222,-4.268603824,ScotRail
Pollokshields West,G41 5HT,55.8377046,-4.275754395,ScotRail
Polmont,FK2 0UP,55.98474134,-3.714973683,ScotRail
Polsloe Bridge,EX4 8AB,50.73128482,-3.501947828,Great Western Railway
Ponders End,EN3 4QB,51.6422544,-0.035080468,Greater Anglia
Pont-y-Pant,LL25 0DQ,53.06513646,-3.862721398,TfW Rail
Pontarddulais,SA4 8TH,51.71762573,-4.045544245,TfW Rail
Pontefract Baghill,WF8 1RB,53.69188213,-1.303352914,Northern Trains
Pontefract Monkhill,WF8 2NX,53.69898486,-1.303690068,Northern Trains
Pontefract Tanshelf,WF8 4QA,53.69412881,-1.318914888,Northern Trains
Pontlottyn,CF81 9QX,51.74663559,-3.278956449,TfW Rail
Pontyclun,CF72 9DS,51.52377151,-3.39291845,TfW Rail
Pontypool and New Inn,NP4 0QX,51.69796713,-3.014236804,TfW Rail
Pontypridd,CF37 1DT,51.59937393,-3.341375322,TfW Rail
Poole,BH15 2BQ,50.71942958,-1.983317743,South Western Railway
Poppleton,YO26 6PZ,53.9758981,-1.148596723,Northern Trains
Port Glasgow,PA14 5JH,55.93352075,-4.689826898,ScotRail
Port Sunlight,CH62 4XB,53.3492544,-2.998029626,Merseyrail
Port Talbot Parkway,SA13 1UR,51.59172247,-3.781315049,TfW Rail
Portchester,PO16 8BJ,50.8487499,-1.124239984,South Western Railway
Porth,CF39 0ES,51.61254078,-3.407188958,TfW Rail
Porthmadog,LL49 9HT,52.9309221,-4.134447265,TfW Rail
Portlethen,AB12 4JS,57.06137775,-2.126611568,ScotRail
Portslade,BN3 5SG,50.83568112,-0.205336498,Govia Thameslink Railway (Southern)
Portsmouth and Southsea,PO1 1EQ,50.79849543,-1.090911122,South Western Railway
Portsmouth Arms,EX37 9NB,50.95700683,-3.950580317,Great Western Railway
Portsmouth Harbour,PO1 3PA,50.79696245,-1.107840293,South Western Railway
Possilpark and Parkhouse,G22 6LN,55.89014969,-4.258513651,ScotRail
Potters Bar,EN6 1AJ,51.69706599,-0.192605539,Govia Thameslink Railway (Great Northern)
Poulton-Le-Fylde,FY6 7AA,53.84842898,-2.990624918,Northern Trains
Poynton,SK12 1HB,53.35038595,-2.134410393,Northern Trains
Prees,SY13 2DW,52.89930743,-2.689663123,TfW Rail
Prescot,L34 5SN,53.42356135,-2.799171652,Northern Trains
Prestatyn,LL19 7ER,53.33650146,-3.407132373,TfW Rail
Prestbury,SK10 4HT,53.29338471,-2.145482772,Northern Trains
Preston (Lancs),PR1 8AP,53.7568621,-2.708128281,Avanti West Coast
Preston Park,BN1 6SG,50.8459425,-0.155167649,Govia Thameslink Railway (Southern)
Prestonpans,EH33 1NG,55.95310165,-2.974768342,ScotRail
Prestwick International Airport,KA9 2PL,55.50904127,-4.614171209,Glasgow Prestwick Airport Ltd
Prestwick Town,KA9 1AQ,55.50170335,-4.615157458,ScotRail
Priesthill and Darnley,G53 7US,55.81217699,-4.342895657,ScotRail
Princes Risborough,HP27 9DN,51.71786,-0.843881117,Chiltern Railways
Prittlewell,SS2 5BT,51.55068444,0.710675998,Greater Anglia
Prudhoe,NE42 6NR,54.96582949,-1.864865766,Northern Trains
Pulborough,RH20 1AH,50.95735802,-0.516557808,Govia Thameslink Railway (Southern)
Purfleet,RM19 1PP,51.48101128,0.236766922,c2c
Purley,CR2 2AP,51.33757718,-0.114035455,Govia Thameslink Railway (Southern)
Purley Oaks,CR2 0ND,51.34704396,-0.098856152,Govia Thameslink Railway (Southern)
Putney,SW15 1RT,51.46130128,-0.216474615,South Western Railway
Pwllheli,LL53 5HG,52.88783988,-4.41669857,TfW Rail
Pye Corner,NP10 9DS,51.57954219,-3.037545967,TfW Rail
Pyle,CF33 6AR,51.52573965,-3.698052965,TfW Rail
Quakers Yard,CF46 5NJ,51.66072905,-3.322801042,TfW Rail
Queenborough,ME11 5DB,51.41563399,0.749666053,Southeastern
Queens Park (Glasgow),G42 8PQ,55.83530944,-4.266750945,ScotRail
Queens Park (London),NW6 6NL,51.5339648,-0.204984856,London Underground
Queens Road Peckham,SE15 2JR,51.47356461,-0.057313573,Govia Thameslink Railway (Southern)
Queenstown Road (Battersea),SW8 4LP,51.47496641,-0.146678219,South Western Railway
Quintrell Downs,TR8 4LJ,50.40406124,-5.028492713,Great Western Railway
Radcliffe (Nottinghamshire),NG12 2GS,52.9487854,-1.037328049,East Midlands Railway
Radlett,WD7 7AP,51.68518681,-0.31724378,Govia Thameslink Railway (Thameslink)
Radley,OX14 3AB,51.68620625,-1.240482136,Great Western Railway
Radyr,CF4 8AA,51.51632632,-3.248353398,TfW Rail
Rainford,WA11 8SJ,53.51710834,-2.789469489,Northern Trains
Rainham (Essex),RM13 9JA,51.5167211,0.190633423,c2c
Rainham (Kent),ME8 7SF,51.36630321,0.611337064,Southeastern
Rainhill,L35 0LL,53.41712447,-2.766400664,Northern Trains
Ramsgate,CT11 7RE,51.34080042,1.406466891,Southeastern
Ramsgreave and Wilpshire,BB1 9BP,53.77977836,-2.478135594,Northern Trains
Rannoch,PH17 2QA,56.68605145,-4.576870745,ScotRail
Rauceby,NG34 8PP,52.98520364,-0.456606208,East Midlands Railway
Ravenglass for Eskdale,CA18 1SW,54.35571108,-3.408814318,Northern Trains
Ravensbourne,BR3 5HE,51.41418666,-0.007556827,Govia Thameslink Railway (Thameslink)
Ravensthorpe,WF12 9ED,53.67552601,-1.655579017,Northern Trains
Rawcliffe,DN14 8NQ,53.68904126,-0.960863229,Northern Trains
Rayleigh,SS6 7HJ,51.58929058,0.59998335,Greater Anglia
Raynes Park,SW20 0JY,51.40917211,-0.230150854,South Western Railway
Reading,RG1 1LZ,51.45878603,-0.971863285,Network Rail
Reading West,RG1 7PY,51.45550089,-0.990129385,Great Western Railway
Rectory Road,N16 7SJ,51.55850074,-0.068266959,London Overground
Redbridge,SO15 0NB,50.91994014,-1.470159917,South Western Railway
Redcar British Steel,TS10 5QW,54.60988976,-1.112661281,Northern Trains
Redcar Central,TS10 1RD,54.61622674,-1.070867674,Northern Trains
Redcar East,TS10 3LT,54.60925256,-1.052292284,Northern Trains
Reddish North,SK5 6RS,53.44941334,-2.156255242,Northern Trains
Reddish South,SK5 6TU,53.43592728,-2.158764602,Northern Trains
Redditch,B97 4RB,52.30632721,-1.945249839,West Midlands Trains (West Midlands Railway)
Redhill,RH1 1RB,51.24019968,-0.165899958,Govia Thameslink Railway (Southern)
Redland,BS6 6QP,51.46838878,-2.599123805,Great Western Railway
Redruth,TR15 2AB,50.2332601,-5.225916801,Great Western Railway
Reedham (London),CR8 4DJ,51.33111818,-0.123415834,Govia Thameslink Railway (Southern)
Reedham (Norfolk),NR13 3JF,52.56449945,1.559651097,Greater Anglia
Reigate,RH2 0BD,51.24195701,-0.203825137,Govia Thameslink Railway (Southern)
Renton,G82 4ND,55.97043681,-4.586126847,ScotRail
Retford,DN22 7DE,53.31515385,-0.947884081,London North Eastern Railway
Rhiwbina,CF14 6EP,51.52118322,-3.213965688,TfW Rail
Rhoose Cardiff International Airport,CF62 3HB,51.38707016,-3.349384495,TfW Rail
Rhosneigr,LL64 5QZ,53.23484326,-4.50664298,TfW Rail
Rhyl,LL18 1AT,53.31842633,-3.489105928,TfW Rail
Rhymney,NP2 5LW,51.75884107,-3.289298933,TfW Rail
Ribblehead,LA6 3AS,54.20584695,-2.360856109,Northern Trains
Rice Lane,L9 3BY,53.45777428,-2.962318872,Merseyrail
Richmond,TW9 2NA,51.46305941,-0.301558426,South Western Railway
Rickmansworth,WD3 1QY,51.64024585,-0.473282526,London Underground
Riddlesdown,CR8 1HN,51.33248425,-0.099386706,Govia Thameslink Railway (Southern)
Ridgmont,MK43 0XP,52.02640213,-0.594557033,West Midlands Trains (London Northwestern Railway)
Riding Mill,NE44 6EP,54.9487375,-1.971555224,Northern Trains
Risca and Pontymister,NP11 6BB,51.6058504,-3.09220982,TfW Rail
Rishton,BB1 4EY,53.76381705,-2.420158007,Northern Trains
Robertsbridge,TN32 5DJ,50.98493084,0.468782437,Southeastern
Robroyston,G33 1AF,55.8877996,-4.17136689,ScotRail
Roby,L36 4HU,53.41004435,-2.855933992,Northern Trains
Rochdale,OL11 1DR,53.61030869,-2.153524422,Northern Trains
Roche,PL26 8LG,50.41854832,-4.830198879,Great Western Railway
Rochester,ME1 1NH,51.38554695,0.510281344,Southeastern
Rochford,SS4 1AU,51.58172583,0.702303211,Greater Anglia
Rock Ferry,CH42 2AT,53.37265296,-3.010826773,Merseyrail
Rogart,IV28 3XL,57.98871738,-4.158185886,ScotRail
Rogerstone,NP10 9LG,51.59561949,-3.066613009,TfW Rail
Rolleston,NG25 0SG,53.06528272,-0.899674799,East Midlands Railway
Roman Bridge,LL25 0JE,53.04442002,-3.921648784,TfW Rail
Romford,RM1 1SX,51.57482705,0.183237346,TfL Rail
Romiley,SK6 4BN,53.4140135,-2.089326744,Northern Trains
Romsey,SO51 8DU,50.9925297,-1.493143641,Great Western Railway
Roose,LA13 9SJ,54.11516852,-3.194569249,Northern Trains
Rose Grove,BB12 6EH,53.78619555,-2.282796672,Northern Trains
Rose Hill Marple,SK6 6EE,53.39622506,-2.076521757,Northern Trains
Rosyth,KY11 2JF,56.04552086,-3.427306732,ScotRail
Rotherham Central,S60 1QH,53.43225376,-1.360434673,Northern Trains
Rotherhithe,SE16 4LF,51.50081489,-0.052048579,London Overground
Roughton Road,NR27 9LN,52.91801593,1.299793981,Greater Anglia
Rowlands Castle,PO9 6BP,50.89217216,-0.957470765,South Western Railway
Rowley Regis,B65 0LJ,52.47732738,-2.030875173,West Midlands Trains (West Midlands Railway)
Roy Bridge,PH31 4AH,56.88837003,-4.83724336,ScotRail
Roydon,CM19 5EH,51.77548499,0.036251705,Greater Anglia
Royston,SG8 5AH,52.05307844,-0.02692148,Govia Thameslink Railway (Great Northern)
Ruabon,LL14 6DL,52.98713809,-3.043139088,TfW Rail
Rufford,L40 1TB,53.634466,-2.807841654,Northern Trains
Rugby,CV21 3LA,52.37909483,-1.250484501,Avanti West Coast
Rugeley Town,WS15 1BL,52.75437874,-1.93683978,West Midlands Trains (West Midlands Railway)
Rugeley Trent Valley,WS15 3HA,52.76965702,-1.929851599,West Midlands Trains (West Midlands Railway)
Runcorn,WA7 5UB,53.33869751,-2.739251562,Avanti West Coast
Runcorn East,WA7 6EP,53.32757091,-2.665697832,TfW Rail
Ruskington,NG34 9ED,53.04146189,-0.380762185,East Midlands Railway
Ruswarp,YO21 1NJ,54.47019017,-0.627771736,Northern Trains
Rutherglen,G73 1DB,55.83059753,-4.212105077,ScotRail
Ryde Esplanade,PO33 2HE,50.73286857,-1.159616199,South Western Railway (Island Line)
Ryde Pier Head,PO33 2HF,50.73918522,-1.160126742,South Western Railway (Island Line)
Ryde St Johns Road,PO33 2BA,50.7243663,-1.156566443,South Western Railway (Island Line)
Ryder Brow,M18 7EP,53.45658092,-2.173088285,Northern Trains
Rye (Sussex),TN31 7AB,50.95236722,0.730695051,Govia Thameslink Railway (Southern)
Rye House,EN11 0EG,51.76941121,0.005628168,Greater Anglia
Salford Central,M3 5ET,53.48308531,-2.254840989,Northern Trains
Salford Crescent,M5 4BR,53.48658933,-2.275749603,Northern Trains
Salfords (Surrey),RH1 5DE,51.20174655,-0.162489181,Govia Thameslink Railway (Southern)
Salhouse,NR13 6NZ,52.67557105,1.391415353,Greater Anglia
Salisbury,SP2 7RS,51.07054964,-1.806386944,South Western Railway
Saltaire,BD18 3LQ,53.83849435,-1.790480616,Northern Trains
Saltash,PL12 4EB,50.40736184,-4.209113554,Great Western Railway
Saltburn,TS12 1AQ,54.58345131,-0.974132996,Northern Trains
Saltcoats,KA21 5JT,55.63388818,-4.784291602,ScotRail
Saltmarshe,DN14 7TW,53.72192415,-0.809485712,Northern Trains
Salwick,PR4 0YH,53.78154308,-2.817038912,Northern Trains
Sampford Courtenay,EX20 2SP,50.7701051,-3.948891895,Dartmoor Railway
Sandal and Agbrigg,WF2 6AB,53.66307909,-1.481419535,Northern Trains
Sandbach,CW11 3JG,53.15017054,-2.393505781,Northern Trains
Sanderstead,CR2 0PL,51.34828173,-0.093678307,Govia Thameslink Railway (Southern)
Sandhills,L5 3TX,53.42993988,-2.991490748,Merseyrail
Sandhurst (Berks),GU47 9DX,51.34693052,-0.804590579,Great Western Railway
Sandling,CT21 4HH,51.09036724,1.066042696,Southeastern
Sandown,PO36 9BN,50.65687154,-1.162387413,South Western Railway (Island Line)
Sandplace,PL13 1PJ,50.38675877,-4.464481031,Great Western Railway
Sandwell and Dudley,B70 7JD,52.50866079,-2.011596196,West Midlands Trains (West Midlands Railway)
Sandwich,CT13 9JR,51.26989974,1.342567953,Southeastern
Sandy,SG19 1AW,52.12473253,-0.28119045,Govia Thameslink Railway (Great Northern)
Sankey For Penketh,WA5 1RQ,53.39246404,-2.650469981,Northern Trains
Sanquhar,DG4 6DQ,55.37017228,-3.924520154,ScotRail
Sarn,CF32 9RL,51.53872045,-3.58991245,TfW Rail
Saundersfoot,SA69 9BG,51.72209668,-4.716583709,TfW Rail
Saunderton,HP14 4LJ,51.67590244,-0.825468539,Chiltern Railways
Sawbridgeworth,CM21 9JZ,51.8143459,0.160411012,Greater Anglia
Saxilby,LN1 2NS,53.26720392,-0.664039579,East Midlands Railway
Saxmundham,IP17 1BW,52.21489137,1.490164753,Greater Anglia
Scarborough,YO11 1TN,54.27979093,-0.405703063,TransPennine Express
Scotscalder,KW12 6YH,58.48299499,-3.552050489,ScotRail
Scotstounhill,G13 1QG,55.885146,-4.352888815,ScotRail
Scunthorpe,DN15 6PY,53.58617478,-0.650980448,TransPennine Express
Sea Mills,BS9 1SU,51.47999601,-2.649949705,Great Western Railway
Seaford (Sussex),BN25 2AR,50.77284181,0.100133665,Govia Thameslink Railway (Southern)
Seaforth and Litherland,L21 3TX,53.46627164,-3.005623744,Merseyrail
Seaham,SR7 0XX,54.83905619,-1.346337222,Northern Trains
Seamer,YO12 4LT,54.24075098,-0.417029844,TransPennine Express
Seascale,CA20 1QL,54.39587905,-3.484511471,Northern Trains
Seaton Carew,TS25 1DW,54.65831191,-1.200429338,Northern Trains
Seer Green,HP9 2UT,51.60984406,-0.607818546,Chiltern Railways
Selby,YO8 0NW,53.78278507,-1.063786012,TransPennine Express
Selhurst,SE25 6LH,51.39192588,-0.088299979,Govia Thameslink Railway (Southern)
Sellafield,CA20 1RG,54.41658927,-3.510457152,Northern Trains
Selling,ME13 9PW,51.27735178,0.940870229,Southeastern
Selly Oak,B29 6DW,52.44198339,-1.935814446,West Midlands Trains (West Midlands Railway)
Settle,BD24 9AA,54.06691621,-2.280714319,Northern Trains
Seven Kings,IG3 8RE,51.56402436,0.097100144,TfL Rail
Seven Sisters,N15 5LA,51.58226613,-0.0752701,London Overground
Sevenoaks,TN13 1DP,51.27686341,0.181668923,Southeastern
Severn Beach,BS35 4PQ,51.56002946,-2.664477124,Great Western Railway
Severn Tunnel Junction,NP26 3SP,51.58467955,-2.777891868,TfW Rail
Shadwell,E1 2QF,51.51128242,-0.056934373,London Overground
Shalford (Surrey),GU4 8LE,51.21432219,-0.566803783,Great Western Railway
Shanklin,PO37 7AR,50.63391067,-1.179834208,South Western Railway (Island Line)
Shawfair,EH22 1SB,55.91994218,-3.078712504,ScotRail
Shawford,SO21 2AA,51.02212545,-1.327773909,South Western Railway
Shawlands,G41 3RG,55.82921779,-4.292344088,ScotRail
Sheerness-On-Sea,ME12 1RJ,51.44105809,0.758533032,Southeastern
Sheffield,S1 2BP,53.37822061,-1.462110988,East Midlands Railway
Shelford (Cambs),CB22 5LR,52.1488259,0.139980909,Greater Anglia
Shenfield,CM15 8JD,51.6308751,0.329851215,Greater Anglia
Shenstone,WS14 0NW,52.63936082,-1.844201809,West Midlands Trains (West Midlands Railway)
Shepherd's Bush,W12 8LB,51.50528336,-0.217654117,London Overground
Shepherds Well,CT15 7PE,51.18839557,1.229910068,Southeastern
Shepley,HD8 8DU,53.58874144,-1.704928256,Northern Trains
Shepperton,TW17 8AN,51.3968038,-0.446785908,South Western Railway
Shepreth,SG8 6JP,52.11416003,0.03131918,Govia Thameslink Railway (Great Northern)
Sherborne,DT9 3NB,50.9440241,-2.513073645,South Western Railway
Sherburn-In-Elmet,LS25 6DY,53.79715248,-1.232684518,Northern Trains
Sheringham,NR26 8RA,52.94142356,1.21032009,Greater Anglia
Shettleston,G32 0PF,55.8535418,-4.160044565,ScotRail
Shieldmuir,ML2 7TF,55.77749549,-3.956990704,ScotRail
Shifnal,TF11 9QB,52.66607348,-2.371840058,West Midlands Trains (West Midlands Railway)
Shildon,DL4 1LX,54.62616565,-1.63660556,Northern Trains
Shiplake,RG9 3NY,51.51146201,-0.882602206,Great Western Railway
Shipley (Yorks),BD18 2JL,53.83305276,-1.773489912,Northern Trains
Shippea Hill,CB7 4SR,52.43021108,0.413345158,Greater Anglia
Shipton,OX7 5FJ,51.86565506,-1.592693464,Great Western Railway
Shirebrook,NG20 8SX,53.20424306,-1.202440654,East Midlands Railway
Shirehampton,BS11 9XA,51.48435259,-2.679275395,Great Western Railway
Shireoaks,S81 8LW,53.32477515,-1.167991023,Northern Trains
Shirley,B90 2NE,52.40342211,-1.845179818,West Midlands Trains (West Midlands Railway)
Shoeburyness,SS3 9AW,51.5309698,0.795344616,c2c
Sholing,SO19 8HH,50.89675414,-1.364915082,South Western Railway
Shoreditch High Street,E1 6GJ,51.52337367,-0.075246183,London Overground
Shoreham (Kent),TN14 7RT,51.33221659,0.188889647,Southeastern
Shoreham-By-Sea,BN43 5WX,50.83442609,-0.271720502,Govia Thameslink Railway (Southern)
Shortlands,BR2 0JA,51.40579903,0.001784022,Southeastern
Shotton,CH5 1BX,53.21254419,-3.038424988,TfW Rail
Shotts,ML7 5DX,55.81865191,-3.798319937,ScotRail
Shrewsbury,SY1 2DQ,52.71193124,-2.749761591,TfW Rail
Sidcup,DA15 7AW,51.43386827,0.103794567,Southeastern
Sileby,LE12 7RN,52.73159422,-1.109988753,East Midlands Railway
Silecroft,LA18 5LP,54.22596091,-3.334442089,Northern Trains
Silkstone Common,S75 4RS,53.53491808,-1.563478709,Northern Trains
Silver Street,N18 2UE,51.6146869,-0.067239999,London Overground
Silverdale,LA5 0SW,54.16991211,-2.803842857,Northern Trains
Singer,G81 2JQ,55.90767701,-4.405487104,ScotRail
Sittingbourne,ME10 3ED,51.34197386,0.73468431,Southeastern
Skegness,PE25 3QL,53.14317717,0.334347117,East Midlands Railway
Skewen,SA10 6HF,51.66139446,-3.846509503,TfW Rail
Skipton,BD23 1RT,53.95868848,-2.025872313,Northern Trains
Slade Green,DA8 2NX,51.46778413,0.190491338,Southeastern
Slaithwaite,HD7 5EB,53.62383108,-1.881578903,Northern Trains
Slateford,EH14 1BX,55.92669181,-3.243457107,ScotRail
Sleaford,NG34 7RG,52.99547211,-0.410346991,East Midlands Railway
Sleights,YO22 5AA,54.46105226,-0.662480849,Northern Trains
Slough,SL1 1XW,51.51187968,-0.59151044,Great Western Railway
Small Heath,B10 0DP,52.46376299,-1.859392907,West Midlands Trains (West Midlands Railway)
Smallbrook Junction,PO33 1AZ,50.71110265,-1.154198358,South Western Railway (Island Line)
Smethwick Galton Bridge,B66 1HU,52.50178248,-1.980511138,West Midlands Trains (West Midlands Railway)
Smethwick Rolfe Street,B66 2AF,52.49638649,-1.970644677,West Midlands Trains (West Midlands Railway)
Smithy Bridge,OL15 0DZ,53.63325536,-2.11350274,Northern Trains
Snaith,DN14 9HX,53.6931141,-1.028459834,Northern Trains
Snodland,ME6 5AN,51.33022826,0.448241222,Southeastern
Snowdown,CT15 4JH,51.21529641,1.213705019,Southeastern
Sole Street,DA13 0XY,51.38314322,0.378096904,Southeastern
Solihull,B91 1LE,52.41439194,-1.788390747,Chiltern Railways
Somerleyton,NR32 5QN,52.51022628,1.652259956,Greater Anglia
South Acton,W3 8TG,51.49969397,-0.270157269,London Overground
South Bank,TS6 6AZ,54.58383008,-1.176667057,Northern Trains
South Bermondsey,SE16 3JB,51.48813396,-0.054677738,Govia Thameslink Railway (Southern)
South Croydon,CR2 7PA,51.36296333,-0.093456589,Govia Thameslink Railway (Southern)
South Elmsall,WF9 2HP,53.5946086,-1.284858376,Northern Trains
South Greenford,UB6 2WE,51.53374833,-0.336704405,Great Western Railway
South Gyle,EH12 9EU,55.93635718,-3.299476752,ScotRail
South Hampstead,NW8 0DJ,51.54143076,-0.178877771,London Overground
South Kenton,HA9 8RB,51.57021278,-0.308462448,London Underground
South Merton,SW20 9JT,51.40299174,-0.205157478,Govia Thameslink Railway (Thameslink)
South Milford,LS25 6AA,53.78232693,-1.25052935,Northern Trains
South Ruislip,HA4 6TP,51.55691923,-0.399259149,London Underground
South Tottenham,N15 6UJ,51.58037067,-0.072102675,London Overground
South Wigston,LE18 4XU,52.5822246,-1.134077196,East Midlands Railway
South Woodham Ferrers,CM3 5NQ,51.64945563,0.606505044,Greater Anglia
Southall,UB2 4AA,51.50595552,-0.378610374,TfL Rail
Southampton Airport Parkway,SO18 2HW,50.95081594,-1.363096993,South Western Railway
Southampton Central,SO15 1AL,50.90744905,-1.41359602,South Western Railway
Southbourne,PO10 8LE,50.84827682,-0.908106796,Govia Thameslink Railway (Southern)
Southbury,EN3 4HW,51.64870343,-0.052436914,London Overground
Southease,BN8 6JS,50.83126355,0.030641246,Govia Thameslink Railway (Southern)
Southend Airport,SS2 6YF,51.56866674,0.70504972,Stobart Rail
Southend Central,SS1 1AB,51.53706172,0.711726566,c2c
Southend East,SS1 2UP,51.53896974,0.731814676,c2c
Southend Victoria,SS2 6AZ,51.54150982,0.711500716,Greater Anglia
Southminster,CM0 7EN,51.66062123,0.835192496,Greater Anglia
Southport,PR8 1BE,53.64652235,-3.002435244,Merseyrail
Southwick,BN42 4AE,50.8325149,-0.235961874,Govia Thameslink Railway (Southern)
Sowerby Bridge,HX6 3LB,53.70784787,-1.907021747,Northern Trains
Spalding,PE11 1EA,52.78880507,-0.156884151,East Midlands Railway
Spean Bridge,PH34 4EP,56.89001969,-4.921608083,ScotRail
Spital,CH62 2AD,53.33994022,-2.993907066,Merseyrail
Spondon,DE21 7RX,52.91221988,-1.411094044,East Midlands Railway
Spooner Row,NR18 9AH,52.53499355,1.086475537,Greater Anglia
Spring Road,B11 3DP,52.44341739,-1.837389696,West Midlands Trains (West Midlands Railway)
Springburn,G21 1SB,55.8819422,-4.230535233,ScotRail
Springfield,KY15 5QY,56.29497351,-3.052448605,ScotRail
Squires Gate,FY8 2SL,53.77733559,-3.050302136,Northern Trains
St Albans Abbey,AL1 2DN,51.74473227,-0.342568723,West Midlands Trains (London Northwestern Railway)
St Albans City,AL1 5HE,51.750472,-0.327538306,Govia Thameslink Railway (Thameslink)
St Andrews Road,BS11 9HS,51.51277406,-2.696313404,Great Western Railway
St Annes-On-The-Sea,FY8 2JE,53.75303496,-3.029099796,Northern Trains
St Austell,PL25 4LA,50.33952315,-4.789360109,Great Western Railway
St Bees,CA27 0BZ,54.49253601,-3.591150686,Northern Trains
St Budeaux Ferry Road,PL5 1JJ,50.40139734,-4.186812772,Great Western Railway
St Budeaux Victoria Road,PL5 1JJ,50.40201583,-4.187404152,Great Western Railway
St Columb Road,TR9 6QY,50.39871297,-4.940756529,Great Western Railway
St Denys,SO17 2EZ,50.92218999,-1.387759277,South Western Railway
St Erth,TR27 6JW,50.17049831,-5.444253631,Great Western Railway
St Germans,PL12 5LS,50.39427988,-4.308405299,Great Western Railway
St Helens Central,WA10 1DQ,53.45312575,-2.73030521,Northern Trains
St Helens Junction,WA9 3LA,53.43372829,-2.700259857,Northern Trains
St Helier,SM4 6ST,51.38989942,-0.198770749,Govia Thameslink Railway (Thameslink)
St Ives (Cornwall),TR26 2BP,50.20905167,-5.477914012,Great Western Railway
St James Park (Exeter),EX4 6QB,50.73115972,-3.521994413,Great Western Railway
St James Street,E17 7PJ,51.58097927,-0.032918459,London Overground
St Johns,SE8 4EW,51.46938915,-0.022718828,Southeastern
St Keyne Wishing Well Halt,PL14 4SE,50.42304581,-4.463520962,Great Western Railway
St Leonards Warrior Square,TN37 6HL,50.85569238,0.560279352,Southeastern
St Margarets,TW1 2LH,51.45523486,-0.320200501,South Western Railway
St Margarets (Herts),SG12 8DS,51.78783884,0.001269132,Greater Anglia
St Mary Cray,BR5 2PQ,51.39474743,0.106383587,Southeastern
St Michaels,L17 3TX,53.37560224,-2.952798748,Merseyrail
St Neots,PE19 1QF,52.23156633,-0.247413912,Govia Thameslink Railway (Great Northern)
St Pancras,N1C 4QP,51.53238879,-0.127189438,Network Rail
Stafford,ST16 2AA,52.80389182,-2.122035886,Avanti West Coast
Staines,TW18 4LY,51.43245453,-0.503164533,South Western Railway
Stallingborough,DN41 8AS,53.58709385,-0.1836668,Northern Trains
Stalybridge,SK15 1RF,53.48458104,-2.062741783,TransPennine Express
Stamford (Lincs),PE9 2WB,52.64783111,-0.480115236,East Midlands Railway
Stamford Hill,N16 5AG,51.57446581,-0.076682005,London Overground
Stanford-Le-Hope,SS17 0JX,51.5143612,0.423035735,c2c
Stanlow and Thornton,CH2 4NU,53.27836549,-2.842051907,Northern Trains
Stansted Airport,CM24 1QW,51.88858893,0.260815495,Greater Anglia
Stansted Mountfitchet,CM24 8BE,51.90143633,0.199780866,Greater Anglia
Staplehurst,TN12 0QR,51.17146481,0.550438388,Southeastern
Stapleton Road,BS5 6NE,51.46750928,-2.566217217,Great Western Railway
Starbeck,HG2 7JA,53.99899973,-1.501129791,Northern Trains
Starcross,EX6 8PA,50.62780169,-3.447704874,Great Western Railway
Staveley (Cumbria),LA8 9NG,54.37553551,-2.818862972,Northern Trains
Stechford,B33 8AJ,52.4848221,-1.811025513,West Midlands Trains (West Midlands Railway)
Steeton and Silsden,BD20 6RY,53.90003348,-1.944719765,Northern Trains
Stepps,G33 6AT,55.89014136,-4.140808469,ScotRail
Stevenage,SG1 1XT,51.90168618,-0.207109466,Govia Thameslink Railway (Great Northern)
Stevenston,KA20 3DP,55.63428483,-4.750790805,ScotRail
Stewartby,MK43 9LY,52.06907883,-0.520692242,West Midlands Trains (London Northwestern Railway)
Stewarton,KA3 5BD,55.68215939,-4.518058633,ScotRail
Stirling,FK8 1PF,56.11982139,-3.935620375,ScotRail
Stockport,SK3 9HZ,53.4055403,-2.163013363,Avanti West Coast
Stocksfield,NE43 7NQ,54.94704991,-1.916759427,Northern Trains
Stocksmoor,HD4 6XN,53.5940883,-1.723248041,Northern Trains
Stockton,TS18 2AJ,54.56962277,-1.318543243,Northern Trains
Stoke Mandeville,HP22 5UA,51.78779513,-0.784086296,Chiltern Railways
Stoke Newington,N16 6YA,51.56523119,-0.072887433,London Overground
Stoke-On-Trent,ST4 2AA,53.00798196,-2.180987611,Avanti West Coast
Stone (Staffs),ST15 8ER,52.90832799,-2.155041441,West Midlands Trains (West Midlands Railway)
Stone Crossing,DA9 9AR,51.45132834,0.263771153,Southeastern
Stonebridge Park,NW10 0RL,51.54410975,-0.275828431,London Underground
Stonegate,TN5 7ER,51.01996539,0.363868114,Southeastern
Stonehaven,AB39 2NE,56.96682539,-2.225297342,ScotRail
Stonehouse,GL10 2JW,51.74588968,-2.279498813,Great Western Railway
Stoneleigh,KT17 2JA,51.36339936,-0.248665216,South Western Railway
Stourbridge Junction,DY8 1NH,52.44754368,-2.13387656,West Midlands Trains (West Midlands Railway)
Stourbridge Town,DY8 1EX,52.45558048,-2.141818169,West Midlands Trains (West Midlands Railway)
Stow,TD1 2SQ,55.69242376,-2.865949476,ScotRail
Stowmarket,IP14 1RQ,52.18970973,1.000005245,Greater Anglia
Stranraer,DG9 8EJ,54.9096086,-5.024738834,ScotRail
Stratford,E15 1AZ,51.54189337,-0.003396741,TfL Rail
Stratford International,E20 1YY,51.54482651,-0.008777649,HS1 Ltd
Stratford-Upon-Avon,CV37 6PL,52.19424944,-1.716288626,West Midlands Trains (West Midlands Railway)
Stratford-upon-Avon Parkway,CV37 9QY,52.2067802,-1.73084256,West Midlands Trains (West Midlands Railway)
Strathcarron,IV54 8YR,57.42274022,-5.42861414,ScotRail
Strawberry Hill,TW1 4PP,51.43896182,-0.339358467,South Western Railway
Streatham,SW16 6HP,51.42580653,-0.131550337,Govia Thameslink Railway (Southern)
Streatham Common,SW16 5NT,51.4187284,-0.136009856,Govia Thameslink Railway (Southern)
Streatham Hill,SW2 4SA,51.43819125,-0.127160115,Govia Thameslink Railway (Southern)
Streethouse,WF7 6UJ,53.67615495,-1.400118531,Northern Trains
Strines,SK22 3AY,53.37504073,-2.033915967,Northern Trains
Stromeferry,IV53 8UH,57.35230473,-5.551162334,ScotRail
Strood (Kent),ME2 4DR,51.3965461,0.500187386,Southeastern
Stroud (Gloucs),GL5 3AP,51.74462368,-2.219382972,Great Western Railway
Sturry,CT2 0ED,51.30106546,1.1222552,Southeastern
Styal,SK9 4JW,53.34833173,-2.240456327,Northern Trains
Sudbury (Suffolk),CO10 6SU,52.03627528,0.735444267,Greater Anglia
Sudbury and Harrow Road,HA0 2LW,51.55439729,-0.315468214,Chiltern Railways
Sudbury Hill Harrow,HA1 3RJ,51.55846422,-0.335802891,Chiltern Railways
Sugar Loaf,LD5 4TE,52.08227425,-3.68694955,TfW Rail
Summerston,G23 5AT,55.89884125,-4.291539511,ScotRail
Sunbury,TW16 6RZ,51.41831218,-0.417782678,South Western Railway
Sunderland,SR1 3HP,54.90534032,-1.382304408,Northern Trains
Sundridge Park,BR1 3TR,51.41377983,0.021446325,Southeastern
Sunningdale,SL5 0EL,51.39193974,-0.633040736,South Western Railway
Sunnymeads,TW19 5HQ,51.47028751,-0.559374238,South Western Railway
Surbiton,KT6 4PE,51.39245848,-0.303958562,South Western Railway
Surrey Quays,SE16 2UE,51.49319473,-0.047518664,London Overground
Sutton,SM1 1JA,51.35953177,-0.19121482,Govia Thameslink Railway (Southern)
Sutton Coldfield,B73 6AY,52.56494336,-1.824844287,West Midlands Trains (West Midlands Railway)
Sutton Common,SM1 3HY,51.37488935,-0.19634258,Govia Thameslink Railway (Thameslink)
Sutton Parkway,NG17 5LG,53.11409314,-1.245568366,East Midlands Railway
Swale,ME9 8SS,51.38923336,0.747133594,Southeastern
Swanley,BR8 8JD,51.39338483,0.169225349,Southeastern
Swanscombe,DA10 0AG,51.44906829,0.309543182,Southeastern
Swansea,SA1 1NU,51.62515056,-3.941546894,TfW Rail
Swanwick,SO31 1BA,50.87567023,-1.265852512,South Western Railway
Sway,SO41 6BA,50.78470397,-1.609995921,South Western Railway
Swaythling,SO18 2LB,50.94114897,-1.376408731,South Western Railway
Swinderby,LN6 9HY,53.16955536,-0.70267949,East Midlands Railway
Swindon (Wilts),SN1 1DQ,51.56547355,-1.785511362,Great Western Railway
Swineshead,PE20 3PU,52.96980227,-0.187167438,East Midlands Railway
Swinton (Manchester),M27 6BT,53.51483449,-2.337461343,Northern Trains
Swinton (South Yorks),S64 8SP,53.4862404,-1.305821386,Northern Trains
Sydenham,SE26 5EU,51.4272463,-0.054243982,London Overground
Sydenham Hill,SE21 7ND,51.43271257,-0.080339572,Southeastern
Syon Lane,TW7 5NT,51.4817838,-0.324841916,South Western Railway
Syston,LE7 2HA,52.6942107,-1.082398824,East Midlands Railway
Tackley,OX5 3AT,51.88123834,-1.297535641,Great Western Railway
Tadworth,KT18 5AJ,51.2916362,-0.235964669,Govia Thameslink Railway (Southern)
Taffs Well,CF15 7PE,51.54080802,-3.262938469,TfW Rail
Tain,IV19 1JA,57.81442434,-4.052050008,ScotRail
Tal-y-Cafn,LL28 5RR,53.22836728,-3.818263919,TfW Rail
Talsarnau,LL47 6UA,52.90431302,-4.068155544,TfW Rail
Talybont,LL43 2AQ,52.77263508,-4.09659732,TfW Rail
Tame Bridge Parkway,WS10 0LD,52.55293414,-1.976211726,West Midlands Trains (West Midlands Railway)
Tamworth,B79 7JT,52.63747533,-1.686464562,West Midlands Trains (London Northwestern Railway)
Taplow,SL6 0NU,51.52356179,-0.681370469,TfL Rail
Tattenham Corner,KT18 5QD,51.30918196,-0.242609292,Govia Thameslink Railway (Southern)
Taunton,TA1 1QP,51.02330581,-3.102742086,Great Western Railway
Taynuilt,PA35 1JH,56.43081435,-5.239611451,ScotRail
Teddington,TW11 0BB,51.42447952,-0.332705991,South Western Railway
Teesside Airport,DL2 1NL,54.51813322,-1.42531156,Northern Trains
Teignmouth,TQ14 8PG,50.54806614,-3.494663438,Great Western Railway
Telford Central,TF3 4LZ,52.68110995,-2.44097128,West Midlands Trains (West Midlands Railway)
Templecombe,BA8 0JR,51.00150541,-2.417724998,South Western Railway
Tenby,SA70 7JY,51.67295078,-4.70669715,TfW Rail
Teynham,ME9 9DU,51.33338947,0.807425483,Southeastern
Thames Ditton,KT7 0PA,51.38909586,-0.339152188,South Western Railway
Thatcham,RG19 4PP,51.39384457,-1.243190138,Great Western Railway
Thatto Heath,WA9 5PE,53.43658504,-2.759374899,Northern Trains
The Hawthorns,B66 2HB,52.50537459,-1.964009083,West Midlands Trains (West Midlands Railway)
The Lakes (Warks),B94 5SE,52.35914512,-1.844673564,West Midlands Trains (West Midlands Railway)
Theale,RG7 4AA,51.43345164,-1.074973086,Great Western Railway
Theobalds Grove,EN8 7BG,51.69245491,-0.034831383,London Overground
Thetford,IP24 1AH,52.41912245,0.74507294,Greater Anglia
Thirsk,YO7 4LS,54.22821175,-1.372588141,TransPennine Express
Thornaby,TS17 6AW,54.55927091,-1.301412071,TransPennine Express
Thorne North,DN8 4HZ,53.61606285,-0.972330839,Northern Trains
Thorne South,DN8 5QN,53.60332959,-0.955109263,Northern Trains
Thornford,DT9 6PT,50.91057873,-2.578987564,Great Western Railway
Thornliebank,G46 7DA,55.8111047,-4.311708128,ScotRail
Thornton Abbey,DN39 6XF,53.65430145,-0.323021491,Northern Trains
Thornton Heath,CR7 8RX,51.39877577,-0.100305947,Govia Thameslink Railway (Southern)
Thorntonhall,G74 5AB,55.76868368,-4.251163138,ScotRail
Thorpe Bay,SS1 3JY,51.53756747,0.761727916,c2c
Thorpe Culvert,PE24 4NL,53.12308991,0.199415145,East Midlands Railway
Thorpe-le-Soken,CO16 0HQ,51.84763298,1.161400333,Greater Anglia
Three Bridges,RH10 1LY,51.1169223,-0.161184083,Govia Thameslink Railway (Southern)
Three Oaks,TN35 4NL,50.90111269,0.613050943,Govia Thameslink Railway (Southern)
Thurgarton,NG14 7JY,53.02894306,-0.962257041,East Midlands Railway
Thurnscoe,S63 0JR,53.54504283,-1.308783758,Northern Trains
Thurso,KW14 7DL,58.59018058,-3.527548851,ScotRail
Thurston,IP31 3QU,52.25000035,0.808652672,Greater Anglia
Tilbury Town,RM18 7BJ,51.46235627,0.354038458,c2c
Tile Hill,CV4 8AS,52.39510476,-1.596848536,West Midlands Trains (West Midlands Railway)
Tilehurst,RG31 6TH,51.4715087,-1.029815955,Great Western Railway
Tipton,DY4 8ET,52.53044359,-2.06570141,West Midlands Trains (West Midlands Railway)
Tir-Phil,NP24 6EL,51.72090998,-3.246380718,TfW Rail
Tisbury,SP3 6JT,51.0608547,-2.079002353,South Western Railway
Tiverton Parkway,EX16 7EH,50.91718132,-3.359644702,Great Western Railway
Todmorden,OL14 7AA,53.71381946,-2.09965943,Northern Trains
Tolworth,KT5 9NX,51.37685897,-0.27946147,South Western Railway
Ton Pentre,CF41 7PN,51.64780468,-3.486188006,TfW Rail
Tonbridge,TN9 1TT,51.1914091,0.27097304,Southeastern
Tondu,CF32 9DR,51.54736632,-3.595550177,TfW Rail
Tonfanau,LL36 8LP,52.6135469,-4.123698855,TfW Rail
Tonypandy,CF40 2TU,51.61976675,-3.448869879,TfW Rail
Tooting,SW17 9JR,51.419847,-0.161277734,Govia Thameslink Railway (Thameslink)
Topsham,EX3 0DS,50.68622033,-3.464423332,Great Western Railway
Torquay,TQ2 6NU,50.46113806,-3.543275945,Great Western Railway
Torre,TQ2 5DD,50.47319287,-3.546416605,Great Western Railway
Totnes,TQ9 5JR,50.43586935,-3.688693109,Great Western Railway
Tottenham Hale,N17 9LR,51.58830824,-0.059929187,Greater Anglia
Totton,SO40 3AB,50.91788188,-1.482417464,South Western Railway
Town Green,L39 6RG,53.54281008,-2.904487051,Merseyrail
Trafford Park,M32 1AA,53.45481932,-2.310631434,Northern Trains
Trefforest,CF37 1SL,51.59146592,-3.3251184,TfW Rail
Trefforest Estate,CF38 1SG,51.56829579,-3.29024872,TfW Rail
Trehafod,CF37 2LL,51.61015454,-3.380975182,TfW Rail
Treherbert,CF42 5HU,51.6722472,-3.536303162,TfW Rail
Treorchy,CF42 6UE,51.65753669,-3.505734492,TfW Rail
Trimley,IP10 0TS,51.97652505,1.319536268,Greater Anglia
Tring,HP23 5QR,51.80074049,-0.622439409,West Midlands Trains (London Northwestern Railway)
Troed-Y-Rhiw,CF48 4DY,51.7124292,-3.34674461,TfW Rail
Troon,KA10 6JY,55.54281693,-4.655300718,ScotRail
Trowbridge,BA14 8HW,51.31983297,-2.214334707,Great Western Railway
Truro,TR1 3HH,50.26384754,-5.064813693,Great Western Railway
Tulloch,PH31 4AR,56.88428433,-4.70132227,ScotRail
Tulse Hill,SE27 9BW,51.43985964,-0.105076767,Govia Thameslink Railway (Southern)
Tunbridge Wells,TN1 1BT,51.13023179,0.262810302,Southeastern
Turkey Street,EN3 5TT,51.67262646,-0.047216638,London Overground
Tutbury and Hatton,DE65 5DX,52.86413634,-1.682235104,East Midlands Railway
Tweedbank,TD1 3AB,55.60574439,-2.759531573,ScotRail
Twickenham,TW1 1BD,51.45003001,-0.330393822,South Western Railway
Twyford,RG10 9NA,51.4755338,-0.863292641,Great Western Railway
Ty Croes,LL63 5HX,53.22256308,-4.474733847,TfW Rail
Ty Glas,CF14 5DL,51.52154217,-3.196534694,TfW Rail
Tygwyn,LL47 6TF,52.89379012,-4.078655609,TfW Rail
Tyndrum Lower,FK20 8RZ,56.43334785,-4.714822246,ScotRail
Tyseley,B11 2HH,52.45411787,-1.839116207,West Midlands Trains (West Midlands Railway)
Tywyn,LL36 9EY,52.58558104,-4.09356008,TfW Rail
Uckfield,TN22 5DL,50.96873724,0.096380885,Govia Thameslink Railway (Southern)
Uddingston,G71 7LR,55.82353265,-4.086698551,ScotRail
Ulceby,DN39 6BE,53.61919962,-0.300826771,Northern Trains
Ulleskelf,LS24 9DJ,53.85361183,-1.213972177,Northern Trains
Ulverston,LA12 0DP,54.19158776,-3.09791569,Northern Trains
Umberleigh,EX37 9AB,50.99675297,-3.982887788,Great Western Railway
University (Birmingham),B15 2FB,52.45124357,-1.936683911,West Midlands Trains (West Midlands Railway)
Uphall,EH54 5QG,55.91904635,-3.502120113,ScotRail
Upholland,WN8 9QD,53.52838217,-2.741405313,Northern Trains
Upminster,RM14 2TD,51.55910602,0.250883915,c2c
Upper Halliford,TW16 7HB,51.41306623,-0.430905797,South Western Railway
Upper Holloway,N19 4DJ,51.56362974,-0.129513083,London Overground
Upper Tyndrum,FK20 8RY,56.43466889,-4.703722626,ScotRail
Upper Warlingham,CR3 0EP,51.30851019,-0.077951747,Govia Thameslink Railway (Southern)
Upton (Merseyside),CH43 9RY,53.38649081,-3.084153042,TfW Rail
Upwey,DT3 5RB,50.64827403,-2.46613842,South Western Railway
Urmston,M41 5AW,53.44827248,-2.353796854,Northern Trains
Uttoxeter,ST14 8XG,52.8967923,-1.857254842,East Midlands Railway
Valley,LL65 3EW,53.28129013,-4.563369948,TfW Rail
Vauxhall,SW8 1SS,51.48618836,-0.12288955,South Western Railway
Victoria,SW1V 1JU,51.49525603,-0.144558809,Network Rail
Virginia Water,GU25 4AA,51.40180139,-0.562173849,South Western Railway
Waddon,CR0 4UP,51.36739631,-0.117335912,Govia Thameslink Railway (Southern)
Wadhurst,TN5 6RZ,51.0734586,0.313173499,Southeastern
Wainfleet,PE24 2DR,53.10512461,0.234727276,East Midlands Railway
Wakefield Kirkgate,WF1 4EL,53.67865952,-1.488570701,Northern Trains
Wakefield Westgate,WF1 2QN,53.68307444,-1.506110611,London North Eastern Railway
Walkden,M28 3DY,53.51977724,-2.396321349,Northern Trains
Wallasey Grove Road,CH45 8JX,53.42800647,-3.069707525,Merseyrail
Wallasey Village,CH45 8PD,53.42288795,-3.069127542,Merseyrail
Wallington,SM6 0DZ,51.36038501,-0.150832954,Govia Thameslink Railway (Southern)
Wallyford,EH21 8DZ,55.94028771,-3.014950848,ScotRail
Walmer,CT14 7RN,51.20331832,1.382874266,Southeastern
Walsall,WS2 9JS,52.58439992,-1.984755139,West Midlands Trains (West Midlands Railway)
Walsden,OL14 7ST,53.69626161,-2.104464296,Northern Trains
Waltham Cross,EN8 7LU,51.68505932,-0.026558398,Greater Anglia
Walthamstow Central,E17 7LP,51.58291708,-0.019815029,London Overground
Walthamstow Queen's Road,E17 7QJ,51.58150126,-0.023845893,London Overground
Walton (Merseyside),L9 1EY,53.45621851,-2.965747539,Merseyrail
Walton-On-Thames,KT12 1NR,51.37293004,-0.414635038,South Western Railway
Walton-on-the-Naze,CO14 8DH,51.8461653,1.267669581,Greater Anglia
Wanborough,GU3 2ED,51.24452266,-0.667587798,South Western Railway
Wandsworth Common,SW12 8SG,51.44618339,-0.163385992,Govia Thameslink Railway (Southern)
Wandsworth Road,SW4 6AD,51.47021498,-0.138519666,London Overground
Wandsworth Town,SW18 1SU,51.4610464,-0.188125482,South Western Railway
Wanstead Park,E7 0HX,51.55169121,0.026212988,London Overground
Wapping,E1W 3PA,51.50438644,-0.055930898,London Overground
Warblington,PO9 2QD,50.85344563,-0.967156447,Govia Thameslink Railway (Southern)
Ware (Herts),SG12 9UT,51.80795874,-0.028781386,Greater Anglia
Wareham (Dorset),BH20 4AS,50.69289024,-2.115246764,South Western Railway
Wargrave,RG10 8EU,51.4981589,-0.876516734,Great Western Railway
Warminster,BA12 9BP,51.20677844,-2.176734316,Great Western Railway
Warnham,RH12 3SR,51.09290091,-0.329464172,Govia Thameslink Railway (Southern)
Warrington Bank Quay,WA1 1LW,53.38601086,-2.602364553,Avanti West Coast
Warrington Central,WA2 7TT,53.39181867,-2.593168689,Northern Trains
Warrington West,WA5 8SA,53.39399602,-2.638087072,Northern Trains
Warwick,CV34 4LA,52.2865406,-1.581854651,Chiltern Railways
Warwick Parkway,CV35 8RH,52.28610423,-1.612058009,Chiltern Railways
Water Orton,B46 1NE,52.51858624,-1.743090565,West Midlands Trains (West Midlands Railway)
Waterbeach,CB25 9HT,52.26230346,0.196790502,Govia Thameslink Railway (Great Northern)
Wateringbury,ME18 5EA,51.24973269,0.422466481,Southeastern
Waterloo,SE1 8SW,51.50329709,-0.113108948,Network Rail
Waterloo (Merseyside),L22 0LY,53.47495642,-3.025536673,Merseyrail
Waterloo East,SE1 8NH,51.50407456,-0.108898165,Southeastern
Watford High Street,WD17 2NW,51.6526539,-0.391711178,London Overground
Watford Junction,WD17 1EU,51.66352805,-0.396517054,West Midlands Trains (London Northwestern Railway)
Watford North,WD24 7DS,51.67570297,-0.389925807,West Midlands Trains (London Northwestern Railway)
Watlington,PE33 0JF,52.67316929,0.383316073,Govia Thameslink Railway (Great Northern)
Watton-At-Stone,SG14 3SH,51.85643635,-0.11942749,Govia Thameslink Railway (Great Northern)
Waun-gron Park,CF5 2BN,51.48819931,-3.229652897,TfW Rail
Wavertree Technology Park,L13 1EG,53.40519486,-2.922909385,Northern Trains
Weeley,CO16 9DH,51.85309538,1.115481623,Greater Anglia
Weeton,LS17 0HL,53.92317886,-1.581215779,Northern Trains
Welham Green,AL9 7HF,51.73635082,-0.210691753,Govia Thameslink Railway (Great Northern)
Welling,DA16 3DN,51.46479661,0.101689552,Southeastern
Wellingborough,NN8 1NA,52.30378212,-0.676650949,East Midlands Railway
Wellington (Shropshire),TF1 1BY,52.70130756,-2.517165761,West Midlands Trains (West Midlands Railway)
Welshpool,SY21 7AZ,52.65749778,-3.139871767,TfW Rail
Welwyn Garden City,AL8 6HA,51.80104673,-0.204070489,Govia Thameslink Railway (Great Northern)
Welwyn North,AL6 0AS,51.82349607,-0.192091562,Govia Thameslink Railway (Great Northern)
Wem,SY4 5AZ,52.85641213,-2.718017304,TfW Rail
Wembley Central,HA9 7AJ,51.55232398,-0.296432869,London Underground
Wembley Stadium,HA9 8BQ,51.55441437,-0.285608307,Chiltern Railways
Wemyss Bay,PA18 6AA,55.87615031,-4.889081204,ScotRail
Wendover,HP22 6BN,51.76175683,-0.747372385,Chiltern Railways
Wennington,LA2 8PB,54.12370738,-2.587510772,Northern Trains
West Allerton,L18 7HF,53.36912772,-2.906964703,Northern Trains
West Brompton,SW5 9JX,51.48705997,-0.195592641,London Underground
West Byfleet,KT14 6DY,51.33922486,-0.505485229,South Western Railway
West Calder,EH55 8BP,55.85380744,-3.567017443,ScotRail
West Croydon,CR0 2TA,51.37842621,-0.102585552,London Overground
West Drayton,UB7 9DY,51.51005399,-0.472234315,TfL Rail
West Dulwich,SE21 8HN,51.44071637,-0.091371513,Southeastern
West Ealing,W13 0NQ,51.51350433,-0.320133285,TfL Rail
West Ham,E15 3BN,51.52848761,0.005431065,London Underground
West Hampstead,NW6 2LJ,51.54746624,-0.191184598,London Overground
West Hampstead Thameslink,NW6 2RB,51.54847445,-0.191836919,Govia Thameslink Railway (Thameslink)
West Horndon,CM13 3TJ,51.56794305,0.340643637,c2c
West Kilbride,KA23 9BP,55.69616114,-4.851746825,ScotRail
West Kirby,CH48 4DZ,53.37317545,-3.183771928,Merseyrail
West Malling,ME19 6HJ,51.29201832,0.418653247,Southeastern
West Norwood,SE27 0HS,51.43174608,-0.103829996,Govia Thameslink Railway (Southern)
West Ruislip,HA4 7DW,51.56975749,-0.437767755,London Underground
West Runton,NR27 9QD,52.935522,1.245457334,Greater Anglia
West St Leonards,TN38 0NL,50.85315107,0.539935202,Southeastern
West Sutton,SM1 2EY,51.36585249,-0.20517335,Govia Thameslink Railway (Thameslink)
West Wickham,BR4 0EH,51.38129974,-0.01443195,Southeastern
West Worthing,BN11 4SR,50.81835284,-0.392985202,Govia Thameslink Railway (Southern)
Westbury,BA13 4HP,51.26698798,-2.199181964,Great Western Railway
Westcliff,SS0 7SB,51.53733068,0.691465853,c2c
Westcombe Park,SE3 7EQ,51.48420097,0.018394653,Southeastern
Westenhanger,TN25 6DE,51.09495739,1.038049484,Southeastern
Wester Hailes,EH14 3AQ,55.91432143,-3.284339765,ScotRail
Westerfield,IP6 9AE,52.08097928,1.165904717,Greater Anglia
Westerton,G61 1PA,55.90481233,-4.334881061,ScotRail
Westgate-On-Sea,CT8 8QY,51.38144185,1.3383617,Southeastern
Westhoughton,BL5 3LE,53.55567226,-2.523727021,Northern Trains
Weston Milton,BS22 8PF,51.34847363,-2.94238656,Great Western Railway
Weston-Super-Mare,BS23 1XY,51.34432292,-2.971662969,Great Western Railway
Wetheral,CA4 8JP,54.88384326,-2.831713594,Northern Trains
Weybridge,KT13 8UD,51.36177033,-0.457738674,South Western Railway
Weymouth,DT4 7BN,50.61531728,-2.454222305,South Western Railway
Whaley Bridge,SK23 7AA,53.33023628,-1.984645284,Northern Trains
Whalley (Lancashire),BB7 9SE,53.82401936,-2.412253335,Northern Trains
Whatstandwell,DE4 5HE,53.08331444,-1.50408634,East Midlands Railway
Whifflet,ML5 4AS,55.85369638,-4.018656019,ScotRail
Whimple,EX5 2QH,50.76803154,-3.354322674,South Western Railway
Whinhill,PA15 3AH,55.93837743,-4.746695566,ScotRail
Whiston,L35 3TY,53.41387177,-2.796432269,Northern Trains
Whitby,YO21 1YN,54.48460931,-0.615402936,Northern Trains
Whitchurch (Cardiff),CF14 1BP,51.52075406,-3.223250941,TfW Rail
Whitchurch (Hampshire),RG28 7ER,51.23754468,-1.337747114,South Western Railway
Whitchurch (Shropshire),SY13 1RL,52.96806268,-2.671698594,TfW Rail
White Hart Lane,N17 8HG,51.60503548,-0.07091362,London Overground
White Notley,CM8 1RP,51.83890914,0.595863403,Greater Anglia
Whitechapel,E1 1BY,51.51946746,-0.059757126,London Underground
Whitecraigs,G46 6JB,55.79032741,-4.310157677,ScotRail
Whitehaven,CA28 6AX,54.55303567,-3.586933824,Northern Trains
Whitland,SA34 0AP,51.81803585,-4.614391824,TfW Rail
Whitley Bridge,DN14 0HH,53.6991301,-1.158280417,Northern Trains
Whitlocks End,B90 1PN,52.39183304,-1.851539047,West Midlands Trains (West Midlands Railway)
Whitstable,CT5 1RB,51.35757934,1.033294643,Southeastern
Whittlesea,PE7 1UF,52.54952763,-0.118991017,Greater Anglia
Whittlesford Parkway,CB22 4NL,52.10358626,0.165617092,Greater Anglia
Whitton,TW2 7LG,51.44960617,-0.357681416,South Western Railway
Whitwell (Derbyshire),S80 4NY,53.27996078,-1.200207235,East Midlands Railway
Whyteleafe,CR3 0AD,51.30995651,-0.081148379,Govia Thameslink Railway (Southern)
Whyteleafe South,CR3 0BB,51.30338526,-0.076917733,Govia Thameslink Railway (Southern)
Wick,KW1 4QT,58.44157173,-3.096859229,ScotRail
Wickford,SS11 7AT,51.61502058,0.519185027,Greater Anglia
Wickham Market,IP13 0PT,52.15109622,1.39868001,Greater Anglia
Widdrington,NE61 5QH,55.24130712,-1.616473584,Northern Trains
Widnes,WA8 7TJ,53.37849937,-2.733537087,Northern Trains
Widney Manor,B91 3JW,52.39593634,-1.774370634,West Midlands Trains (West Midlands Railway)
Wigan North Western,WN1 1BJ,53.54366406,-2.63327414,Avanti West Coast
Wigan Wallgate,WN1 1BB,53.54482404,-2.633185822,Northern Trains
Wigton,CA7 9BA,54.8291206,-3.164343205,Northern Trains
Wildmill,CF31 1RW,51.52087495,-3.579633351,TfW Rail
Willesden Junction,NW10 4UY,51.53249531,-0.244547893,London Overground
Williamwood,G76 7HQ,55.7936913,-4.290335503,ScotRail
Willington,DE65 6BN,52.85364571,-1.563360686,East Midlands Railway
Wilmcote,CV37 9UP,52.22299961,-1.756011498,West Midlands Trains (West Midlands Railway)
Wilmslow,SK9 1BU,53.32684948,-2.226327285,Northern Trains
Wilnecote (Staffs),B77 5AL,52.61071271,-1.679714643,West Midlands Trains (West Midlands Railway)
Wimbledon,SW19 7NL,51.42127442,-0.20638304,South Western Railway
Wimbledon Chase,SW20 8JT,51.40955702,-0.214031236,Govia Thameslink Railway (Thameslink)
Winchelsea,TN36 4JX,50.93376303,0.702261626,Govia Thameslink Railway (Southern)
Winchester,SO23 8TJ,51.06721108,-1.319700063,South Western Railway
Winchfield,RG27 8BX,51.28494987,-0.906977423,South Western Railway
Winchmore Hill,N21 3NG,51.63394054,-0.100900241,Govia Thameslink Railway (Great Northern)
Windermere,LA23 1AH,54.37960601,-2.903391911,Northern Trains
Windsor and Eton Central,SL4 1PJ,51.48326721,-0.610379951,Great Western Railway
Windsor and Eton Riverside,SL4 1QG,51.48564944,-0.606534067,South Western Railway
Winnersh,RG41 5LU,51.43028229,-0.876858641,South Western Railway
Winnersh Triangle,RG41 5TS,51.4367414,-0.891331695,South Western Railway
Winsford,CW7 3NF,53.19051373,-2.494599683,West Midlands Trains (London Northwestern Railway)
Wishaw,ML2 0EX,55.77204708,-3.926425694,ScotRail
Witham,CM8 2BS,51.80596589,0.63913005,Greater Anglia
Witley,GU8 5TB,51.13316132,-0.64578305,South Western Railway
Witton (West Midlands),B6 7BA,52.51238077,-1.88443481,West Midlands Trains (West Midlands Railway)
Wivelsfield,RH15 0QF,50.96429519,-0.120790019,Govia Thameslink Railway (Southern)
Wivenhoe,CO7 9DJ,51.85652727,0.956137566,Greater Anglia
Woburn Sands,MK17 8UD,52.01815093,-0.654084042,West Midlands Trains (London Northwestern Railway)
Woking,GU22 7AE,51.31846855,-0.556959702,South Western Railway
Wokingham,RG40 2AP,51.41121817,-0.842543269,South Western Railway
Woldingham,CR3 7LT,51.29015625,-0.051869712,Govia Thameslink Railway (Southern)
Wolverhampton,WV1 1LE,52.58784654,-2.119514777,West Midlands Trains (West Midlands Railway)
Wolverton,MK12 5LJ,52.06587739,-0.804267019,West Midlands Trains (London Northwestern Railway)
Wombwell,S73 0LU,53.51734635,-1.416162632,Northern Trains
Wood End,B94 5DS,52.34368143,-1.844213909,West Midlands Trains (West Midlands Railway)
Wood Street,E17 3LX,51.58657871,-0.002405402,London Overground
Woodbridge,IP12 4AU,52.09044274,1.317771042,Greater Anglia
Woodgrange Park,E7 8AF,51.54926197,0.044423225,London Overground
Woodhall,PA14 5PP,55.93121195,-4.655402197,ScotRail
Woodhouse,S13 7RF,53.36374424,-1.357553565,Northern Trains
Woodlesford,LS26 8RA,53.75678792,-1.442879545,Northern Trains
Woodley,SK6 1NX,53.42925502,-2.09327181,Northern Trains
Woodmansterne,CR5 3HS,51.31901858,-0.154262129,Govia Thameslink Railway (Southern)
Woodsmoor,SK2 7DW,53.38647532,-2.142086862,Northern Trains
Wool,BH20 6BL,50.68163975,-2.221460148,South Western Railway
Woolston,SO19 2DJ,50.8989238,-1.377057963,South Western Railway
Woolwich Arsenal,SE18 6EU,51.48990712,0.069193906,Southeastern
Woolwich Dockyard,SE18 5JY,51.49112526,0.054641945,Southeastern
Wootton Wawen,B95 6BJ,52.26690126,-1.784696724,West Midlands Trains (West Midlands Railway)
Worcester Foregate Street,WR1 1DB,52.19514631,-2.221596651,West Midlands Trains (West Midlands Railway)
Worcester Park,KT4 7NB,51.38125125,-0.245167311,South Western Railway
Worcester Shrub Hill,WR4 9EJ,52.19472805,-2.209408038,West Midlands Trains (West Midlands Railway)
Worcestershire Parkway,WR7 4RD,52.15604762,-2.160025438,Great Western Railway
Workington,CA14 2UZ,54.64509932,-3.558501008,Northern Trains
Worksop,S81 7AG,53.31150714,-1.122771353,Northern Trains
Worle,BS22 6WA,51.3580393,-2.909622115,Great Western Railway
Worplesdon,GU22 0RN,51.2890167,-0.582578214,South Western Railway
Worstead,NR28 9RX,52.77742222,1.404081105,Greater Anglia
Worthing,BN11 1UR,50.81849773,-0.376171465,Govia Thameslink Railway (Southern)
Wrabness,CO11 2TJ,51.93950586,1.171497904,Greater Anglia
Wraysbury,TW19 5NJ,51.45770755,-0.541921905,South Western Railway
Wrenbury,CW5 8EX,53.01939104,-2.595946731,TfW Rail
Wressle,YO8 6ES,53.77292348,-0.924349107,Northern Trains
Wrexham Central,LL11 1SN,53.04619131,-2.999053041,TfW Rail
Wrexham General,LL11 1EL,53.05023502,-3.002443538,TfW Rail
Wye,TN25 5EB,51.18500853,0.929303638,Southeastern
Wylam,NE41 8JA,54.97497332,-1.814061926,Northern Trains
Wylde Green,B73 5LA,52.5457146,-1.831409009,West Midlands Trains (West Midlands Railway)
Wymondham,NR18 0JZ,52.56540874,1.118025319,Greater Anglia
Wythall,B47 6BY,52.37993789,-1.86553514,West Midlands Trains (West Midlands Railway)
Yalding,ME18 6HN,51.22648129,0.412164074,Southeastern
Yardley Wood,B28 0BY,52.42150383,-1.854380509,West Midlands Trains (West Midlands Railway)
Yarm,TS15 9EH,54.49389955,-1.35154517,TransPennine Express
Yate,BS37 5JF,51.54060425,-2.432521996,Great Western Railway
Yatton,BS49 4AJ,51.39101691,-2.827779282,Great Western Railway
Yeoford,EX17 5JB,50.77692855,-3.727119888,Great Western Railway
Yeovil Junction,BA22 9UU,50.92475093,-2.612456891,South Western Railway
Yeovil Pen Mill,BA21 5DD,50.94452921,-2.613428541,Great Western Railway
Yetminster,DT9 6LH,50.89576697,-2.573756024,Great Western Railway
Ynyswen,CF42 6EG,51.66497535,-3.521597504,TfW Rail
Yoker,G81 1AD,55.89259183,-4.386287682,ScotRail
York,YO24 1AB,53.95796604,-1.093182204,London North Eastern Railway
Yorton,SY4 3EP,52.80895982,-2.736461529,TfW Rail
Ystrad Mynach,CF82 7BP,51.64093794,-3.241295938,TfW Rail
Ystrad Rhondda,CF41 7SR,51.64364389,-3.466685257,TfW Rail
